[
  {
    "suburb_id": 591,
    "state": "nsw",
    "postcode": 2566,
    "suburb_name": "Bow Bowing"
  },
  {
    "suburb_id": 806,
    "state": "nsw",
    "postcode": 2550,
    "suburb_name": "Candelo"
  },
  {
    "suburb_id": 221,
    "state": "nsw",
    "postcode": 2361,
    "suburb_name": "Ashford"
  },
  {
    "suburb_id": 1734,
    "state": "nsw",
    "postcode": 2770,
    "suburb_name": "Hebersham"
  },
  {
    "suburb_id": 2817,
    "state": "nsw",
    "postcode": 2256,
    "suburb_name": "Pearl Beach"
  },
  {
    "suburb_id": 1024,
    "state": "nsw",
    "postcode": 2829,
    "suburb_name": "Coonamble"
  },
  {
    "suburb_id": 2652,
    "state": "nsw",
    "postcode": 2536,
    "suburb_name": "North Batemans Bay"
  },
  {
    "suburb_id": 3045,
    "state": "nsw",
    "postcode": 2046,
    "suburb_name": "Russell Lea"
  },
  {
    "suburb_id": 1598,
    "state": "nsw",
    "postcode": 2263,
    "suburb_name": "Gorokan"
  },
  {
    "suburb_id": 2771,
    "state": "nsw",
    "postcode": 2760,
    "suburb_name": "Oxley Park"
  },
  {
    "suburb_id": 1470,
    "state": "nsw",
    "postcode": 2086,
    "suburb_name": "Frenchs Forest"
  },
  {
    "suburb_id": 374,
    "state": "nsw",
    "postcode": 2085,
    "suburb_name": "Belrose"
  },
  {
    "suburb_id": 3905,
    "state": "nsw",
    "postcode": 2464,
    "suburb_name": "Yamba"
  },
  {
    "suburb_id": 899,
    "state": "nsw",
    "postcode": 2119,
    "suburb_name": "Cheltenham"
  },
  {
    "suburb_id": 222,
    "state": "nsw",
    "postcode": 2400,
    "suburb_name": "Ashley"
  },
  {
    "suburb_id": 2192,
    "state": "nsw",
    "postcode": 2113,
    "suburb_name": "Macquarie Park"
  },
  {
    "suburb_id": 2632,
    "state": "nsw",
    "postcode": 2042,
    "suburb_name": "Newtown"
  },
  {
    "suburb_id": 2661,
    "state": "nsw",
    "postcode": 2443,
    "suburb_name": "North Haven"
  },
  {
    "suburb_id": 1002,
    "state": "nsw",
    "postcode": 2034,
    "suburb_name": "Coogee"
  },
  {
    "suburb_id": 3373,
    "state": "nsw",
    "postcode": 2570,
    "suburb_name": "The Oaks"
  },
  {
    "suburb_id": 1422,
    "state": "nsw",
    "postcode": 2479,
    "suburb_name": "Fernleigh"
  },
  {
    "suburb_id": 1562,
    "state": "nsw",
    "postcode": 2768,
    "suburb_name": "Glenwood"
  },
  {
    "suburb_id": 2030,
    "state": "nsw",
    "postcode": 2325,
    "suburb_name": "Laguna"
  },
  {
    "suburb_id": 951,
    "state": "nsw",
    "postcode": 2570,
    "suburb_name": "Cobbitty"
  },
  {
    "suburb_id": 1821,
    "state": "nsw",
    "postcode": 2296,
    "suburb_name": "Islington"
  },
  {
    "suburb_id": 3501,
    "state": "nsw",
    "postcode": 2205,
    "suburb_name": "Turrella"
  },
  {
    "suburb_id": 1829,
    "state": "nsw",
    "postcode": 2226,
    "suburb_name": "Jannali"
  },
  {
    "suburb_id": 1638,
    "state": "nsw",
    "postcode": 2810,
    "suburb_name": "Grenfell"
  },
  {
    "suburb_id": 3724,
    "state": "nsw",
    "postcode": 2171,
    "suburb_name": "West Hoxton"
  },
  {
    "suburb_id": 3685,
    "state": "nsw",
    "postcode": 2060,
    "suburb_name": "Waverton"
  },
  {
    "suburb_id": 3324,
    "state": "nsw",
    "postcode": 2471,
    "suburb_name": "Tatham"
  },
  {
    "suburb_id": 962,
    "state": "nsw",
    "postcode": 2626,
    "suburb_name": "Colinton"
  },
  {
    "suburb_id": 3272,
    "state": "nsw",
    "postcode": 2000,
    "suburb_name": "Sydney"
  },
  {
    "suburb_id": 2222,
    "state": "nsw",
    "postcode": 2250,
    "suburb_name": "Mangrove Mountain"
  },
  {
    "suburb_id": 990,
    "state": "nsw",
    "postcode": 2877,
    "suburb_name": "Condobolin"
  },
  {
    "suburb_id": 814,
    "state": "nsw",
    "postcode": 2193,
    "suburb_name": "Canterbury"
  },
  {
    "suburb_id": 3895,
    "state": "nsw",
    "postcode": 2250,
    "suburb_name": "Wyoming"
  },
  {
    "suburb_id": 2088,
    "state": "nsw",
    "postcode": 2770,
    "suburb_name": "Lethbridge Park"
  },
  {
    "suburb_id": 800,
    "state": "nsw",
    "postcode": 2194,
    "suburb_name": "Campsie"
  },
  {
    "suburb_id": 2653,
    "state": "nsw",
    "postcode": 2450,
    "suburb_name": "North Boambee Valley"
  },
  {
    "suburb_id": 2922,
    "state": "nsw",
    "postcode": 2325,
    "suburb_name": "Quorrobolong"
  },
  {
    "suburb_id": 3766,
    "state": "nsw",
    "postcode": 2836,
    "suburb_name": "Wilcannia"
  },
  {
    "suburb_id": 2681,
    "state": "nsw",
    "postcode": 2340,
    "suburb_name": "North Tamworth"
  },
  {
    "suburb_id": 255,
    "state": "nsw",
    "postcode": 2358,
    "suburb_name": "Balala"
  },
  {
    "suburb_id": 290,
    "state": "nsw",
    "postcode": 2083,
    "suburb_name": "Bar Point"
  },
  {
    "suburb_id": 1327,
    "state": "nsw",
    "postcode": 2446,
    "suburb_name": "Ellenborough"
  },
  {
    "suburb_id": 414,
    "state": "nsw",
    "postcode": 2590,
    "suburb_name": "Bethungra"
  },
  {
    "suburb_id": 1886,
    "state": "nsw",
    "postcode": 2450,
    "suburb_name": "Karangi"
  },
  {
    "suburb_id": 2643,
    "state": "nsw",
    "postcode": 2263,
    "suburb_name": "Noraville"
  },
  {
    "suburb_id": 1910,
    "state": "nsw",
    "postcode": 2439,
    "suburb_name": "Kendall"
  },
  {
    "suburb_id": 665,
    "state": "nsw",
    "postcode": 2650,
    "suburb_name": "Brucedale"
  },
  {
    "suburb_id": 2730,
    "state": "nsw",
    "postcode": 2223,
    "suburb_name": "Oatley"
  },
  {
    "suburb_id": 2603,
    "state": "nsw",
    "postcode": 2315,
    "suburb_name": "Nelson Bay"
  },
  {
    "suburb_id": 3214,
    "state": "nsw",
    "postcode": 2327,
    "suburb_name": "Stanford Merthyr"
  },
  {
    "suburb_id": 1795,
    "state": "nsw",
    "postcode": 2111,
    "suburb_name": "Huntleys Cove"
  },
  {
    "suburb_id": 2934,
    "state": "nsw",
    "postcode": 2287,
    "suburb_name": "Rankin Park"
  },
  {
    "suburb_id": 2439,
    "state": "nsw",
    "postcode": 2321,
    "suburb_name": "Morpeth"
  },
  {
    "suburb_id": 3838,
    "state": "nsw",
    "postcode": 2472,
    "suburb_name": "Woodburn"
  },
  {
    "suburb_id": 346,
    "state": "nsw",
    "postcode": 2550,
    "suburb_name": "Bega"
  },
  {
    "suburb_id": 2834,
    "state": "nsw",
    "postcode": 2574,
    "suburb_name": "Pheasants Nest"
  },
  {
    "suburb_id": 1954,
    "state": "nsw",
    "postcode": 2147,
    "suburb_name": "Kings Langley"
  },
  {
    "suburb_id": 815,
    "state": "nsw",
    "postcode": 2263,
    "suburb_name": "Canton Beach"
  },
  {
    "suburb_id": 247,
    "state": "nsw",
    "postcode": 2555,
    "suburb_name": "Badgerys Creek"
  },
  {
    "suburb_id": 3152,
    "state": "nsw",
    "postcode": 2795,
    "suburb_name": "South Bathurst"
  },
  {
    "suburb_id": 2004,
    "state": "nsw",
    "postcode": 2441,
    "suburb_name": "Kundabung"
  },
  {
    "suburb_id": 2578,
    "state": "nsw",
    "postcode": 2250,
    "suburb_name": "Narara"
  },
  {
    "suburb_id": 2601,
    "state": "nsw",
    "postcode": 2536,
    "suburb_name": "Nelligen"
  },
  {
    "suburb_id": 1227,
    "state": "nsw",
    "postcode": 2047,
    "suburb_name": "Drummoyne"
  },
  {
    "suburb_id": 2665,
    "state": "nsw",
    "postcode": 2447,
    "suburb_name": "North Macksville"
  },
  {
    "suburb_id": 284,
    "state": "nsw",
    "postcode": 2200,
    "suburb_name": "Bankstown"
  },
  {
    "suburb_id": 488,
    "state": "nsw",
    "postcode": 2758,
    "suburb_name": "Blaxlands Ridge"
  },
  {
    "suburb_id": 464,
    "state": "nsw",
    "postcode": 2322,
    "suburb_name": "Black Hill"
  },
  {
    "suburb_id": 3052,
    "state": "nsw",
    "postcode": 2112,
    "suburb_name": "Ryde"
  },
  {
    "suburb_id": 1096,
    "state": "nsw",
    "postcode": 2065,
    "suburb_name": "Crows Nest"
  },
  {
    "suburb_id": 1799,
    "state": "nsw",
    "postcode": 2220,
    "suburb_name": "Hurstville"
  },
  {
    "suburb_id": 1424,
    "state": "nsw",
    "postcode": 2484,
    "suburb_name": "Fernvale"
  },
  {
    "suburb_id": 593,
    "state": "nsw",
    "postcode": 2753,
    "suburb_name": "Bowen Mountain"
  },
  {
    "suburb_id": 792,
    "state": "nsw",
    "postcode": 2570,
    "suburb_name": "Camden Park"
  },
  {
    "suburb_id": 3778,
    "state": "nsw",
    "postcode": 2068,
    "suburb_name": "Willoughby"
  },
  {
    "suburb_id": 365,
    "state": "nsw",
    "postcode": 2454,
    "suburb_name": "Bellingen"
  },
  {
    "suburb_id": 2739,
    "state": "nsw",
    "postcode": 2430,
    "suburb_name": "Old Bar"
  },
  {
    "suburb_id": 3705,
    "state": "nsw",
    "postcode": 2648,
    "suburb_name": "Wentworth"
  },
  {
    "suburb_id": 2705,
    "state": "nsw",
    "postcode": 2630,
    "suburb_name": "Numeralla"
  },
  {
    "suburb_id": 1178,
    "state": "nsw",
    "postcode": 2453,
    "suburb_name": "Deer Vale"
  },
  {
    "suburb_id": 3435,
    "state": "nsw",
    "postcode": 2146,
    "suburb_name": "Toongabbie"
  },
  {
    "suburb_id": 922,
    "state": "nsw",
    "postcode": 2756,
    "suburb_name": "Clarendon"
  },
  {
    "suburb_id": 393,
    "state": "nsw",
    "postcode": 2261,
    "suburb_name": "Berkeley Vale"
  },
  {
    "suburb_id": 3191,
    "state": "nsw",
    "postcode": 2666,
    "suburb_name": "Springdale"
  },
  {
    "suburb_id": 3173,
    "state": "nsw",
    "postcode": 2074,
    "suburb_name": "South Turramurra"
  },
  {
    "suburb_id": 2079,
    "state": "nsw",
    "postcode": 2040,
    "suburb_name": "Leichhardt"
  },
  {
    "suburb_id": 436,
    "state": "nsw",
    "postcode": 2107,
    "suburb_name": "Bilgola Plateau"
  },
  {
    "suburb_id": 3516,
    "state": "nsw",
    "postcode": 2484,
    "suburb_name": "Uki"
  },
  {
    "suburb_id": 3954,
    "state": "nsw",
    "postcode": 2594,
    "suburb_name": "Young"
  },
  {
    "suburb_id": 2614,
    "state": "nsw",
    "postcode": 2826,
    "suburb_name": "Nevertire"
  },
  {
    "suburb_id": 935,
    "state": "nsw",
    "postcode": 2031,
    "suburb_name": "Clovelly"
  },
  {
    "suburb_id": 293,
    "state": "nsw",
    "postcode": 2234,
    "suburb_name": "Barden Ridge"
  },
  {
    "suburb_id": 2845,
    "state": "nsw",
    "postcode": 2486,
    "suburb_name": "Piggabeen"
  },
  {
    "suburb_id": 1939,
    "state": "nsw",
    "postcode": 2261,
    "suburb_name": "Killarney Vale"
  },
  {
    "suburb_id": 3799,
    "state": "nsw",
    "postcode": 2337,
    "suburb_name": "Wingen"
  },
  {
    "suburb_id": 633,
    "state": "nsw",
    "postcode": 2580,
    "suburb_name": "Brisbane Grove"
  },
  {
    "suburb_id": 1724,
    "state": "nsw",
    "postcode": 2711,
    "suburb_name": "Hay"
  },
  {
    "suburb_id": 841,
    "state": "nsw",
    "postcode": 2580,
    "suburb_name": "Carrick"
  },
  {
    "suburb_id": 1758,
    "state": "nsw",
    "postcode": 2168,
    "suburb_name": "Hinchinbrook"
  },
  {
    "suburb_id": 890,
    "state": "nsw",
    "postcode": 2428,
    "suburb_name": "Charlotte Bay"
  },
  {
    "suburb_id": 2364,
    "state": "nsw",
    "postcode": 2312,
    "suburb_name": "Minimbah"
  },
  {
    "suburb_id": 1788,
    "state": "nsw",
    "postcode": 2171,
    "suburb_name": "Hoxton Park"
  },
  {
    "suburb_id": 868,
    "state": "nsw",
    "postcode": 2281,
    "suburb_name": "Caves Beach"
  },
  {
    "suburb_id": 567,
    "state": "nsw",
    "postcode": 2425,
    "suburb_name": "Booral"
  },
  {
    "suburb_id": 3498,
    "state": "nsw",
    "postcode": 2537,
    "suburb_name": "Tuross Head"
  },
  {
    "suburb_id": 1552,
    "state": "nsw",
    "postcode": 2745,
    "suburb_name": "Glenmore Park"
  },
  {
    "suburb_id": 847,
    "state": "nsw",
    "postcode": 2168,
    "suburb_name": "Cartwright"
  },
  {
    "suburb_id": 2773,
    "state": "nsw",
    "postcode": 2225,
    "suburb_name": "Oyster Bay"
  },
  {
    "suburb_id": 2802,
    "state": "nsw",
    "postcode": 2768,
    "suburb_name": "Parklea"
  },
  {
    "suburb_id": 2699,
    "state": "nsw",
    "postcode": 2540,
    "suburb_name": "Nowra Hill"
  },
  {
    "suburb_id": 3178,
    "state": "nsw",
    "postcode": 2460,
    "suburb_name": "Southgate"
  },
  {
    "suburb_id": 1961,
    "state": "nsw",
    "postcode": 2208,
    "suburb_name": "Kingsgrove"
  },
  {
    "suburb_id": 3821,
    "state": "nsw",
    "postcode": 2500,
    "suburb_name": "Wollongong"
  },
  {
    "suburb_id": 1237,
    "state": "nsw",
    "postcode": 2484,
    "suburb_name": "Dum Dum"
  },
  {
    "suburb_id": 3729,
    "state": "nsw",
    "postcode": 2114,
    "suburb_name": "West Ryde"
  },
  {
    "suburb_id": 2419,
    "state": "nsw",
    "postcode": 2083,
    "suburb_name": "Mooney Mooney"
  },
  {
    "suburb_id": 1464,
    "state": "nsw",
    "postcode": 2534,
    "suburb_name": "Foxground"
  },
  {
    "suburb_id": 144,
    "state": "nsw",
    "postcode": 2729,
    "suburb_name": "Adelong"
  },
  {
    "suburb_id": 616,
    "state": "nsw",
    "postcode": 2581,
    "suburb_name": "Breadalbane"
  },
  {
    "suburb_id": 3717,
    "state": "nsw",
    "postcode": 2640,
    "suburb_name": "West Albury"
  },
  {
    "suburb_id": 884,
    "state": "nsw",
    "postcode": 2259,
    "suburb_name": "Chain Valley Bay"
  },
  {
    "suburb_id": 3614,
    "state": "nsw",
    "postcode": 2845,
    "suburb_name": "Wallerawang"
  },
  {
    "suburb_id": 489,
    "state": "nsw",
    "postcode": 2799,
    "suburb_name": "Blayney"
  },
  {
    "suburb_id": 486,
    "state": "nsw",
    "postcode": 2774,
    "suburb_name": "Blaxland"
  },
  {
    "suburb_id": 780,
    "state": "nsw",
    "postcode": 2540,
    "suburb_name": "Callala Bay"
  },
  {
    "suburb_id": 1128,
    "state": "nsw",
    "postcode": 2648,
    "suburb_name": "Curlwaa"
  },
  {
    "suburb_id": 888,
    "state": "nsw",
    "postcode": 2290,
    "suburb_name": "Charlestown"
  },
  {
    "suburb_id": 1072,
    "state": "nsw",
    "postcode": 2749,
    "suburb_name": "Cranebrook"
  },
  {
    "suburb_id": 1499,
    "state": "nsw",
    "postcode": 2298,
    "suburb_name": "Georgetown"
  },
  {
    "suburb_id": 3597,
    "state": "nsw",
    "postcode": 2832,
    "suburb_name": "Walgett"
  },
  {
    "suburb_id": 420,
    "state": "nsw",
    "postcode": 2207,
    "suburb_name": "Bexley North"
  },
  {
    "suburb_id": 3595,
    "state": "nsw",
    "postcode": 2354,
    "suburb_name": "Walcha"
  },
  {
    "suburb_id": 634,
    "state": "nsw",
    "postcode": 2292,
    "suburb_name": "Broadmeadow"
  },
  {
    "suburb_id": 1300,
    "state": "nsw",
    "postcode": 2756,
    "suburb_name": "Ebenezer"
  },
  {
    "suburb_id": 3666,
    "state": "nsw",
    "postcode": 2259,
    "suburb_name": "Watanobbi"
  },
  {
    "suburb_id": 3198,
    "state": "nsw",
    "postcode": 2775,
    "suburb_name": "St Albans"
  },
  {
    "suburb_id": 1640,
    "state": "nsw",
    "postcode": 2334,
    "suburb_name": "Greta"
  },
  {
    "suburb_id": 1132,
    "state": "nsw",
    "postcode": 2567,
    "suburb_name": "Currans Hill"
  },
  {
    "suburb_id": 1525,
    "state": "nsw",
    "postcode": 2425,
    "suburb_name": "Girvan"
  },
  {
    "suburb_id": 3777,
    "state": "nsw",
    "postcode": 2770,
    "suburb_name": "Willmot"
  },
  {
    "suburb_id": 3543,
    "state": "nsw",
    "postcode": 2775,
    "suburb_name": "Upper Macdonald"
  },
  {
    "suburb_id": 1818,
    "state": "nsw",
    "postcode": 2350,
    "suburb_name": "Invergowrie"
  },
  {
    "suburb_id": 883,
    "state": "nsw",
    "postcode": 2325,
    "suburb_name": "Cessnock"
  },
  {
    "suburb_id": 294,
    "state": "nsw",
    "postcode": 2167,
    "suburb_name": "Bardia"
  },
  {
    "suburb_id": 3239,
    "state": "nsw",
    "postcode": 2135,
    "suburb_name": "Strathfield"
  },
  {
    "suburb_id": 1849,
    "state": "nsw",
    "postcode": 2280,
    "suburb_name": "Jewells"
  },
  {
    "suburb_id": 1428,
    "state": "nsw",
    "postcode": 2525,
    "suburb_name": "Figtree"
  },
  {
    "suburb_id": 2189,
    "state": "nsw",
    "postcode": 2564,
    "suburb_name": "Macquarie Fields"
  },
  {
    "suburb_id": 1980,
    "state": "nsw",
    "postcode": 2217,
    "suburb_name": "Kogarah Bay"
  },
  {
    "suburb_id": 1013,
    "state": "nsw",
    "postcode": 2535,
    "suburb_name": "Coolangatta"
  },
  {
    "suburb_id": 3128,
    "state": "nsw",
    "postcode": 2128,
    "suburb_name": "Silverwater"
  },
  {
    "suburb_id": 3047,
    "state": "nsw",
    "postcode": 2320,
    "suburb_name": "Rutherford"
  },
  {
    "suburb_id": 2038,
    "state": "nsw",
    "postcode": 2263,
    "suburb_name": "Lake Haven"
  },
  {
    "suburb_id": 2602,
    "state": "nsw",
    "postcode": 2765,
    "suburb_name": "Nelson"
  },
  {
    "suburb_id": 1776,
    "state": "nsw",
    "postcode": 2077,
    "suburb_name": "Hornsby"
  },
  {
    "suburb_id": 1590,
    "state": "nsw",
    "postcode": 2480,
    "suburb_name": "Goonellabah"
  },
  {
    "suburb_id": 2447,
    "state": "nsw",
    "postcode": 2537,
    "suburb_name": "Moruya Heads"
  },
  {
    "suburb_id": 1831,
    "state": "nsw",
    "postcode": 2582,
    "suburb_name": "Jeir"
  },
  {
    "suburb_id": 133,
    "state": "nsw",
    "postcode": 2325,
    "suburb_name": "Aberdare"
  },
  {
    "suburb_id": 2195,
    "state": "nsw",
    "postcode": 2261,
    "suburb_name": "Magenta"
  },
  {
    "suburb_id": 3351,
    "state": "nsw",
    "postcode": 2260,
    "suburb_name": "Terrigal"
  },
  {
    "suburb_id": 3600,
    "state": "nsw",
    "postcode": 2430,
    "suburb_name": "Wallabi Point"
  },
  {
    "suburb_id": 3730,
    "state": "nsw",
    "postcode": 2340,
    "suburb_name": "West Tamworth"
  },
  {
    "suburb_id": 3317,
    "state": "nsw",
    "postcode": 2229,
    "suburb_name": "Taren Point"
  },
  {
    "suburb_id": 1106,
    "state": "nsw",
    "postcode": 2484,
    "suburb_name": "Cudgera Creek"
  },
  {
    "suburb_id": 1321,
    "state": "nsw",
    "postcode": 2011,
    "suburb_name": "Elizabeth Bay"
  },
  {
    "suburb_id": 1540,
    "state": "nsw",
    "postcode": 2773,
    "suburb_name": "Glenbrook"
  },
  {
    "suburb_id": 1219,
    "state": "nsw",
    "postcode": 2569,
    "suburb_name": "Douglas Park"
  },
  {
    "suburb_id": 270,
    "state": "nsw",
    "postcode": 2478,
    "suburb_name": "Ballina"
  },
  {
    "suburb_id": 2023,
    "state": "nsw",
    "postcode": 2036,
    "suburb_name": "La Perouse"
  },
  {
    "suburb_id": 2913,
    "state": "nsw",
    "postcode": 2620,
    "suburb_name": "Queanbeyan"
  },
  {
    "suburb_id": 594,
    "state": "nsw",
    "postcode": 2790,
    "suburb_name": "Bowenfels"
  },
  {
    "suburb_id": 875,
    "state": "nsw",
    "postcode": 2429,
    "suburb_name": "Cedar Party"
  },
  {
    "suburb_id": 3542,
    "state": "nsw",
    "postcode": 2430,
    "suburb_name": "Upper Lansdowne"
  },
  {
    "suburb_id": 3655,
    "state": "nsw",
    "postcode": 2074,
    "suburb_name": "Warrawee"
  },
  {
    "suburb_id": 3142,
    "state": "nsw",
    "postcode": 2440,
    "suburb_name": "Smithtown"
  },
  {
    "suburb_id": 2014,
    "state": "nsw",
    "postcode": 2758,
    "suburb_name": "Kurrajong Heights"
  },
  {
    "suburb_id": 1217,
    "state": "nsw",
    "postcode": 2028,
    "suburb_name": "Double Bay"
  },
  {
    "suburb_id": 1542,
    "state": "nsw",
    "postcode": 2285,
    "suburb_name": "Glendale"
  },
  {
    "suburb_id": 3410,
    "state": "nsw",
    "postcode": 2352,
    "suburb_name": "Tintinhull"
  },
  {
    "suburb_id": 1809,
    "state": "nsw",
    "postcode": 2234,
    "suburb_name": "Illawong"
  },
  {
    "suburb_id": 1291,
    "state": "nsw",
    "postcode": 2324,
    "suburb_name": "East Seaham"
  },
  {
    "suburb_id": 3653,
    "state": "nsw",
    "postcode": 2340,
    "suburb_name": "Warral"
  },
  {
    "suburb_id": 3051,
    "state": "nsw",
    "postcode": 2116,
    "suburb_name": "Rydalmere"
  },
  {
    "suburb_id": 3294,
    "state": "nsw",
    "postcode": 2463,
    "suburb_name": "Taloumbi"
  },
  {
    "suburb_id": 1399,
    "state": "nsw",
    "postcode": 2165,
    "suburb_name": "Fairfield West"
  },
  {
    "suburb_id": 2778,
    "state": "nsw",
    "postcode": 2211,
    "suburb_name": "Padstow"
  },
  {
    "suburb_id": 332,
    "state": "nsw",
    "postcode": 2015,
    "suburb_name": "Beaconsfield"
  },
  {
    "suburb_id": 2685,
    "state": "nsw",
    "postcode": 2076,
    "suburb_name": "North Wahroonga"
  },
  {
    "suburb_id": 1351,
    "state": "nsw",
    "postcode": 2264,
    "suburb_name": "Eraring"
  },
  {
    "suburb_id": 1894,
    "state": "nsw",
    "postcode": 2325,
    "suburb_name": "Kearsley"
  },
  {
    "suburb_id": 3800,
    "state": "nsw",
    "postcode": 2429,
    "suburb_name": "Wingham"
  },
  {
    "suburb_id": 1971,
    "state": "nsw",
    "postcode": 2570,
    "suburb_name": "Kirkham"
  },
  {
    "suburb_id": 3867,
    "state": "nsw",
    "postcode": 2644,
    "suburb_name": "Woomargama"
  },
  {
    "suburb_id": 1763,
    "state": "nsw",
    "postcode": 2644,
    "suburb_name": "Holbrook"
  },
  {
    "suburb_id": 2478,
    "state": "nsw",
    "postcode": 2570,
    "suburb_name": "Mount Hunter"
  },
  {
    "suburb_id": 514,
    "state": "nsw",
    "postcode": 2876,
    "suburb_name": "Bogan Gate"
  },
  {
    "suburb_id": 156,
    "state": "nsw",
    "postcode": 2015,
    "suburb_name": "Alexandria"
  },
  {
    "suburb_id": 502,
    "state": "nsw",
    "postcode": 2452,
    "suburb_name": "Boambee East"
  },
  {
    "suburb_id": 3241,
    "state": "nsw",
    "postcode": 2425,
    "suburb_name": "Stroud"
  },
  {
    "suburb_id": 1362,
    "state": "nsw",
    "postcode": 2558,
    "suburb_name": "Eschol Park"
  },
  {
    "suburb_id": 1354,
    "state": "nsw",
    "postcode": 2250,
    "suburb_name": "Erina"
  },
  {
    "suburb_id": 3845,
    "state": "nsw",
    "postcode": 2575,
    "suburb_name": "Woodlands"
  },
  {
    "suburb_id": 1031,
    "state": "nsw",
    "postcode": 2479,
    "suburb_name": "Coorabell"
  },
  {
    "suburb_id": 1543,
    "state": "nsw",
    "postcode": 2761,
    "suburb_name": "Glendenning"
  },
  {
    "suburb_id": 1260,
    "state": "nsw",
    "postcode": 2795,
    "suburb_name": "Duramana"
  },
  {
    "suburb_id": 1934,
    "state": "nsw",
    "postcode": 2283,
    "suburb_name": "Kilaben Bay"
  },
  {
    "suburb_id": 1184,
    "state": "nsw",
    "postcode": 2114,
    "suburb_name": "Denistone"
  },
  {
    "suburb_id": 532,
    "state": "nsw",
    "postcode": 2850,
    "suburb_name": "Bombira"
  },
  {
    "suburb_id": 954,
    "state": "nsw",
    "postcode": 2480,
    "suburb_name": "Coffee Camp"
  },
  {
    "suburb_id": 701,
    "state": "nsw",
    "postcode": 2516,
    "suburb_name": "Bulli"
  },
  {
    "suburb_id": 3417,
    "state": "nsw",
    "postcode": 2650,
    "suburb_name": "Tolland"
  },
  {
    "suburb_id": 257,
    "state": "nsw",
    "postcode": 2549,
    "suburb_name": "Bald Hills"
  },
  {
    "suburb_id": 3361,
    "state": "nsw",
    "postcode": 2261,
    "suburb_name": "The Entrance"
  },
  {
    "suburb_id": 3286,
    "state": "nsw",
    "postcode": 2852,
    "suburb_name": "Tallawang"
  },
  {
    "suburb_id": 1697,
    "state": "nsw",
    "postcode": 2641,
    "suburb_name": "Hamilton Valley"
  },
  {
    "suburb_id": 969,
    "state": "nsw",
    "postcode": 2650,
    "suburb_name": "Collingullie"
  },
  {
    "suburb_id": 910,
    "state": "nsw",
    "postcode": 2170,
    "suburb_name": "Chipping Norton"
  },
  {
    "suburb_id": 1647,
    "state": "nsw",
    "postcode": 2753,
    "suburb_name": "Grose Vale"
  },
  {
    "suburb_id": 1290,
    "state": "nsw",
    "postcode": 2113,
    "suburb_name": "East Ryde"
  },
  {
    "suburb_id": 2582,
    "state": "nsw",
    "postcode": 2546,
    "suburb_name": "Narooma"
  },
  {
    "suburb_id": 1289,
    "state": "nsw",
    "postcode": 2323,
    "suburb_name": "East Maitland"
  },
  {
    "suburb_id": 1902,
    "state": "nsw",
    "postcode": 2155,
    "suburb_name": "Kellyville"
  },
  {
    "suburb_id": 3147,
    "state": "nsw",
    "postcode": 2250,
    "suburb_name": "Somersby"
  },
  {
    "suburb_id": 2784,
    "state": "nsw",
    "postcode": 2108,
    "suburb_name": "Palm Beach"
  },
  {
    "suburb_id": 1278,
    "state": "nsw",
    "postcode": 2250,
    "suburb_name": "East Gosford"
  },
  {
    "suburb_id": 2044,
    "state": "nsw",
    "postcode": 2539,
    "suburb_name": "Lake Tabourie"
  },
  {
    "suburb_id": 2204,
    "state": "nsw",
    "postcode": 2320,
    "suburb_name": "Maitland Vale"
  },
  {
    "suburb_id": 2353,
    "state": "nsw",
    "postcode": 2549,
    "suburb_name": "Millingandi"
  },
  {
    "suburb_id": 1020,
    "state": "nsw",
    "postcode": 2428,
    "suburb_name": "Coomba Park"
  },
  {
    "suburb_id": 1285,
    "state": "nsw",
    "postcode": 2758,
    "suburb_name": "East Kurrajong"
  },
  {
    "suburb_id": 283,
    "state": "nsw",
    "postcode": 2019,
    "suburb_name": "Banksmeadow"
  },
  {
    "suburb_id": 2946,
    "state": "nsw",
    "postcode": 2430,
    "suburb_name": "Red Head"
  },
  {
    "suburb_id": 2904,
    "state": "nsw",
    "postcode": 2073,
    "suburb_name": "Pymble"
  },
  {
    "suburb_id": 2660,
    "state": "nsw",
    "postcode": 2250,
    "suburb_name": "North Gosford"
  },
  {
    "suburb_id": 1213,
    "state": "nsw",
    "postcode": 2264,
    "suburb_name": "Dora Creek"
  },
  {
    "suburb_id": 3455,
    "state": "nsw",
    "postcode": 2480,
    "suburb_name": "Tregeagle"
  },
  {
    "suburb_id": 3204,
    "state": "nsw",
    "postcode": 2560,
    "suburb_name": "St Helens Park"
  },
  {
    "suburb_id": 2077,
    "state": "nsw",
    "postcode": 2470,
    "suburb_name": "Leeville"
  },
  {
    "suburb_id": 1983,
    "state": "nsw",
    "postcode": 2530,
    "suburb_name": "Koonawarra"
  },
  {
    "suburb_id": 3853,
    "state": "nsw",
    "postcode": 2321,
    "suburb_name": "Woodville"
  },
  {
    "suburb_id": 184,
    "state": "nsw",
    "postcode": 2316,
    "suburb_name": "Anna Bay"
  },
  {
    "suburb_id": 960,
    "state": "nsw",
    "postcode": 2515,
    "suburb_name": "Coledale"
  },
  {
    "suburb_id": 2223,
    "state": "nsw",
    "postcode": 2865,
    "suburb_name": "Manildra"
  },
  {
    "suburb_id": 2938,
    "state": "nsw",
    "postcode": 2283,
    "suburb_name": "Rathmines"
  },
  {
    "suburb_id": 2218,
    "state": "nsw",
    "postcode": 2500,
    "suburb_name": "Mangerton"
  },
  {
    "suburb_id": 3014,
    "state": "nsw",
    "postcode": 2560,
    "suburb_name": "Rosemeadow"
  },
  {
    "suburb_id": 3018,
    "state": "nsw",
    "postcode": 2446,
    "suburb_name": "Rosewood"
  },
  {
    "suburb_id": 2671,
    "state": "nsw",
    "postcode": 2151,
    "suburb_name": "North Parramatta"
  },
  {
    "suburb_id": 1984,
    "state": "nsw",
    "postcode": 2480,
    "suburb_name": "Koonorigan"
  },
  {
    "suburb_id": 1940,
    "state": "nsw",
    "postcode": 2429,
    "suburb_name": "Killawarra"
  },
  {
    "suburb_id": 2013,
    "state": "nsw",
    "postcode": 2758,
    "suburb_name": "Kurrajong"
  },
  {
    "suburb_id": 3563,
    "state": "nsw",
    "postcode": 2484,
    "suburb_name": "Urliup"
  },
  {
    "suburb_id": 976,
    "state": "nsw",
    "postcode": 2575,
    "suburb_name": "Colo Vale"
  },
  {
    "suburb_id": 3750,
    "state": "nsw",
    "postcode": 2480,
    "suburb_name": "Whian Whian"
  },
  {
    "suburb_id": 3341,
    "state": "nsw",
    "postcode": 2111,
    "suburb_name": "Tennyson Point"
  },
  {
    "suburb_id": 3256,
    "state": "nsw",
    "postcode": 2536,
    "suburb_name": "Surfside"
  },
  {
    "suburb_id": 1532,
    "state": "nsw",
    "postcode": 2560,
    "suburb_name": "Glen Alpine"
  },
  {
    "suburb_id": 3349,
    "state": "nsw",
    "postcode": 2486,
    "suburb_name": "Terranora"
  },
  {
    "suburb_id": 1497,
    "state": "nsw",
    "postcode": 2198,
    "suburb_name": "Georges Hall"
  },
  {
    "suburb_id": 3207,
    "state": "nsw",
    "postcode": 2075,
    "suburb_name": "St Ives Chase"
  },
  {
    "suburb_id": 1904,
    "state": "nsw",
    "postcode": 2795,
    "suburb_name": "Kelso"
  },
  {
    "suburb_id": 2954,
    "state": "nsw",
    "postcode": 2290,
    "suburb_name": "Redhead"
  },
  {
    "suburb_id": 342,
    "state": "nsw",
    "postcode": 2119,
    "suburb_name": "Beecroft"
  },
  {
    "suburb_id": 1759,
    "state": "nsw",
    "postcode": 2321,
    "suburb_name": "Hinton"
  },
  {
    "suburb_id": 3105,
    "state": "nsw",
    "postcode": 2460,
    "suburb_name": "Seelands"
  },
  {
    "suburb_id": 1805,
    "state": "nsw",
    "postcode": 2463,
    "suburb_name": "Ilarwill"
  },
  {
    "suburb_id": 1613,
    "state": "nsw",
    "postcode": 2850,
    "suburb_name": "Grattai"
  },
  {
    "suburb_id": 1486,
    "state": "nsw",
    "postcode": 2702,
    "suburb_name": "Ganmain"
  },
  {
    "suburb_id": 3503,
    "state": "nsw",
    "postcode": 2485,
    "suburb_name": "Tweed Heads"
  },
  {
    "suburb_id": 504,
    "state": "nsw",
    "postcode": 2316,
    "suburb_name": "Boat Harbour"
  },
  {
    "suburb_id": 453,
    "state": "nsw",
    "postcode": 2395,
    "suburb_name": "Binnaway"
  },
  {
    "suburb_id": 1571,
    "state": "nsw",
    "postcode": 2586,
    "suburb_name": "Godfreys Creek"
  },
  {
    "suburb_id": 174,
    "state": "nsw",
    "postcode": 2560,
    "suburb_name": "Ambarvale"
  },
  {
    "suburb_id": 1994,
    "state": "nsw",
    "postcode": 2289,
    "suburb_name": "Kotara"
  },
  {
    "suburb_id": 2624,
    "state": "nsw",
    "postcode": 2300,
    "suburb_name": "Newcastle"
  },
  {
    "suburb_id": 3166,
    "state": "nsw",
    "postcode": 2320,
    "suburb_name": "South Maitland"
  },
  {
    "suburb_id": 232,
    "state": "nsw",
    "postcode": 2107,
    "suburb_name": "Avalon Beach"
  },
  {
    "suburb_id": 2684,
    "state": "nsw",
    "postcode": 2650,
    "suburb_name": "North Wagga Wagga"
  },
  {
    "suburb_id": 2242,
    "state": "nsw",
    "postcode": 2441,
    "suburb_name": "Marlo Merrican"
  },
  {
    "suburb_id": 3875,
    "state": "nsw",
    "postcode": 2233,
    "suburb_name": "Woronora Heights"
  },
  {
    "suburb_id": 1455,
    "state": "nsw",
    "postcode": 2798,
    "suburb_name": "Forest Reefs"
  },
  {
    "suburb_id": 223,
    "state": "nsw",
    "postcode": 2650,
    "suburb_name": "Ashmont"
  },
  {
    "suburb_id": 2950,
    "state": "nsw",
    "postcode": 2446,
    "suburb_name": "Redbank"
  },
  {
    "suburb_id": 1769,
    "state": "nsw",
    "postcode": 2140,
    "suburb_name": "Homebush"
  },
  {
    "suburb_id": 2842,
    "state": "nsw",
    "postcode": 2213,
    "suburb_name": "Picnic Point"
  },
  {
    "suburb_id": 2647,
    "state": "nsw",
    "postcode": 2640,
    "suburb_name": "North Albury"
  },
  {
    "suburb_id": 3004,
    "state": "nsw",
    "postcode": 2029,
    "suburb_name": "Rose Bay"
  },
  {
    "suburb_id": 2463,
    "state": "nsw",
    "postcode": 2567,
    "suburb_name": "Mount Annan"
  },
  {
    "suburb_id": 1628,
    "state": "nsw",
    "postcode": 2230,
    "suburb_name": "Greenhills Beach"
  },
  {
    "suburb_id": 2399,
    "state": "nsw",
    "postcode": 2430,
    "suburb_name": "Mondrook"
  },
  {
    "suburb_id": 2268,
    "state": "nsw",
    "postcode": 2036,
    "suburb_name": "Matraville"
  },
  {
    "suburb_id": 1754,
    "state": "nsw",
    "postcode": 2036,
    "suburb_name": "Hillsdale"
  },
  {
    "suburb_id": 1156,
    "state": "nsw",
    "postcode": 2717,
    "suburb_name": "Dareton"
  },
  {
    "suburb_id": 2662,
    "state": "nsw",
    "postcode": 2155,
    "suburb_name": "North Kellyville"
  },
  {
    "suburb_id": 1544,
    "state": "nsw",
    "postcode": 2330,
    "suburb_name": "Glendon Brook"
  },
  {
    "suburb_id": 1963,
    "state": "nsw",
    "postcode": 2358,
    "suburb_name": "Kingstown"
  },
  {
    "suburb_id": 1599,
    "state": "nsw",
    "postcode": 2250,
    "suburb_name": "Gosford"
  },
  {
    "suburb_id": 1170,
    "state": "nsw",
    "postcode": 2251,
    "suburb_name": "Davistown"
  },
  {
    "suburb_id": 937,
    "state": "nsw",
    "postcode": 2440,
    "suburb_name": "Clybucca"
  },
  {
    "suburb_id": 157,
    "state": "nsw",
    "postcode": 2234,
    "suburb_name": "Alfords Point"
  },
  {
    "suburb_id": 3568,
    "state": "nsw",
    "postcode": 2280,
    "suburb_name": "Valentine"
  },
  {
    "suburb_id": 1398,
    "state": "nsw",
    "postcode": 2165,
    "suburb_name": "Fairfield Heights"
  },
  {
    "suburb_id": 382,
    "state": "nsw",
    "postcode": 2420,
    "suburb_name": "Bendolba"
  },
  {
    "suburb_id": 2792,
    "state": "nsw",
    "postcode": 2549,
    "suburb_name": "Pambula Beach"
  },
  {
    "suburb_id": 1303,
    "state": "nsw",
    "postcode": 2551,
    "suburb_name": "Eden"
  },
  {
    "suburb_id": 3482,
    "state": "nsw",
    "postcode": 2261,
    "suburb_name": "Tumbi Umbi"
  },
  {
    "suburb_id": 605,
    "state": "nsw",
    "postcode": 2551,
    "suburb_name": "Boydtown"
  },
  {
    "suburb_id": 3553,
    "state": "nsw",
    "postcode": 2439,
    "suburb_name": "Upsalls Creek"
  },
  {
    "suburb_id": 3108,
    "state": "nsw",
    "postcode": 2147,
    "suburb_name": "Seven Hills"
  },
  {
    "suburb_id": 972,
    "state": "nsw",
    "postcode": 2440,
    "suburb_name": "Collombatti"
  },
  {
    "suburb_id": 3391,
    "state": "nsw",
    "postcode": 2444,
    "suburb_name": "Thrumster"
  },
  {
    "suburb_id": 1898,
    "state": "nsw",
    "postcode": 2500,
    "suburb_name": "Keiraville"
  },
  {
    "suburb_id": 3037,
    "state": "nsw",
    "postcode": 2039,
    "suburb_name": "Rozelle"
  },
  {
    "suburb_id": 236,
    "state": "nsw",
    "postcode": 2530,
    "suburb_name": "Avondale"
  },
  {
    "suburb_id": 921,
    "state": "nsw",
    "postcode": 2321,
    "suburb_name": "Clarence Town"
  },
  {
    "suburb_id": 1535,
    "state": "nsw",
    "postcode": 2370,
    "suburb_name": "Glen Innes"
  },
  {
    "suburb_id": 3368,
    "state": "nsw",
    "postcode": 2300,
    "suburb_name": "The Hill"
  },
  {
    "suburb_id": 3335,
    "state": "nsw",
    "postcode": 2666,
    "suburb_name": "Temora"
  },
  {
    "suburb_id": 720,
    "state": "nsw",
    "postcode": 2621,
    "suburb_name": "Bungendore"
  },
  {
    "suburb_id": 1668,
    "state": "nsw",
    "postcode": 2333,
    "suburb_name": "Gungal"
  },
  {
    "suburb_id": 866,
    "state": "nsw",
    "postcode": 2756,
    "suburb_name": "Cattai"
  },
  {
    "suburb_id": 3795,
    "state": "nsw",
    "postcode": 2756,
    "suburb_name": "Windsor"
  },
  {
    "suburb_id": 526,
    "state": "nsw",
    "postcode": 2320,
    "suburb_name": "Bolwarra Heights"
  },
  {
    "suburb_id": 2725,
    "state": "nsw",
    "postcode": 2765,
    "suburb_name": "Oakville"
  },
  {
    "suburb_id": 3106,
    "state": "nsw",
    "postcode": 2162,
    "suburb_name": "Sefton"
  },
  {
    "suburb_id": 3499,
    "state": "nsw",
    "postcode": 2074,
    "suburb_name": "Turramurra"
  },
  {
    "suburb_id": 1670,
    "state": "nsw",
    "postcode": 2380,
    "suburb_name": "Gunnedah"
  },
  {
    "suburb_id": 3010,
    "state": "nsw",
    "postcode": 2018,
    "suburb_name": "Rosebery"
  },
  {
    "suburb_id": 604,
    "state": "nsw",
    "postcode": 2580,
    "suburb_name": "Boxers Creek"
  },
  {
    "suburb_id": 1866,
    "state": "nsw",
    "postcode": 2850,
    "suburb_name": "Kains Flat"
  },
  {
    "suburb_id": 2875,
    "state": "nsw",
    "postcode": 2444,
    "suburb_name": "Port Macquarie"
  },
  {
    "suburb_id": 1897,
    "state": "nsw",
    "postcode": 2320,
    "suburb_name": "Keinbah"
  },
  {
    "suburb_id": 3456,
    "state": "nsw",
    "postcode": 2770,
    "suburb_name": "Tregear"
  },
  {
    "suburb_id": 1714,
    "state": "nsw",
    "postcode": 2790,
    "suburb_name": "Hartley"
  },
  {
    "suburb_id": 3206,
    "state": "nsw",
    "postcode": 2075,
    "suburb_name": "St Ives"
  },
  {
    "suburb_id": 2072,
    "state": "nsw",
    "postcode": 2460,
    "suburb_name": "Lawrence"
  },
  {
    "suburb_id": 392,
    "state": "nsw",
    "postcode": 2506,
    "suburb_name": "Berkeley"
  },
  {
    "suburb_id": 2985,
    "state": "nsw",
    "postcode": 2577,
    "suburb_name": "Robertson"
  },
  {
    "suburb_id": 2226,
    "state": "nsw",
    "postcode": 2093,
    "suburb_name": "Manly Vale"
  },
  {
    "suburb_id": 1267,
    "state": "nsw",
    "postcode": 2429,
    "suburb_name": "Dyers Crossing"
  },
  {
    "suburb_id": 735,
    "state": "nsw",
    "postcode": 2576,
    "suburb_name": "Burradoo"
  },
  {
    "suburb_id": 3873,
    "state": "nsw",
    "postcode": 2234,
    "suburb_name": "Woronora"
  },
  {
    "suburb_id": 1549,
    "state": "nsw",
    "postcode": 2156,
    "suburb_name": "Glenhaven"
  },
  {
    "suburb_id": 3046,
    "state": "nsw",
    "postcode": 2517,
    "suburb_name": "Russell Vale"
  },
  {
    "suburb_id": 2633,
    "state": "nsw",
    "postcode": 2250,
    "suburb_name": "Niagara Park"
  },
  {
    "suburb_id": 369,
    "state": "nsw",
    "postcode": 2280,
    "suburb_name": "Belmont North"
  },
  {
    "suburb_id": 1275,
    "state": "nsw",
    "postcode": 2335,
    "suburb_name": "East Branxton"
  },
  {
    "suburb_id": 3003,
    "state": "nsw",
    "postcode": 2760,
    "suburb_name": "Ropes Crossing"
  },
  {
    "suburb_id": 2100,
    "state": "nsw",
    "postcode": 2800,
    "suburb_name": "Lidster"
  },
  {
    "suburb_id": 1513,
    "state": "nsw",
    "postcode": 2827,
    "suburb_name": "Gilgandra"
  },
  {
    "suburb_id": 3890,
    "state": "nsw",
    "postcode": 2259,
    "suburb_name": "Wyee Point"
  },
  {
    "suburb_id": 3952,
    "state": "nsw",
    "postcode": 2680,
    "suburb_name": "Yoogali"
  },
  {
    "suburb_id": 2041,
    "state": "nsw",
    "postcode": 2528,
    "suburb_name": "Lake Illawarra"
  },
  {
    "suburb_id": 2358,
    "state": "nsw",
    "postcode": 2083,
    "suburb_name": "Milsons Passage"
  },
  {
    "suburb_id": 1948,
    "state": "nsw",
    "postcode": 2251,
    "suburb_name": "Kincumber"
  },
  {
    "suburb_id": 662,
    "state": "nsw",
    "postcode": 2570,
    "suburb_name": "Brownlow Hill"
  },
  {
    "suburb_id": 768,
    "state": "nsw",
    "postcode": 2166,
    "suburb_name": "Cabramatta"
  },
  {
    "suburb_id": 2608,
    "state": "nsw",
    "postcode": 2423,
    "suburb_name": "Nerong"
  },
  {
    "suburb_id": 864,
    "state": "nsw",
    "postcode": 2557,
    "suburb_name": "Catherine Field"
  },
  {
    "suburb_id": 2056,
    "state": "nsw",
    "postcode": 2066,
    "suburb_name": "Lane Cove North"
  },
  {
    "suburb_id": 492,
    "state": "nsw",
    "postcode": 2261,
    "suburb_name": "Blue Bay"
  },
  {
    "suburb_id": 3220,
    "state": "nsw",
    "postcode": 2508,
    "suburb_name": "Stanwell Park"
  },
  {
    "suburb_id": 1298,
    "state": "nsw",
    "postcode": 2122,
    "suburb_name": "Eastwood"
  },
  {
    "suburb_id": 2973,
    "state": "nsw",
    "postcode": 2138,
    "suburb_name": "Rhodes"
  },
  {
    "suburb_id": 3419,
    "state": "nsw",
    "postcode": 2537,
    "suburb_name": "Tomakin"
  },
  {
    "suburb_id": 349,
    "state": "nsw",
    "postcode": 2191,
    "suburb_name": "Belfield"
  },
  {
    "suburb_id": 3348,
    "state": "nsw",
    "postcode": 2830,
    "suburb_name": "Terramungamine"
  },
  {
    "suburb_id": 1444,
    "state": "nsw",
    "postcode": 2280,
    "suburb_name": "Floraville"
  },
  {
    "suburb_id": 3271,
    "state": "nsw",
    "postcode": 2044,
    "suburb_name": "Sydenham"
  },
  {
    "suburb_id": 3582,
    "state": "nsw",
    "postcode": 2259,
    "suburb_name": "Wadalba"
  },
  {
    "suburb_id": 3313,
    "state": "nsw",
    "postcode": 2428,
    "suburb_name": "Tarbuck Bay"
  },
  {
    "suburb_id": 3728,
    "state": "nsw",
    "postcode": 2073,
    "suburb_name": "West Pymble"
  },
  {
    "suburb_id": 1220,
    "state": "nsw",
    "postcode": 2030,
    "suburb_name": "Dover Heights"
  },
  {
    "suburb_id": 861,
    "state": "nsw",
    "postcode": 2536,
    "suburb_name": "Catalina"
  },
  {
    "suburb_id": 3504,
    "state": "nsw",
    "postcode": 2486,
    "suburb_name": "Tweed Heads South"
  },
  {
    "suburb_id": 3923,
    "state": "nsw",
    "postcode": 2440,
    "suburb_name": "Yarravel"
  },
  {
    "suburb_id": 2094,
    "state": "nsw",
    "postcode": 2049,
    "suburb_name": "Lewisham"
  },
  {
    "suburb_id": 2759,
    "state": "nsw",
    "postcode": 2748,
    "suburb_name": "Orchard Hills"
  },
  {
    "suburb_id": 386,
    "state": "nsw",
    "postcode": 2251,
    "suburb_name": "Bensville"
  },
  {
    "suburb_id": 296,
    "state": "nsw",
    "postcode": 2207,
    "suburb_name": "Bardwell Valley"
  },
  {
    "suburb_id": 408,
    "state": "nsw",
    "postcode": 2535,
    "suburb_name": "Berry"
  },
  {
    "suburb_id": 361,
    "state": "nsw",
    "postcode": 2325,
    "suburb_name": "Bellbird Heights"
  },
  {
    "suburb_id": 1396,
    "state": "nsw",
    "postcode": 2165,
    "suburb_name": "Fairfield"
  },
  {
    "suburb_id": 219,
    "state": "nsw",
    "postcode": 2168,
    "suburb_name": "Ashcroft"
  },
  {
    "suburb_id": 3960,
    "state": "nsw",
    "postcode": 2017,
    "suburb_name": "Zetland"
  },
  {
    "suburb_id": 3279,
    "state": "nsw",
    "postcode": 2640,
    "suburb_name": "Table Top"
  },
  {
    "suburb_id": 1256,
    "state": "nsw",
    "postcode": 2330,
    "suburb_name": "Dunolly"
  },
  {
    "suburb_id": 3325,
    "state": "nsw",
    "postcode": 2550,
    "suburb_name": "Tathra"
  },
  {
    "suburb_id": 2085,
    "state": "nsw",
    "postcode": 2478,
    "suburb_name": "Lennox Head"
  },
  {
    "suburb_id": 199,
    "state": "nsw",
    "postcode": 2358,
    "suburb_name": "Arding"
  },
  {
    "suburb_id": 2891,
    "state": "nsw",
    "postcode": 2502,
    "suburb_name": "Primbee"
  },
  {
    "suburb_id": 1682,
    "state": "nsw",
    "postcode": 2500,
    "suburb_name": "Gwynneville"
  },
  {
    "suburb_id": 2588,
    "state": "nsw",
    "postcode": 2700,
    "suburb_name": "Narrandera"
  },
  {
    "suburb_id": 2920,
    "state": "nsw",
    "postcode": 2343,
    "suburb_name": "Quipolly"
  },
  {
    "suburb_id": 3193,
    "state": "nsw",
    "postcode": 2250,
    "suburb_name": "Springfield"
  },
  {
    "suburb_id": 1841,
    "state": "nsw",
    "postcode": 2619,
    "suburb_name": "Jerrabomberra"
  },
  {
    "suburb_id": 2550,
    "state": "nsw",
    "postcode": 2582,
    "suburb_name": "Murrumbateman"
  },
  {
    "suburb_id": 2303,
    "state": "nsw",
    "postcode": 2114,
    "suburb_name": "Melrose Park"
  },
  {
    "suburb_id": 2695,
    "state": "nsw",
    "postcode": 2153,
    "suburb_name": "Norwest"
  },
  {
    "suburb_id": 1412,
    "state": "nsw",
    "postcode": 2422,
    "suburb_name": "Faulkland"
  },
  {
    "suburb_id": 614,
    "state": "nsw",
    "postcode": 2484,
    "suburb_name": "Bray Park"
  },
  {
    "suburb_id": 545,
    "state": "nsw",
    "postcode": 2177,
    "suburb_name": "Bonnyrigg"
  },
  {
    "suburb_id": 1856,
    "state": "nsw",
    "postcode": 2575,
    "suburb_name": "Joadja"
  },
  {
    "suburb_id": 3012,
    "state": "nsw",
    "postcode": 2142,
    "suburb_name": "Rosehill"
  },
  {
    "suburb_id": 1500,
    "state": "nsw",
    "postcode": 2480,
    "suburb_name": "Georgica"
  },
  {
    "suburb_id": 2580,
    "state": "nsw",
    "postcode": 2567,
    "suburb_name": "Narellan Vale"
  },
  {
    "suburb_id": 2735,
    "state": "nsw",
    "postcode": 2483,
    "suburb_name": "Ocean Shores"
  },
  {
    "suburb_id": 1365,
    "state": "nsw",
    "postcode": 2257,
    "suburb_name": "Ettalong Beach"
  },
  {
    "suburb_id": 1005,
    "state": "nsw",
    "postcode": 2850,
    "suburb_name": "Cooks Gap"
  },
  {
    "suburb_id": 1755,
    "state": "nsw",
    "postcode": 2675,
    "suburb_name": "Hillston"
  },
  {
    "suburb_id": 355,
    "state": "nsw",
    "postcode": 2153,
    "suburb_name": "Bella Vista"
  },
  {
    "suburb_id": 1520,
    "state": "nsw",
    "postcode": 2480,
    "suburb_name": "Girards Hill"
  },
  {
    "suburb_id": 1720,
    "state": "nsw",
    "postcode": 2440,
    "suburb_name": "Hat Head"
  },
  {
    "suburb_id": 3925,
    "state": "nsw",
    "postcode": 2233,
    "suburb_name": "Yarrawarrah"
  },
  {
    "suburb_id": 774,
    "state": "nsw",
    "postcode": 2340,
    "suburb_name": "Calala"
  },
  {
    "suburb_id": 3176,
    "state": "nsw",
    "postcode": 2756,
    "suburb_name": "South Windsor"
  },
  {
    "suburb_id": 672,
    "state": "nsw",
    "postcode": 2483,
    "suburb_name": "Brunswick Heads"
  },
  {
    "suburb_id": 3944,
    "state": "nsw",
    "postcode": 2868,
    "suburb_name": "Yeoval"
  },
  {
    "suburb_id": 1244,
    "state": "nsw",
    "postcode": 2117,
    "suburb_name": "Dundas"
  },
  {
    "suburb_id": 2597,
    "state": "nsw",
    "postcode": 2470,
    "suburb_name": "Naughtons Gap"
  },
  {
    "suburb_id": 681,
    "state": "nsw",
    "postcode": 2250,
    "suburb_name": "Bucketty"
  },
  {
    "suburb_id": 3802,
    "state": "nsw",
    "postcode": 2777,
    "suburb_name": "Winmalee"
  },
  {
    "suburb_id": 291,
    "state": "nsw",
    "postcode": 2396,
    "suburb_name": "Baradine"
  },
  {
    "suburb_id": 2874,
    "state": "nsw",
    "postcode": 2505,
    "suburb_name": "Port Kembla"
  },
  {
    "suburb_id": 2698,
    "state": "nsw",
    "postcode": 2541,
    "suburb_name": "Nowra"
  },
  {
    "suburb_id": 676,
    "state": "nsw",
    "postcode": 2323,
    "suburb_name": "Buchanan"
  },
  {
    "suburb_id": 2613,
    "state": "nsw",
    "postcode": 2089,
    "suburb_name": "Neutral Bay"
  },
  {
    "suburb_id": 2076,
    "state": "nsw",
    "postcode": 2705,
    "suburb_name": "Leeton"
  },
  {
    "suburb_id": 2414,
    "state": "nsw",
    "postcode": 2627,
    "suburb_name": "Moonbah"
  },
  {
    "suburb_id": 3948,
    "state": "nsw",
    "postcode": 2440,
    "suburb_name": "Yessabah"
  },
  {
    "suburb_id": 3320,
    "state": "nsw",
    "postcode": 2518,
    "suburb_name": "Tarrawanna"
  },
  {
    "suburb_id": 2406,
    "state": "nsw",
    "postcode": 2217,
    "suburb_name": "Monterey"
  },
  {
    "suburb_id": 3943,
    "state": "nsw",
    "postcode": 2161,
    "suburb_name": "Yennora"
  },
  {
    "suburb_id": 2089,
    "state": "nsw",
    "postcode": 2560,
    "suburb_name": "Leumeah"
  },
  {
    "suburb_id": 319,
    "state": "nsw",
    "postcode": 2197,
    "suburb_name": "Bass Hill"
  },
  {
    "suburb_id": 3168,
    "state": "nsw",
    "postcode": 2484,
    "suburb_name": "South Murwillumbah"
  },
  {
    "suburb_id": 3031,
    "state": "nsw",
    "postcode": 2155,
    "suburb_name": "Rouse Hill"
  },
  {
    "suburb_id": 169,
    "state": "nsw",
    "postcode": 2575,
    "suburb_name": "Alpine"
  },
  {
    "suburb_id": 3315,
    "state": "nsw",
    "postcode": 2430,
    "suburb_name": "Taree"
  },
  {
    "suburb_id": 1416,
    "state": "nsw",
    "postcode": 2295,
    "suburb_name": "Fern Bay"
  },
  {
    "suburb_id": 2556,
    "state": "nsw",
    "postcode": 2333,
    "suburb_name": "Muswellbrook"
  },
  {
    "suburb_id": 3562,
    "state": "nsw",
    "postcode": 2620,
    "suburb_name": "Urila"
  },
  {
    "suburb_id": 1273,
    "state": "nsw",
    "postcode": 2640,
    "suburb_name": "East Albury"
  },
  {
    "suburb_id": 3394,
    "state": "nsw",
    "postcode": 2640,
    "suburb_name": "Thurgoona"
  },
  {
    "suburb_id": 2350,
    "state": "nsw",
    "postcode": 2000,
    "suburb_name": "Millers Point"
  },
  {
    "suburb_id": 3022,
    "state": "nsw",
    "postcode": 2557,
    "suburb_name": "Rossmore"
  },
  {
    "suburb_id": 2809,
    "state": "nsw",
    "postcode": 2325,
    "suburb_name": "Paxton"
  },
  {
    "suburb_id": 857,
    "state": "nsw",
    "postcode": 2068,
    "suburb_name": "Castlecrag"
  },
  {
    "suburb_id": 3338,
    "state": "nsw",
    "postcode": 2323,
    "suburb_name": "Tenambit"
  },
  {
    "suburb_id": 1737,
    "state": "nsw",
    "postcode": 2508,
    "suburb_name": "Helensburgh"
  },
  {
    "suburb_id": 2704,
    "state": "nsw",
    "postcode": 2550,
    "suburb_name": "Numbugga"
  },
  {
    "suburb_id": 3647,
    "state": "nsw",
    "postcode": 2282,
    "suburb_name": "Warners Bay"
  },
  {
    "suburb_id": 1084,
    "state": "nsw",
    "postcode": 2099,
    "suburb_name": "Cromer"
  },
  {
    "suburb_id": 539,
    "state": "nsw",
    "postcode": 2026,
    "suburb_name": "Bondi Beach"
  },
  {
    "suburb_id": 2104,
    "state": "nsw",
    "postcode": 2460,
    "suburb_name": "Lilydale"
  },
  {
    "suburb_id": 3274,
    "state": "nsw",
    "postcode": 2224,
    "suburb_name": "Sylvania"
  },
  {
    "suburb_id": 2896,
    "state": "nsw",
    "postcode": 2484,
    "suburb_name": "Pumpenbil"
  },
  {
    "suburb_id": 1564,
    "state": "nsw",
    "postcode": 2756,
    "suburb_name": "Glossodia"
  },
  {
    "suburb_id": 2846,
    "state": "nsw",
    "postcode": 2462,
    "suburb_name": "Pillar Valley"
  },
  {
    "suburb_id": 2800,
    "state": "nsw",
    "postcode": 2870,
    "suburb_name": "Parkes"
  },
  {
    "suburb_id": 2046,
    "state": "nsw",
    "postcode": 2282,
    "suburb_name": "Lakelands"
  },
  {
    "suburb_id": 2591,
    "state": "nsw",
    "postcode": 2099,
    "suburb_name": "Narraweena"
  },
  {
    "suburb_id": 1456,
    "state": "nsw",
    "postcode": 2087,
    "suburb_name": "Forestville"
  },
  {
    "suburb_id": 3836,
    "state": "nsw",
    "postcode": 2322,
    "suburb_name": "Woodberry"
  },
  {
    "suburb_id": 401,
    "state": "nsw",
    "postcode": 2540,
    "suburb_name": "Berrara"
  },
  {
    "suburb_id": 859,
    "state": "nsw",
    "postcode": 2487,
    "suburb_name": "Casuarina"
  },
  {
    "suburb_id": 194,
    "state": "nsw",
    "postcode": 2622,
    "suburb_name": "Araluen"
  },
  {
    "suburb_id": 3733,
    "state": "nsw",
    "postcode": 2500,
    "suburb_name": "West Wollongong"
  },
  {
    "suburb_id": 3450,
    "state": "nsw",
    "postcode": 2550,
    "suburb_name": "Towamba"
  },
  {
    "suburb_id": 1216,
    "state": "nsw",
    "postcode": 2480,
    "suburb_name": "Dorroughby"
  },
  {
    "suburb_id": 3491,
    "state": "nsw",
    "postcode": 2480,
    "suburb_name": "Tuntable Creek"
  },
  {
    "suburb_id": 2348,
    "state": "nsw",
    "postcode": 2168,
    "suburb_name": "Miller"
  },
  {
    "suburb_id": 148,
    "state": "nsw",
    "postcode": 2560,
    "suburb_name": "Airds"
  },
  {
    "suburb_id": 3255,
    "state": "nsw",
    "postcode": 2536,
    "suburb_name": "Surf Beach"
  },
  {
    "suburb_id": 2830,
    "state": "nsw",
    "postcode": 2222,
    "suburb_name": "Penshurst"
  },
  {
    "suburb_id": 2828,
    "state": "nsw",
    "postcode": 2750,
    "suburb_name": "Penrith"
  },
  {
    "suburb_id": 425,
    "state": "nsw",
    "postcode": 2770,
    "suburb_name": "Bidwill"
  },
  {
    "suburb_id": 1431,
    "state": "nsw",
    "postcode": 2713,
    "suburb_name": "Finley"
  },
  {
    "suburb_id": 3258,
    "state": "nsw",
    "postcode": 2540,
    "suburb_name": "Sussex Inlet"
  },
  {
    "suburb_id": 2788,
    "state": "nsw",
    "postcode": 2463,
    "suburb_name": "Palmers Island"
  },
  {
    "suburb_id": 3283,
    "state": "nsw",
    "postcode": 2573,
    "suburb_name": "Tahmoor"
  },
  {
    "suburb_id": 3059,
    "state": "nsw",
    "postcode": 2456,
    "suburb_name": "Safety Beach"
  },
  {
    "suburb_id": 1252,
    "state": "nsw",
    "postcode": 2420,
    "suburb_name": "Dungog"
  },
  {
    "suburb_id": 418,
    "state": "nsw",
    "postcode": 2480,
    "suburb_name": "Bexhill"
  },
  {
    "suburb_id": 793,
    "state": "nsw",
    "postcode": 2570,
    "suburb_name": "Camden South"
  },
  {
    "suburb_id": 1272,
    "state": "nsw",
    "postcode": 2206,
    "suburb_name": "Earlwood"
  },
  {
    "suburb_id": 326,
    "state": "nsw",
    "postcode": 2730,
    "suburb_name": "Batlow"
  },
  {
    "suburb_id": 3471,
    "state": "nsw",
    "postcode": 2259,
    "suburb_name": "Tuggerah"
  },
  {
    "suburb_id": 2663,
    "state": "nsw",
    "postcode": 2299,
    "suburb_name": "North Lambton"
  },
  {
    "suburb_id": 2246,
    "state": "nsw",
    "postcode": 2756,
    "suburb_name": "Maroota"
  },
  {
    "suburb_id": 525,
    "state": "nsw",
    "postcode": 2320,
    "suburb_name": "Bolwarra"
  },
  {
    "suburb_id": 2145,
    "state": "nsw",
    "postcode": 2753,
    "suburb_name": "Londonderry"
  },
  {
    "suburb_id": 1364,
    "state": "nsw",
    "postcode": 2650,
    "suburb_name": "Estella"
  },
  {
    "suburb_id": 2831,
    "state": "nsw",
    "postcode": 2627,
    "suburb_name": "Perisher Valley"
  },
  {
    "suburb_id": 2052,
    "state": "nsw",
    "postcode": 2335,
    "suburb_name": "Lambs Valley"
  },
  {
    "suburb_id": 308,
    "state": "nsw",
    "postcode": 2546,
    "suburb_name": "Barragga Bay"
  },
  {
    "suburb_id": 162,
    "state": "nsw",
    "postcode": 2320,
    "suburb_name": "Allandale"
  },
  {
    "suburb_id": 3877,
    "state": "nsw",
    "postcode": 2540,
    "suburb_name": "Worrowing Heights"
  },
  {
    "suburb_id": 2010,
    "state": "nsw",
    "postcode": 2757,
    "suburb_name": "Kurmond"
  },
  {
    "suburb_id": 1699,
    "state": "nsw",
    "postcode": 2170,
    "suburb_name": "Hammondville"
  },
  {
    "suburb_id": 3703,
    "state": "nsw",
    "postcode": 2460,
    "suburb_name": "Wells Crossing"
  },
  {
    "suburb_id": 439,
    "state": "nsw",
    "postcode": 2453,
    "suburb_name": "Billys Creek"
  },
  {
    "suburb_id": 2755,
    "state": "nsw",
    "postcode": 2570,
    "suburb_name": "Oran Park"
  },
  {
    "suburb_id": 141,
    "state": "nsw",
    "postcode": 2629,
    "suburb_name": "Adaminaby"
  },
  {
    "suburb_id": 1177,
    "state": "nsw",
    "postcode": 2371,
    "suburb_name": "Deepwater"
  },
  {
    "suburb_id": 2284,
    "state": "nsw",
    "postcode": 2480,
    "suburb_name": "Mckees Hill"
  },
  {
    "suburb_id": 3164,
    "state": "nsw",
    "postcode": 2480,
    "suburb_name": "South Lismore"
  },
  {
    "suburb_id": 3757,
    "state": "nsw",
    "postcode": 2330,
    "suburb_name": "Whittingham"
  },
  {
    "suburb_id": 834,
    "state": "nsw",
    "postcode": 2171,
    "suburb_name": "Carnes Hill"
  },
  {
    "suburb_id": 3281,
    "state": "nsw",
    "postcode": 2259,
    "suburb_name": "Tacoma"
  },
  {
    "suburb_id": 2982,
    "state": "nsw",
    "postcode": 2066,
    "suburb_name": "Riverview"
  },
  {
    "suburb_id": 3889,
    "state": "nsw",
    "postcode": 2259,
    "suburb_name": "Wyee"
  },
  {
    "suburb_id": 923,
    "state": "nsw",
    "postcode": 2460,
    "suburb_name": "Clarenza"
  },
  {
    "suburb_id": 762,
    "state": "nsw",
    "postcode": 2481,
    "suburb_name": "Byron Bay"
  },
  {
    "suburb_id": 3489,
    "state": "nsw",
    "postcode": 2428,
    "suburb_name": "Tuncurry"
  },
  {
    "suburb_id": 2629,
    "state": "nsw",
    "postcode": 2106,
    "suburb_name": "Newport"
  },
  {
    "suburb_id": 3737,
    "state": "nsw",
    "postcode": 2340,
    "suburb_name": "Westdale"
  },
  {
    "suburb_id": 2679,
    "state": "nsw",
    "postcode": 2137,
    "suburb_name": "North Strathfield"
  },
  {
    "suburb_id": 3816,
    "state": "nsw",
    "postcode": 2205,
    "suburb_name": "Wolli Creek"
  },
  {
    "suburb_id": 299,
    "state": "nsw",
    "postcode": 2732,
    "suburb_name": "Barham"
  },
  {
    "suburb_id": 2258,
    "state": "nsw",
    "postcode": 2265,
    "suburb_name": "Martinsville"
  },
  {
    "suburb_id": 2133,
    "state": "nsw",
    "postcode": 2795,
    "suburb_name": "Llanarth"
  },
  {
    "suburb_id": 2389,
    "state": "nsw",
    "postcode": 2372,
    "suburb_name": "Mole River"
  },
  {
    "suburb_id": 2057,
    "state": "nsw",
    "postcode": 2066,
    "suburb_name": "Lane Cove West"
  },
  {
    "suburb_id": 3716,
    "state": "nsw",
    "postcode": 2341,
    "suburb_name": "Werris Creek"
  },
  {
    "suburb_id": 1018,
    "state": "nsw",
    "postcode": 2630,
    "suburb_name": "Cooma"
  },
  {
    "suburb_id": 2065,
    "state": "nsw",
    "postcode": 2480,
    "suburb_name": "Larnook"
  },
  {
    "suburb_id": 3650,
    "state": "nsw",
    "postcode": 2752,
    "suburb_name": "Warragamba"
  },
  {
    "suburb_id": 3388,
    "state": "nsw",
    "postcode": 2322,
    "suburb_name": "Thornton"
  },
  {
    "suburb_id": 2296,
    "state": "nsw",
    "postcode": 2577,
    "suburb_name": "Medway"
  },
  {
    "suburb_id": 3493,
    "state": "nsw",
    "postcode": 2548,
    "suburb_name": "Tura Beach"
  },
  {
    "suburb_id": 2103,
    "state": "nsw",
    "postcode": 2480,
    "suburb_name": "Lillian Rock"
  },
  {
    "suburb_id": 3055,
    "state": "nsw",
    "postcode": 2849,
    "suburb_name": "Rylstone"
  },
  {
    "suburb_id": 1342,
    "state": "nsw",
    "postcode": 2750,
    "suburb_name": "Emu Heights"
  },
  {
    "suburb_id": 3508,
    "state": "nsw",
    "postcode": 2852,
    "suburb_name": "Two Mile Flat"
  },
  {
    "suburb_id": 238,
    "state": "nsw",
    "postcode": 2283,
    "suburb_name": "Awaba"
  },
  {
    "suburb_id": 2043,
    "state": "nsw",
    "postcode": 2259,
    "suburb_name": "Lake Munmorah"
  },
  {
    "suburb_id": 1872,
    "state": "nsw",
    "postcode": 2530,
    "suburb_name": "Kanahooka"
  },
  {
    "suburb_id": 2393,
    "state": "nsw",
    "postcode": 2539,
    "suburb_name": "Mollymook Beach"
  },
  {
    "suburb_id": 3285,
    "state": "nsw",
    "postcode": 2720,
    "suburb_name": "Talbingo"
  },
  {
    "suburb_id": 1280,
    "state": "nsw",
    "postcode": 2213,
    "suburb_name": "East Hills"
  },
  {
    "suburb_id": 819,
    "state": "nsw",
    "postcode": 2623,
    "suburb_name": "Captains Flat"
  },
  {
    "suburb_id": 927,
    "state": "nsw",
    "postcode": 2206,
    "suburb_name": "Clemton Park"
  },
  {
    "suburb_id": 3768,
    "state": "nsw",
    "postcode": 2195,
    "suburb_name": "Wiley Park"
  },
  {
    "suburb_id": 3104,
    "state": "nsw",
    "postcode": 2330,
    "suburb_name": "Sedgefield"
  },
  {
    "suburb_id": 322,
    "state": "nsw",
    "postcode": 2536,
    "suburb_name": "Batehaven"
  },
  {
    "suburb_id": 2466,
    "state": "nsw",
    "postcode": 2484,
    "suburb_name": "Mount Burrell"
  },
  {
    "suburb_id": 771,
    "state": "nsw",
    "postcode": 2747,
    "suburb_name": "Caddens"
  },
  {
    "suburb_id": 663,
    "state": "nsw",
    "postcode": 2799,
    "suburb_name": "Browns Creek"
  },
  {
    "suburb_id": 3154,
    "state": "nsw",
    "postcode": 2034,
    "suburb_name": "South Coogee"
  },
  {
    "suburb_id": 1046,
    "state": "nsw",
    "postcode": 2526,
    "suburb_name": "Cordeaux Heights"
  },
  {
    "suburb_id": 3794,
    "state": "nsw",
    "postcode": 2795,
    "suburb_name": "Windradyne"
  },
  {
    "suburb_id": 3524,
    "state": "nsw",
    "postcode": 2257,
    "suburb_name": "Umina Beach"
  },
  {
    "suburb_id": 1144,
    "state": "nsw",
    "postcode": 2546,
    "suburb_name": "Dalmeny"
  },
  {
    "suburb_id": 1012,
    "state": "nsw",
    "postcode": 2701,
    "suburb_name": "Coolamon"
  },
  {
    "suburb_id": 3275,
    "state": "nsw",
    "postcode": 2224,
    "suburb_name": "Sylvania Waters"
  },
  {
    "suburb_id": 1155,
    "state": "nsw",
    "postcode": 2793,
    "suburb_name": "Darbys Falls"
  },
  {
    "suburb_id": 785,
    "state": "nsw",
    "postcode": 2540,
    "suburb_name": "Cambewarra"
  },
  {
    "suburb_id": 842,
    "state": "nsw",
    "postcode": 2294,
    "suburb_name": "Carrington"
  },
  {
    "suburb_id": 3585,
    "state": "nsw",
    "postcode": 2650,
    "suburb_name": "Wagga Wagga"
  },
  {
    "suburb_id": 2324,
    "state": "nsw",
    "postcode": 2160,
    "suburb_name": "Merrylands West"
  },
  {
    "suburb_id": 2562,
    "state": "nsw",
    "postcode": 2481,
    "suburb_name": "Myocum"
  },
  {
    "suburb_id": 1537,
    "state": "nsw",
    "postcode": 2320,
    "suburb_name": "Glen Oak"
  },
  {
    "suburb_id": 161,
    "state": "nsw",
    "postcode": 2100,
    "suburb_name": "Allambie Heights"
  },
  {
    "suburb_id": 2122,
    "state": "nsw",
    "postcode": 2790,
    "suburb_name": "Lithgow"
  },
  {
    "suburb_id": 1816,
    "state": "nsw",
    "postcode": 2360,
    "suburb_name": "Inverell"
  },
  {
    "suburb_id": 3822,
    "state": "nsw",
    "postcode": 2065,
    "suburb_name": "Wollstonecraft"
  },
  {
    "suburb_id": 3064,
    "state": "nsw",
    "postcode": 2650,
    "suburb_name": "San Isidore"
  },
  {
    "suburb_id": 2048,
    "state": "nsw",
    "postcode": 2572,
    "suburb_name": "Lakesland"
  },
  {
    "suburb_id": 2315,
    "state": "nsw",
    "postcode": 2548,
    "suburb_name": "Merimbula"
  },
  {
    "suburb_id": 1633,
    "state": "nsw",
    "postcode": 2065,
    "suburb_name": "Greenwich"
  },
  {
    "suburb_id": 1445,
    "state": "nsw",
    "postcode": 2871,
    "suburb_name": "Forbes"
  },
  {
    "suburb_id": 2530,
    "state": "nsw",
    "postcode": 2482,
    "suburb_name": "Mullumbimby Creek"
  },
  {
    "suburb_id": 2012,
    "state": "nsw",
    "postcode": 2089,
    "suburb_name": "Kurraba Point"
  },
  {
    "suburb_id": 1711,
    "state": "nsw",
    "postcode": 2427,
    "suburb_name": "Harrington"
  },
  {
    "suburb_id": 3574,
    "state": "nsw",
    "postcode": 2030,
    "suburb_name": "Vaucluse"
  },
  {
    "suburb_id": 2047,
    "state": "nsw",
    "postcode": 2195,
    "suburb_name": "Lakemba"
  },
  {
    "suburb_id": 2169,
    "state": "nsw",
    "postcode": 2446,
    "suburb_name": "Lower Pappinbarra"
  },
  {
    "suburb_id": 649,
    "state": "nsw",
    "postcode": 2024,
    "suburb_name": "Bronte"
  },
  {
    "suburb_id": 538,
    "state": "nsw",
    "postcode": 2026,
    "suburb_name": "Bondi"
  },
  {
    "suburb_id": 3866,
    "state": "nsw",
    "postcode": 2110,
    "suburb_name": "Woolwich"
  },
  {
    "suburb_id": 1679,
    "state": "nsw",
    "postcode": 2365,
    "suburb_name": "Guyra"
  },
  {
    "suburb_id": 3660,
    "state": "nsw",
    "postcode": 2102,
    "suburb_name": "Warriewood"
  },
  {
    "suburb_id": 1461,
    "state": "nsw",
    "postcode": 2258,
    "suburb_name": "Fountaindale"
  },
  {
    "suburb_id": 396,
    "state": "nsw",
    "postcode": 2081,
    "suburb_name": "Berowra"
  },
  {
    "suburb_id": 3300,
    "state": "nsw",
    "postcode": 2340,
    "suburb_name": "Tamworth"
  },
  {
    "suburb_id": 1684,
    "state": "nsw",
    "postcode": 2227,
    "suburb_name": "Gymea Bay"
  },
  {
    "suburb_id": 2123,
    "state": "nsw",
    "postcode": 2036,
    "suburb_name": "Little Bay"
  },
  {
    "suburb_id": 844,
    "state": "nsw",
    "postcode": 2340,
    "suburb_name": "Carroll"
  },
  {
    "suburb_id": 417,
    "state": "nsw",
    "postcode": 2540,
    "suburb_name": "Bewong"
  },
  {
    "suburb_id": 2863,
    "state": "nsw",
    "postcode": 2761,
    "suburb_name": "Plumpton"
  },
  {
    "suburb_id": 2213,
    "state": "nsw",
    "postcode": 2536,
    "suburb_name": "Malua Bay"
  },
  {
    "suburb_id": 1973,
    "state": "nsw",
    "postcode": 2061,
    "suburb_name": "Kirribilli"
  },
  {
    "suburb_id": 3475,
    "state": "nsw",
    "postcode": 2874,
    "suburb_name": "Tullamore"
  },
  {
    "suburb_id": 2772,
    "state": "nsw",
    "postcode": 2340,
    "suburb_name": "Oxley Vale"
  },
  {
    "suburb_id": 647,
    "state": "nsw",
    "postcode": 2880,
    "suburb_name": "Broken Hill"
  },
  {
    "suburb_id": 1440,
    "state": "nsw",
    "postcode": 2577,
    "suburb_name": "Fitzroy Falls"
  },
  {
    "suburb_id": 2283,
    "state": "nsw",
    "postcode": 2756,
    "suburb_name": "Mcgraths Hill"
  },
  {
    "suburb_id": 1798,
    "state": "nsw",
    "postcode": 2193,
    "suburb_name": "Hurlstone Park"
  },
  {
    "suburb_id": 2239,
    "state": "nsw",
    "postcode": 2280,
    "suburb_name": "Marks Point"
  },
  {
    "suburb_id": 1558,
    "state": "nsw",
    "postcode": 2330,
    "suburb_name": "Glenridding"
  },
  {
    "suburb_id": 3192,
    "state": "nsw",
    "postcode": 2641,
    "suburb_name": "Springdale Heights"
  },
  {
    "suburb_id": 989,
    "state": "nsw",
    "postcode": 2200,
    "suburb_name": "Condell Park"
  },
  {
    "suburb_id": 2554,
    "state": "nsw",
    "postcode": 2484,
    "suburb_name": "Murwillumbah"
  },
  {
    "suburb_id": 3678,
    "state": "nsw",
    "postcode": 2330,
    "suburb_name": "Wattle Ponds"
  },
  {
    "suburb_id": 1214,
    "state": "nsw",
    "postcode": 2453,
    "suburb_name": "Dorrigo"
  },
  {
    "suburb_id": 2953,
    "state": "nsw",
    "postcode": 2016,
    "suburb_name": "Redfern"
  },
  {
    "suburb_id": 2336,
    "state": "nsw",
    "postcode": 2158,
    "suburb_name": "Middle Dural"
  },
  {
    "suburb_id": 3606,
    "state": "nsw",
    "postcode": 2422,
    "suburb_name": "Wallanbah"
  },
  {
    "suburb_id": 463,
    "state": "nsw",
    "postcode": 2430,
    "suburb_name": "Black Head"
  },
  {
    "suburb_id": 3645,
    "state": "nsw",
    "postcode": 2528,
    "suburb_name": "Warilla"
  },
  {
    "suburb_id": 2250,
    "state": "nsw",
    "postcode": 2204,
    "suburb_name": "Marrickville"
  },
  {
    "suburb_id": 353,
    "state": "nsw",
    "postcode": 2570,
    "suburb_name": "Belimbla Park"
  },
  {
    "suburb_id": 582,
    "state": "nsw",
    "postcode": 2176,
    "suburb_name": "Bossley Park"
  },
  {
    "suburb_id": 997,
    "state": "nsw",
    "postcode": 2500,
    "suburb_name": "Coniston"
  },
  {
    "suburb_id": 3232,
    "state": "nsw",
    "postcode": 2370,
    "suburb_name": "Stonehenge"
  },
  {
    "suburb_id": 3086,
    "state": "nsw",
    "postcode": 2646,
    "suburb_name": "Savernake"
  },
  {
    "suburb_id": 1504,
    "state": "nsw",
    "postcode": 2818,
    "suburb_name": "Geurie"
  },
  {
    "suburb_id": 400,
    "state": "nsw",
    "postcode": 2548,
    "suburb_name": "Berrambool"
  },
  {
    "suburb_id": 3544,
    "state": "nsw",
    "postcode": 2482,
    "suburb_name": "Upper Main Arm"
  },
  {
    "suburb_id": 1270,
    "state": "nsw",
    "postcode": 2558,
    "suburb_name": "Eagle Vale"
  },
  {
    "suburb_id": 878,
    "state": "nsw",
    "postcode": 2021,
    "suburb_name": "Centennial Park"
  },
  {
    "suburb_id": 1150,
    "state": "nsw",
    "postcode": 2083,
    "suburb_name": "Dangar Island"
  },
  {
    "suburb_id": 2360,
    "state": "nsw",
    "postcode": 2538,
    "suburb_name": "Milton"
  },
  {
    "suburb_id": 2974,
    "state": "nsw",
    "postcode": 2753,
    "suburb_name": "Richmond"
  },
  {
    "suburb_id": 709,
    "state": "nsw",
    "postcode": 2578,
    "suburb_name": "Bundanoon"
  },
  {
    "suburb_id": 3362,
    "state": "nsw",
    "postcode": 2261,
    "suburb_name": "The Entrance North"
  },
  {
    "suburb_id": 3942,
    "state": "nsw",
    "postcode": 2681,
    "suburb_name": "Yenda"
  },
  {
    "suburb_id": 406,
    "state": "nsw",
    "postcode": 2577,
    "suburb_name": "Berrima"
  },
  {
    "suburb_id": 494,
    "state": "nsw",
    "postcode": 2262,
    "suburb_name": "Blue Haven"
  },
  {
    "suburb_id": 2833,
    "state": "nsw",
    "postcode": 2049,
    "suburb_name": "Petersham"
  },
  {
    "suburb_id": 217,
    "state": "nsw",
    "postcode": 2463,
    "suburb_name": "Ashby Heights"
  },
  {
    "suburb_id": 2394,
    "state": "nsw",
    "postcode": 2866,
    "suburb_name": "Molong"
  },
  {
    "suburb_id": 1627,
    "state": "nsw",
    "postcode": 2440,
    "suburb_name": "Greenhill"
  },
  {
    "suburb_id": 959,
    "state": "nsw",
    "postcode": 2761,
    "suburb_name": "Colebee"
  },
  {
    "suburb_id": 1728,
    "state": "nsw",
    "postcode": 2530,
    "suburb_name": "Haywards Bay"
  },
  {
    "suburb_id": 3167,
    "state": "nsw",
    "postcode": 2756,
    "suburb_name": "South Maroota"
  },
  {
    "suburb_id": 3956,
    "state": "nsw",
    "postcode": 2550,
    "suburb_name": "Yowrie"
  },
  {
    "suburb_id": 2148,
    "state": "nsw",
    "postcode": 2261,
    "suburb_name": "Long Jetty"
  },
  {
    "suburb_id": 3528,
    "state": "nsw",
    "postcode": 2669,
    "suburb_name": "Ungarie"
  },
  {
    "suburb_id": 813,
    "state": "nsw",
    "postcode": 2804,
    "suburb_name": "Canowindra"
  },
  {
    "suburb_id": 2247,
    "state": "nsw",
    "postcode": 2035,
    "suburb_name": "Maroubra"
  },
  {
    "suburb_id": 3725,
    "state": "nsw",
    "postcode": 2440,
    "suburb_name": "West Kempsey"
  },
  {
    "suburb_id": 1390,
    "state": "nsw",
    "postcode": 2015,
    "suburb_name": "Eveleigh"
  },
  {
    "suburb_id": 1597,
    "state": "nsw",
    "postcode": 2795,
    "suburb_name": "Gormans Hill"
  },
  {
    "suburb_id": 757,
    "state": "nsw",
    "postcode": 2571,
    "suburb_name": "Buxton"
  },
  {
    "suburb_id": 455,
    "state": "nsw",
    "postcode": 2041,
    "suburb_name": "Birchgrove"
  },
  {
    "suburb_id": 1691,
    "state": "nsw",
    "postcode": 2340,
    "suburb_name": "Hallsville"
  },
  {
    "suburb_id": 445,
    "state": "nsw",
    "postcode": 2583,
    "suburb_name": "Binda"
  },
  {
    "suburb_id": 1277,
    "state": "nsw",
    "postcode": 2518,
    "suburb_name": "East Corrimal"
  },
  {
    "suburb_id": 1625,
    "state": "nsw",
    "postcode": 2176,
    "suburb_name": "Greenfield Park"
  },
  {
    "suburb_id": 2971,
    "state": "nsw",
    "postcode": 2212,
    "suburb_name": "Revesby Heights"
  },
  {
    "suburb_id": 3591,
    "state": "nsw",
    "postcode": 2176,
    "suburb_name": "Wakeley"
  },
  {
    "suburb_id": 1655,
    "state": "nsw",
    "postcode": 2463,
    "suburb_name": "Gulmarrad"
  },
  {
    "suburb_id": 1995,
    "state": "nsw",
    "postcode": 2289,
    "suburb_name": "Kotara South"
  },
  {
    "suburb_id": 565,
    "state": "nsw",
    "postcode": 2480,
    "suburb_name": "Boorabee Park"
  },
  {
    "suburb_id": 2097,
    "state": "nsw",
    "postcode": 2141,
    "suburb_name": "Lidcombe"
  },
  {
    "suburb_id": 3726,
    "state": "nsw",
    "postcode": 2541,
    "suburb_name": "West Nowra"
  },
  {
    "suburb_id": 3780,
    "state": "nsw",
    "postcode": 2339,
    "suburb_name": "Willow Tree"
  },
  {
    "suburb_id": 936,
    "state": "nsw",
    "postcode": 2480,
    "suburb_name": "Clunes"
  },
  {
    "suburb_id": 263,
    "state": "nsw",
    "postcode": 2519,
    "suburb_name": "Balgownie"
  },
  {
    "suburb_id": 2719,
    "state": "nsw",
    "postcode": 2570,
    "suburb_name": "Oakdale"
  },
  {
    "suburb_id": 786,
    "state": "nsw",
    "postcode": 2540,
    "suburb_name": "Cambewarra Village"
  },
  {
    "suburb_id": 3859,
    "state": "nsw",
    "postcode": 2025,
    "suburb_name": "Woollahra"
  },
  {
    "suburb_id": 2902,
    "state": "nsw",
    "postcode": 2330,
    "suburb_name": "Putty"
  },
  {
    "suburb_id": 1403,
    "state": "nsw",
    "postcode": 2519,
    "suburb_name": "Fairy Meadow"
  },
  {
    "suburb_id": 913,
    "state": "nsw",
    "postcode": 2261,
    "suburb_name": "Chittaway Bay"
  },
  {
    "suburb_id": 3505,
    "state": "nsw",
    "postcode": 2485,
    "suburb_name": "Tweed Heads West"
  },
  {
    "suburb_id": 1379,
    "state": "nsw",
    "postcode": 2484,
    "suburb_name": "Eungella"
  },
  {
    "suburb_id": 1527,
    "state": "nsw",
    "postcode": 2440,
    "suburb_name": "Gladstone"
  },
  {
    "suburb_id": 2654,
    "state": "nsw",
    "postcode": 2026,
    "suburb_name": "North Bondi"
  },
  {
    "suburb_id": 2897,
    "state": "nsw",
    "postcode": 2196,
    "suburb_name": "Punchbowl"
  },
  {
    "suburb_id": 2916,
    "state": "nsw",
    "postcode": 2022,
    "suburb_name": "Queens Park"
  },
  {
    "suburb_id": 558,
    "state": "nsw",
    "postcode": 2428,
    "suburb_name": "Boomerang Beach"
  },
  {
    "suburb_id": 2970,
    "state": "nsw",
    "postcode": 2212,
    "suburb_name": "Revesby"
  },
  {
    "suburb_id": 3186,
    "state": "nsw",
    "postcode": 2850,
    "suburb_name": "Spring Flat"
  },
  {
    "suburb_id": 3569,
    "state": "nsw",
    "postcode": 2454,
    "suburb_name": "Valery"
  },
  {
    "suburb_id": 688,
    "state": "nsw",
    "postcode": 2262,
    "suburb_name": "Buff Point"
  },
  {
    "suburb_id": 2297,
    "state": "nsw",
    "postcode": 2477,
    "suburb_name": "Meerschaum Vale"
  },
  {
    "suburb_id": 832,
    "state": "nsw",
    "postcode": 2118,
    "suburb_name": "Carlingford"
  },
  {
    "suburb_id": 1467,
    "state": "nsw",
    "postcode": 2756,
    "suburb_name": "Freemans Reach"
  },
  {
    "suburb_id": 3343,
    "state": "nsw",
    "postcode": 2284,
    "suburb_name": "Teralba"
  },
  {
    "suburb_id": 608,
    "state": "nsw",
    "postcode": 2575,
    "suburb_name": "Braemar"
  },
  {
    "suburb_id": 3598,
    "state": "nsw",
    "postcode": 2659,
    "suburb_name": "Walla Walla"
  },
  {
    "suburb_id": 1938,
    "state": "nsw",
    "postcode": 2087,
    "suburb_name": "Killarney Heights"
  },
  {
    "suburb_id": 1248,
    "state": "nsw",
    "postcode": 2844,
    "suburb_name": "Dunedoo"
  },
  {
    "suburb_id": 3749,
    "state": "nsw",
    "postcode": 2429,
    "suburb_name": "Wherrol Flat"
  },
  {
    "suburb_id": 2440,
    "state": "nsw",
    "postcode": 2223,
    "suburb_name": "Mortdale"
  },
  {
    "suburb_id": 1569,
    "state": "nsw",
    "postcode": 2650,
    "suburb_name": "Gobbagombalin"
  },
  {
    "suburb_id": 871,
    "state": "nsw",
    "postcode": 2171,
    "suburb_name": "Cecil Hills"
  },
  {
    "suburb_id": 1887,
    "state": "nsw",
    "postcode": 2232,
    "suburb_name": "Kareela"
  },
  {
    "suburb_id": 3056,
    "state": "nsw",
    "postcode": 2756,
    "suburb_name": "Sackville"
  },
  {
    "suburb_id": 2611,
    "state": "nsw",
    "postcode": 2549,
    "suburb_name": "Nethercote"
  },
  {
    "suburb_id": 2418,
    "state": "nsw",
    "postcode": 2450,
    "suburb_name": "Moonee Beach"
  },
  {
    "suburb_id": 3661,
    "state": "nsw",
    "postcode": 2774,
    "suburb_name": "Warrimoo"
  },
  {
    "suburb_id": 544,
    "state": "nsw",
    "postcode": 2445,
    "suburb_name": "Bonny Hills"
  },
  {
    "suburb_id": 1705,
    "state": "nsw",
    "postcode": 2587,
    "suburb_name": "Harden"
  },
  {
    "suburb_id": 3578,
    "state": "nsw",
    "postcode": 2540,
    "suburb_name": "Vincentia"
  },
  {
    "suburb_id": 2454,
    "state": "nsw",
    "postcode": 2733,
    "suburb_name": "Moulamein"
  },
  {
    "suburb_id": 137,
    "state": "nsw",
    "postcode": 2326,
    "suburb_name": "Abermain"
  },
  {
    "suburb_id": 2621,
    "state": "nsw",
    "postcode": 2305,
    "suburb_name": "New Lambton Heights"
  },
  {
    "suburb_id": 3587,
    "state": "nsw",
    "postcode": 2076,
    "suburb_name": "Wahroonga"
  },
  {
    "suburb_id": 1336,
    "state": "nsw",
    "postcode": 2456,
    "suburb_name": "Emerald Beach"
  },
  {
    "suburb_id": 2294,
    "state": "nsw",
    "postcode": 2780,
    "suburb_name": "Medlow Bath"
  },
  {
    "suburb_id": 1250,
    "state": "nsw",
    "postcode": 2484,
    "suburb_name": "Dungay"
  },
  {
    "suburb_id": 271,
    "state": "nsw",
    "postcode": 2041,
    "suburb_name": "Balmain"
  },
  {
    "suburb_id": 812,
    "state": "nsw",
    "postcode": 2157,
    "suburb_name": "Canoelands"
  },
  {
    "suburb_id": 1297,
    "state": "nsw",
    "postcode": 2018,
    "suburb_name": "Eastlakes"
  },
  {
    "suburb_id": 2131,
    "state": "nsw",
    "postcode": 2790,
    "suburb_name": "Littleton"
  },
  {
    "suburb_id": 360,
    "state": "nsw",
    "postcode": 2325,
    "suburb_name": "Bellbird"
  },
  {
    "suburb_id": 707,
    "state": "nsw",
    "postcode": 2324,
    "suburb_name": "Bundabah"
  },
  {
    "suburb_id": 542,
    "state": "nsw",
    "postcode": 2264,
    "suburb_name": "Bonnells Bay"
  },
  {
    "suburb_id": 3746,
    "state": "nsw",
    "postcode": 2097,
    "suburb_name": "Wheeler Heights"
  },
  {
    "suburb_id": 3723,
    "state": "nsw",
    "postcode": 2443,
    "suburb_name": "West Haven"
  },
  {
    "suburb_id": 3016,
    "state": "nsw",
    "postcode": 2069,
    "suburb_name": "Roseville"
  },
  {
    "suburb_id": 655,
    "state": "nsw",
    "postcode": 2100,
    "suburb_name": "Brookvale"
  },
  {
    "suburb_id": 2178,
    "state": "nsw",
    "postcode": 2850,
    "suburb_name": "Lue"
  },
  {
    "suburb_id": 318,
    "state": "nsw",
    "postcode": 2540,
    "suburb_name": "Basin View"
  },
  {
    "suburb_id": 2266,
    "state": "nsw",
    "postcode": 2710,
    "suburb_name": "Mathoura"
  },
  {
    "suburb_id": 2288,
    "state": "nsw",
    "postcode": 2060,
    "suburb_name": "Mcmahons Point"
  },
  {
    "suburb_id": 1780,
    "state": "nsw",
    "postcode": 2256,
    "suburb_name": "Horsfield Bay"
  },
  {
    "suburb_id": 1173,
    "state": "nsw",
    "postcode": 2761,
    "suburb_name": "Dean Park"
  },
  {
    "suburb_id": 1648,
    "state": "nsw",
    "postcode": 2753,
    "suburb_name": "Grose Wold"
  },
  {
    "suburb_id": 3811,
    "state": "nsw",
    "postcode": 2795,
    "suburb_name": "Wisemans Creek"
  },
  {
    "suburb_id": 2770,
    "state": "nsw",
    "postcode": 2430,
    "suburb_name": "Oxley Island"
  },
  {
    "suburb_id": 999,
    "state": "nsw",
    "postcode": 2539,
    "suburb_name": "Conjola Park"
  },
  {
    "suburb_id": 1094,
    "state": "nsw",
    "postcode": 2280,
    "suburb_name": "Croudace Bay"
  },
  {
    "suburb_id": 1913,
    "state": "nsw",
    "postcode": 2033,
    "suburb_name": "Kensington"
  },
  {
    "suburb_id": 3253,
    "state": "nsw",
    "postcode": 2264,
    "suburb_name": "Sunshine"
  },
  {
    "suburb_id": 2510,
    "state": "nsw",
    "postcode": 2323,
    "suburb_name": "Mount Vincent"
  },
  {
    "suburb_id": 870,
    "state": "nsw",
    "postcode": 2474,
    "suburb_name": "Cawongla"
  },
  {
    "suburb_id": 2669,
    "state": "nsw",
    "postcode": 2101,
    "suburb_name": "North Narrabeen"
  },
  {
    "suburb_id": 432,
    "state": "nsw",
    "postcode": 2486,
    "suburb_name": "Bilambil"
  },
  {
    "suburb_id": 2395,
    "state": "nsw",
    "postcode": 2103,
    "suburb_name": "Mona Vale"
  },
  {
    "suburb_id": 2843,
    "state": "nsw",
    "postcode": 2571,
    "suburb_name": "Picton"
  },
  {
    "suburb_id": 3782,
    "state": "nsw",
    "postcode": 2482,
    "suburb_name": "Wilsons Creek"
  },
  {
    "suburb_id": 2143,
    "state": "nsw",
    "postcode": 2439,
    "suburb_name": "Logans Crossing"
  },
  {
    "suburb_id": 2918,
    "state": "nsw",
    "postcode": 2096,
    "suburb_name": "Queenscliff"
  },
  {
    "suburb_id": 1636,
    "state": "nsw",
    "postcode": 2557,
    "suburb_name": "Gregory Hills"
  },
  {
    "suburb_id": 3452,
    "state": "nsw",
    "postcode": 2518,
    "suburb_name": "Towradgi"
  },
  {
    "suburb_id": 2766,
    "state": "nsw",
    "postcode": 2258,
    "suburb_name": "Ourimbah"
  },
  {
    "suburb_id": 469,
    "state": "nsw",
    "postcode": 2283,
    "suburb_name": "Blackalls Park"
  },
  {
    "suburb_id": 3686,
    "state": "nsw",
    "postcode": 2447,
    "suburb_name": "Way Way"
  },
  {
    "suburb_id": 2571,
    "state": "nsw",
    "postcode": 2448,
    "suburb_name": "Nambucca Heads"
  },
  {
    "suburb_id": 1415,
    "state": "nsw",
    "postcode": 2283,
    "suburb_name": "Fennell Bay"
  },
  {
    "suburb_id": 3701,
    "state": "nsw",
    "postcode": 2820,
    "suburb_name": "Wellington"
  },
  {
    "suburb_id": 1187,
    "state": "nsw",
    "postcode": 2328,
    "suburb_name": "Denman"
  },
  {
    "suburb_id": 3571,
    "state": "nsw",
    "postcode": 2448,
    "suburb_name": "Valla Beach"
  },
  {
    "suburb_id": 3548,
    "state": "nsw",
    "postcode": 2450,
    "suburb_name": "Upper Orara"
  },
  {
    "suburb_id": 3659,
    "state": "nsw",
    "postcode": 2824,
    "suburb_name": "Warren"
  },
  {
    "suburb_id": 2882,
    "state": "nsw",
    "postcode": 2790,
    "suburb_name": "Pottery Estate"
  },
  {
    "suburb_id": 3065,
    "state": "nsw",
    "postcode": 2262,
    "suburb_name": "San Remo"
  },
  {
    "suburb_id": 2508,
    "state": "nsw",
    "postcode": 2786,
    "suburb_name": "Mount Victoria"
  },
  {
    "suburb_id": 1179,
    "state": "nsw",
    "postcode": 2633,
    "suburb_name": "Delegate"
  },
  {
    "suburb_id": 860,
    "state": "nsw",
    "postcode": 2170,
    "suburb_name": "Casula"
  },
  {
    "suburb_id": 405,
    "state": "nsw",
    "postcode": 2159,
    "suburb_name": "Berrilee"
  },
  {
    "suburb_id": 2885,
    "state": "nsw",
    "postcode": 2489,
    "suburb_name": "Pottsville"
  },
  {
    "suburb_id": 781,
    "state": "nsw",
    "postcode": 2540,
    "suburb_name": "Callala Beach"
  },
  {
    "suburb_id": 207,
    "state": "nsw",
    "postcode": 2350,
    "suburb_name": "Armidale"
  },
  {
    "suburb_id": 426,
    "state": "nsw",
    "postcode": 2453,
    "suburb_name": "Bielsdown Hills"
  },
  {
    "suburb_id": 1465,
    "state": "nsw",
    "postcode": 2446,
    "suburb_name": "Frazers Creek"
  },
  {
    "suburb_id": 543,
    "state": "nsw",
    "postcode": 2226,
    "suburb_name": "Bonnet Bay"
  },
  {
    "suburb_id": 1206,
    "state": "nsw",
    "postcode": 2539,
    "suburb_name": "Dolphin Point"
  },
  {
    "suburb_id": 1359,
    "state": "nsw",
    "postcode": 2759,
    "suburb_name": "Erskine Park"
  },
  {
    "suburb_id": 852,
    "state": "nsw",
    "postcode": 2470,
    "suburb_name": "Casino"
  },
  {
    "suburb_id": 2137,
    "state": "nsw",
    "postcode": 2474,
    "suburb_name": "Loadstone"
  },
  {
    "suburb_id": 1488,
    "state": "nsw",
    "postcode": 2289,
    "suburb_name": "Garden Suburb"
  },
  {
    "suburb_id": 3041,
    "state": "nsw",
    "postcode": 2560,
    "suburb_name": "Ruse"
  },
  {
    "suburb_id": 3205,
    "state": "nsw",
    "postcode": 2257,
    "suburb_name": "St Huberts Island"
  },
  {
    "suburb_id": 766,
    "state": "nsw",
    "postcode": 2488,
    "suburb_name": "Cabarita Beach"
  },
  {
    "suburb_id": 2181,
    "state": "nsw",
    "postcode": 2321,
    "suburb_name": "Luskintyre"
  },
  {
    "suburb_id": 3790,
    "state": "nsw",
    "postcode": 2800,
    "suburb_name": "Windera"
  },
  {
    "suburb_id": 320,
    "state": "nsw",
    "postcode": 2439,
    "suburb_name": "Batar Creek"
  },
  {
    "suburb_id": 1259,
    "state": "nsw",
    "postcode": 2158,
    "suburb_name": "Dural"
  },
  {
    "suburb_id": 2049,
    "state": "nsw",
    "postcode": 2443,
    "suburb_name": "Lakewood"
  },
  {
    "suburb_id": 1740,
    "state": "nsw",
    "postcode": 2622,
    "suburb_name": "Hereford Hall"
  },
  {
    "suburb_id": 3668,
    "state": "nsw",
    "postcode": 2017,
    "suburb_name": "Waterloo"
  },
  {
    "suburb_id": 3525,
    "state": "nsw",
    "postcode": 2526,
    "suburb_name": "Unanderra"
  },
  {
    "suburb_id": 278,
    "state": "nsw",
    "postcode": 2479,
    "suburb_name": "Bangalow"
  },
  {
    "suburb_id": 3536,
    "state": "nsw",
    "postcode": 2486,
    "suburb_name": "Upper Duroby"
  },
  {
    "suburb_id": 2152,
    "state": "nsw",
    "postcode": 2340,
    "suburb_name": "Loomberah"
  },
  {
    "suburb_id": 2253,
    "state": "nsw",
    "postcode": 2530,
    "suburb_name": "Marshall Mount"
  },
  {
    "suburb_id": 2965,
    "state": "nsw",
    "postcode": 2575,
    "suburb_name": "Renwick"
  },
  {
    "suburb_id": 3201,
    "state": "nsw",
    "postcode": 2850,
    "suburb_name": "St Fillans"
  },
  {
    "suburb_id": 1185,
    "state": "nsw",
    "postcode": 2112,
    "suburb_name": "Denistone East"
  },
  {
    "suburb_id": 3902,
    "state": "nsw",
    "postcode": 2199,
    "suburb_name": "Yagoona"
  },
  {
    "suburb_id": 1074,
    "state": "nsw",
    "postcode": 2422,
    "suburb_name": "Craven"
  },
  {
    "suburb_id": 2570,
    "state": "nsw",
    "postcode": 2312,
    "suburb_name": "Nabiac"
  },
  {
    "suburb_id": 3765,
    "state": "nsw",
    "postcode": 2756,
    "suburb_name": "Wilberforce"
  },
  {
    "suburb_id": 880,
    "state": "nsw",
    "postcode": 2775,
    "suburb_name": "Central Macdonald"
  },
  {
    "suburb_id": 2307,
    "state": "nsw",
    "postcode": 2234,
    "suburb_name": "Menai"
  },
  {
    "suburb_id": 3848,
    "state": "nsw",
    "postcode": 2284,
    "suburb_name": "Woodrising"
  },
  {
    "suburb_id": 2776,
    "state": "nsw",
    "postcode": 2021,
    "suburb_name": "Paddington"
  },
  {
    "suburb_id": 3718,
    "state": "nsw",
    "postcode": 2478,
    "suburb_name": "West Ballina"
  },
  {
    "suburb_id": 2798,
    "state": "nsw",
    "postcode": 2446,
    "suburb_name": "Pappinbarra"
  },
  {
    "suburb_id": 2295,
    "state": "nsw",
    "postcode": 2318,
    "suburb_name": "Medowie"
  },
  {
    "suburb_id": 2565,
    "state": "nsw",
    "postcode": 2550,
    "suburb_name": "Myrtle Mountain"
  },
  {
    "suburb_id": 2206,
    "state": "nsw",
    "postcode": 2036,
    "suburb_name": "Malabar"
  },
  {
    "suburb_id": 3157,
    "state": "nsw",
    "postcode": 2460,
    "suburb_name": "South Grafton"
  },
  {
    "suburb_id": 1810,
    "state": "nsw",
    "postcode": 2466,
    "suburb_name": "Iluka"
  },
  {
    "suburb_id": 202,
    "state": "nsw",
    "postcode": 2284,
    "suburb_name": "Argenton"
  },
  {
    "suburb_id": 1292,
    "state": "nsw",
    "postcode": 2340,
    "suburb_name": "East Tamworth"
  },
  {
    "suburb_id": 1286,
    "state": "nsw",
    "postcode": 2070,
    "suburb_name": "East Lindfield"
  },
  {
    "suburb_id": 3425,
    "state": "nsw",
    "postcode": 2869,
    "suburb_name": "Tomingley"
  },
  {
    "suburb_id": 3126,
    "state": "nsw",
    "postcode": 2752,
    "suburb_name": "Silverdale"
  },
  {
    "suburb_id": 609,
    "state": "nsw",
    "postcode": 2622,
    "suburb_name": "Braidwood"
  },
  {
    "suburb_id": 304,
    "state": "nsw",
    "postcode": 2347,
    "suburb_name": "Barraba"
  },
  {
    "suburb_id": 602,
    "state": "nsw",
    "postcode": 2765,
    "suburb_name": "Box Hill"
  },
  {
    "suburb_id": 1257,
    "state": "nsw",
    "postcode": 2480,
    "suburb_name": "Dunoon"
  },
  {
    "suburb_id": 399,
    "state": "nsw",
    "postcode": 2082,
    "suburb_name": "Berowra Waters"
  },
  {
    "suburb_id": 2726,
    "state": "nsw",
    "postcode": 2360,
    "suburb_name": "Oakwood"
  },
  {
    "suburb_id": 363,
    "state": "nsw",
    "postcode": 2023,
    "suburb_name": "Bellevue Hill"
  },
  {
    "suburb_id": 1108,
    "state": "nsw",
    "postcode": 2540,
    "suburb_name": "Culburra Beach"
  },
  {
    "suburb_id": 2718,
    "state": "nsw",
    "postcode": 2529,
    "suburb_name": "Oak Flats"
  },
  {
    "suburb_id": 2529,
    "state": "nsw",
    "postcode": 2482,
    "suburb_name": "Mullumbimby"
  },
  {
    "suburb_id": 2827,
    "state": "nsw",
    "postcode": 2120,
    "suburb_name": "Pennant Hills"
  },
  {
    "suburb_id": 671,
    "state": "nsw",
    "postcode": 2323,
    "suburb_name": "Brunkerville"
  },
  {
    "suburb_id": 3088,
    "state": "nsw",
    "postcode": 2452,
    "suburb_name": "Sawtell"
  },
  {
    "suburb_id": 225,
    "state": "nsw",
    "postcode": 2077,
    "suburb_name": "Asquith"
  },
  {
    "suburb_id": 404,
    "state": "nsw",
    "postcode": 2712,
    "suburb_name": "Berrigan"
  },
  {
    "suburb_id": 3864,
    "state": "nsw",
    "postcode": 2230,
    "suburb_name": "Woolooware"
  },
  {
    "suburb_id": 130,
    "state": "nsw",
    "postcode": 2176,
    "suburb_name": "Abbotsbury"
  },
  {
    "suburb_id": 3941,
    "state": "nsw",
    "postcode": 2777,
    "suburb_name": "Yellow Rock"
  },
  {
    "suburb_id": 2238,
    "state": "nsw",
    "postcode": 2259,
    "suburb_name": "Mardi"
  },
  {
    "suburb_id": 3841,
    "state": "nsw",
    "postcode": 2778,
    "suburb_name": "Woodford"
  },
  {
    "suburb_id": 3333,
    "state": "nsw",
    "postcode": 2117,
    "suburb_name": "Telopea"
  },
  {
    "suburb_id": 2082,
    "state": "nsw",
    "postcode": 2319,
    "suburb_name": "Lemon Tree Passage"
  },
  {
    "suburb_id": 3042,
    "state": "nsw",
    "postcode": 2011,
    "suburb_name": "Rushcutters Bay"
  },
  {
    "suburb_id": 1801,
    "state": "nsw",
    "postcode": 2540,
    "suburb_name": "Huskisson"
  },
  {
    "suburb_id": 1304,
    "state": "nsw",
    "postcode": 2474,
    "suburb_name": "Eden Creek"
  },
  {
    "suburb_id": 2672,
    "state": "nsw",
    "postcode": 2754,
    "suburb_name": "North Richmond"
  },
  {
    "suburb_id": 3297,
    "state": "nsw",
    "postcode": 2381,
    "suburb_name": "Tambar Springs"
  },
  {
    "suburb_id": 2444,
    "state": "nsw",
    "postcode": 2790,
    "suburb_name": "Morts Estate"
  },
  {
    "suburb_id": 3374,
    "state": "nsw",
    "postcode": 2483,
    "suburb_name": "The Pocket"
  },
  {
    "suburb_id": 917,
    "state": "nsw",
    "postcode": 2105,
    "suburb_name": "Church Point"
  },
  {
    "suburb_id": 3197,
    "state": "nsw",
    "postcode": 2777,
    "suburb_name": "Springwood"
  },
  {
    "suburb_id": 3588,
    "state": "nsw",
    "postcode": 2077,
    "suburb_name": "Waitara"
  },
  {
    "suburb_id": 2688,
    "state": "nsw",
    "postcode": 2471,
    "suburb_name": "North Woodburn"
  },
  {
    "suburb_id": 3414,
    "state": "nsw",
    "postcode": 2580,
    "suburb_name": "Tirrannaville"
  },
  {
    "suburb_id": 933,
    "state": "nsw",
    "postcode": 2484,
    "suburb_name": "Clothiers Creek"
  },
  {
    "suburb_id": 2381,
    "state": "nsw",
    "postcode": 2731,
    "suburb_name": "Moama"
  },
  {
    "suburb_id": 2620,
    "state": "nsw",
    "postcode": 2305,
    "suburb_name": "New Lambton"
  },
  {
    "suburb_id": 623,
    "state": "nsw",
    "postcode": 2594,
    "suburb_name": "Bribbaree"
  },
  {
    "suburb_id": 3523,
    "state": "nsw",
    "postcode": 2007,
    "suburb_name": "Ultimo"
  },
  {
    "suburb_id": 1402,
    "state": "nsw",
    "postcode": 2470,
    "suburb_name": "Fairy Hill"
  },
  {
    "suburb_id": 216,
    "state": "nsw",
    "postcode": 2463,
    "suburb_name": "Ashby"
  },
  {
    "suburb_id": 3727,
    "state": "nsw",
    "postcode": 2125,
    "suburb_name": "West Pennant Hills"
  },
  {
    "suburb_id": 1283,
    "state": "nsw",
    "postcode": 2440,
    "suburb_name": "East Kempsey"
  },
  {
    "suburb_id": 1585,
    "state": "nsw",
    "postcode": 2652,
    "suburb_name": "Goolgowi"
  },
  {
    "suburb_id": 1698,
    "state": "nsw",
    "postcode": 2259,
    "suburb_name": "Hamlyn Terrace"
  },
  {
    "suburb_id": 1175,
    "state": "nsw",
    "postcode": 2099,
    "suburb_name": "Dee Why"
  },
  {
    "suburb_id": 2638,
    "state": "nsw",
    "postcode": 2484,
    "suburb_name": "Nobbys Creek"
  },
  {
    "suburb_id": 2309,
    "state": "nsw",
    "postcode": 2563,
    "suburb_name": "Menangle Park"
  },
  {
    "suburb_id": 3918,
    "state": "nsw",
    "postcode": 2259,
    "suburb_name": "Yarramalong"
  },
  {
    "suburb_id": 3098,
    "state": "nsw",
    "postcode": 2447,
    "suburb_name": "Scotts Head"
  },
  {
    "suburb_id": 1862,
    "state": "nsw",
    "postcode": 2460,
    "suburb_name": "Junction Hill"
  },
  {
    "suburb_id": 1656,
    "state": "nsw",
    "postcode": 2360,
    "suburb_name": "Gum Flat"
  },
  {
    "suburb_id": 1726,
    "state": "nsw",
    "postcode": 2000,
    "suburb_name": "Haymarket"
  },
  {
    "suburb_id": 738,
    "state": "nsw",
    "postcode": 2230,
    "suburb_name": "Burraneer"
  },
  {
    "suburb_id": 3118,
    "state": "nsw",
    "postcode": 2529,
    "suburb_name": "Shellharbour"
  },
  {
    "suburb_id": 1601,
    "state": "nsw",
    "postcode": 2580,
    "suburb_name": "Goulburn"
  },
  {
    "suburb_id": 2326,
    "state": "nsw",
    "postcode": 2323,
    "suburb_name": "Metford"
  },
  {
    "suburb_id": 1196,
    "state": "nsw",
    "postcode": 2430,
    "suburb_name": "Diamond Beach"
  },
  {
    "suburb_id": 2188,
    "state": "nsw",
    "postcode": 2251,
    "suburb_name": "Macmasters Beach"
  },
  {
    "suburb_id": 3893,
    "state": "nsw",
    "postcode": 2550,
    "suburb_name": "Wyndham"
  },
  {
    "suburb_id": 2423,
    "state": "nsw",
    "postcode": 2340,
    "suburb_name": "Moore Creek"
  },
  {
    "suburb_id": 1105,
    "state": "nsw",
    "postcode": 2487,
    "suburb_name": "Cudgen"
  },
  {
    "suburb_id": 553,
    "state": "nsw",
    "postcode": 2284,
    "suburb_name": "Boolaroo"
  },
  {
    "suburb_id": 2625,
    "state": "nsw",
    "postcode": 2300,
    "suburb_name": "Newcastle East"
  },
  {
    "suburb_id": 132,
    "state": "nsw",
    "postcode": 2795,
    "suburb_name": "Abercrombie"
  },
  {
    "suburb_id": 3439,
    "state": "nsw",
    "postcode": 2452,
    "suburb_name": "Toormina"
  },
  {
    "suburb_id": 1865,
    "state": "nsw",
    "postcode": 2290,
    "suburb_name": "Kahibah"
  },
  {
    "suburb_id": 2022,
    "state": "nsw",
    "postcode": 2474,
    "suburb_name": "Kyogle"
  },
  {
    "suburb_id": 975,
    "state": "nsw",
    "postcode": 2756,
    "suburb_name": "Colo Heights"
  },
  {
    "suburb_id": 2838,
    "state": "nsw",
    "postcode": 2340,
    "suburb_name": "Piallamore"
  },
  {
    "suburb_id": 2071,
    "state": "nsw",
    "postcode": 2641,
    "suburb_name": "Lavington"
  },
  {
    "suburb_id": 3017,
    "state": "nsw",
    "postcode": 2069,
    "suburb_name": "Roseville Chase"
  },
  {
    "suburb_id": 2496,
    "state": "nsw",
    "postcode": 2170,
    "suburb_name": "Mount Pritchard"
  },
  {
    "suburb_id": 3378,
    "state": "nsw",
    "postcode": 2655,
    "suburb_name": "The Rock"
  },
  {
    "suburb_id": 1032,
    "state": "nsw",
    "postcode": 2265,
    "suburb_name": "Cooranbong"
  },
  {
    "suburb_id": 330,
    "state": "nsw",
    "postcode": 2104,
    "suburb_name": "Bayview"
  },
  {
    "suburb_id": 2112,
    "state": "nsw",
    "postcode": 2484,
    "suburb_name": "Limpinwood"
  },
  {
    "suburb_id": 2232,
    "state": "nsw",
    "postcode": 2539,
    "suburb_name": "Manyana"
  },
  {
    "suburb_id": 1651,
    "state": "nsw",
    "postcode": 2161,
    "suburb_name": "Guildford West"
  },
  {
    "suburb_id": 295,
    "state": "nsw",
    "postcode": 2207,
    "suburb_name": "Bardwell Park"
  },
  {
    "suburb_id": 3906,
    "state": "nsw",
    "postcode": 2703,
    "suburb_name": "Yanco"
  },
  {
    "suburb_id": 229,
    "state": "nsw",
    "postcode": 2515,
    "suburb_name": "Austinmer"
  },
  {
    "suburb_id": 431,
    "state": "nsw",
    "postcode": 2583,
    "suburb_name": "Bigga"
  },
  {
    "suburb_id": 3242,
    "state": "nsw",
    "postcode": 2415,
    "suburb_name": "Stroud Road"
  },
  {
    "suburb_id": 2415,
    "state": "nsw",
    "postcode": 2353,
    "suburb_name": "Moonbi"
  },
  {
    "suburb_id": 2479,
    "state": "nsw",
    "postcode": 2290,
    "suburb_name": "Mount Hutton"
  },
  {
    "suburb_id": 664,
    "state": "nsw",
    "postcode": 2530,
    "suburb_name": "Brownsville"
  },
  {
    "suburb_id": 3510,
    "state": "nsw",
    "postcode": 2484,
    "suburb_name": "Tyalgum"
  },
  {
    "suburb_id": 138,
    "state": "nsw",
    "postcode": 2325,
    "suburb_name": "Abernethy"
  },
  {
    "suburb_id": 1204,
    "state": "nsw",
    "postcode": 2219,
    "suburb_name": "Dolls Point"
  },
  {
    "suburb_id": 617,
    "state": "nsw",
    "postcode": 2137,
    "suburb_name": "Breakfast Point"
  },
  {
    "suburb_id": 3820,
    "state": "nsw",
    "postcode": 2477,
    "suburb_name": "Wollongbar"
  },
  {
    "suburb_id": 336,
    "state": "nsw",
    "postcode": 2155,
    "suburb_name": "Beaumont Hills"
  },
  {
    "suburb_id": 3619,
    "state": "nsw",
    "postcode": 2260,
    "suburb_name": "Wamberal"
  },
  {
    "suburb_id": 269,
    "state": "nsw",
    "postcode": 2830,
    "suburb_name": "Ballimore"
  },
  {
    "suburb_id": 3857,
    "state": "nsw",
    "postcode": 2456,
    "suburb_name": "Woolgoolga"
  },
  {
    "suburb_id": 3779,
    "state": "nsw",
    "postcode": 2068,
    "suburb_name": "Willoughby East"
  },
  {
    "suburb_id": 879,
    "state": "nsw",
    "postcode": 2756,
    "suburb_name": "Central Colo"
  },
  {
    "suburb_id": 3332,
    "state": "nsw",
    "postcode": 2441,
    "suburb_name": "Telegraph Point"
  },
  {
    "suburb_id": 1405,
    "state": "nsw",
    "postcode": 2535,
    "suburb_name": "Far Meadow"
  },
  {
    "suburb_id": 3616,
    "state": "nsw",
    "postcode": 2287,
    "suburb_name": "Wallsend"
  },
  {
    "suburb_id": 2227,
    "state": "nsw",
    "postcode": 2259,
    "suburb_name": "Mannering Park"
  },
  {
    "suburb_id": 3601,
    "state": "nsw",
    "postcode": 2745,
    "suburb_name": "Wallacia"
  },
  {
    "suburb_id": 2164,
    "state": "nsw",
    "postcode": 2580,
    "suburb_name": "Lower Boro"
  },
  {
    "suburb_id": 3336,
    "state": "nsw",
    "postcode": 2044,
    "suburb_name": "Tempe"
  },
  {
    "suburb_id": 2865,
    "state": "nsw",
    "postcode": 2250,
    "suburb_name": "Point Frederick"
  },
  {
    "suburb_id": 1355,
    "state": "nsw",
    "postcode": 2260,
    "suburb_name": "Erina Heights"
  },
  {
    "suburb_id": 1547,
    "state": "nsw",
    "postcode": 2650,
    "suburb_name": "Glenfield Park"
  },
  {
    "suburb_id": 1339,
    "state": "nsw",
    "postcode": 2371,
    "suburb_name": "Emmaville"
  },
  {
    "suburb_id": 1860,
    "state": "nsw",
    "postcode": 2747,
    "suburb_name": "Jordan Springs"
  },
  {
    "suburb_id": 3196,
    "state": "nsw",
    "postcode": 2650,
    "suburb_name": "Springvale"
  },
  {
    "suburb_id": 1555,
    "state": "nsw",
    "postcode": 2157,
    "suburb_name": "Glenorie"
  },
  {
    "suburb_id": 1646,
    "state": "nsw",
    "postcode": 2652,
    "suburb_name": "Grong Grong"
  },
  {
    "suburb_id": 2086,
    "state": "nsw",
    "postcode": 2750,
    "suburb_name": "Leonay"
  },
  {
    "suburb_id": 1049,
    "state": "nsw",
    "postcode": 2456,
    "suburb_name": "Corindi Beach"
  },
  {
    "suburb_id": 601,
    "state": "nsw",
    "postcode": 2449,
    "suburb_name": "Bowraville"
  },
  {
    "suburb_id": 134,
    "state": "nsw",
    "postcode": 2336,
    "suburb_name": "Aberdeen"
  },
  {
    "suburb_id": 2341,
    "state": "nsw",
    "postcode": 2484,
    "suburb_name": "Midginbil"
  },
  {
    "suburb_id": 3740,
    "state": "nsw",
    "postcode": 2326,
    "suburb_name": "Weston"
  },
  {
    "suburb_id": 3868,
    "state": "nsw",
    "postcode": 2469,
    "suburb_name": "Woombah"
  },
  {
    "suburb_id": 3631,
    "state": "nsw",
    "postcode": 2267,
    "suburb_name": "Wangi Wangi"
  },
  {
    "suburb_id": 931,
    "state": "nsw",
    "postcode": 2800,
    "suburb_name": "Clifton Grove"
  },
  {
    "suburb_id": 1712,
    "state": "nsw",
    "postcode": 2567,
    "suburb_name": "Harrington Park"
  },
  {
    "suburb_id": 3185,
    "state": "nsw",
    "postcode": 2570,
    "suburb_name": "Spring Farm"
  },
  {
    "suburb_id": 3555,
    "state": "nsw",
    "postcode": 2358,
    "suburb_name": "Uralla"
  },
  {
    "suburb_id": 1309,
    "state": "nsw",
    "postcode": 2285,
    "suburb_name": "Edgeworth"
  },
  {
    "suburb_id": 3770,
    "state": "nsw",
    "postcode": 2440,
    "suburb_name": "Willawarrin"
  },
  {
    "suburb_id": 3706,
    "state": "nsw",
    "postcode": 2782,
    "suburb_name": "Wentworth Falls"
  },
  {
    "suburb_id": 220,
    "state": "nsw",
    "postcode": 2131,
    "suburb_name": "Ashfield"
  },
  {
    "suburb_id": 142,
    "state": "nsw",
    "postcode": 2289,
    "suburb_name": "Adamstown"
  },
  {
    "suburb_id": 3057,
    "state": "nsw",
    "postcode": 2756,
    "suburb_name": "Sackville North"
  },
  {
    "suburb_id": 313,
    "state": "nsw",
    "postcode": 2422,
    "suburb_name": "Barrington"
  },
  {
    "suburb_id": 1584,
    "state": "nsw",
    "postcode": 2620,
    "suburb_name": "Googong"
  },
  {
    "suburb_id": 3579,
    "state": "nsw",
    "postcode": 2765,
    "suburb_name": "Vineyard"
  },
  {
    "suburb_id": 759,
    "state": "nsw",
    "postcode": 2484,
    "suburb_name": "Byangum"
  },
  {
    "suburb_id": 3789,
    "state": "nsw",
    "postcode": 2580,
    "suburb_name": "Windellama"
  },
  {
    "suburb_id": 3053,
    "state": "nsw",
    "postcode": 2586,
    "suburb_name": "Rye Park"
  },
  {
    "suburb_id": 2190,
    "state": "nsw",
    "postcode": 2285,
    "suburb_name": "Macquarie Hills"
  },
  {
    "suburb_id": 2163,
    "state": "nsw",
    "postcode": 2335,
    "suburb_name": "Lower Belford"
  },
  {
    "suburb_id": 2966,
    "state": "nsw",
    "postcode": 2480,
    "suburb_name": "Repentance Creek"
  },
  {
    "suburb_id": 1161,
    "state": "nsw",
    "postcode": 2010,
    "suburb_name": "Darlinghurst"
  },
  {
    "suburb_id": 2016,
    "state": "nsw",
    "postcode": 2327,
    "suburb_name": "Kurri Kurri"
  },
  {
    "suburb_id": 1022,
    "state": "nsw",
    "postcode": 2717,
    "suburb_name": "Coomealla"
  },
  {
    "suburb_id": 765,
    "state": "nsw",
    "postcode": 2137,
    "suburb_name": "Cabarita"
  },
  {
    "suburb_id": 987,
    "state": "nsw",
    "postcode": 2137,
    "suburb_name": "Concord"
  },
  {
    "suburb_id": 2675,
    "state": "nsw",
    "postcode": 2113,
    "suburb_name": "North Ryde"
  },
  {
    "suburb_id": 3323,
    "state": "nsw",
    "postcode": 2250,
    "suburb_name": "Tascott"
  },
  {
    "suburb_id": 1343,
    "state": "nsw",
    "postcode": 2750,
    "suburb_name": "Emu Plains"
  },
  {
    "suburb_id": 2202,
    "state": "nsw",
    "postcode": 2330,
    "suburb_name": "Maison Dieu"
  },
  {
    "suburb_id": 3664,
    "state": "nsw",
    "postcode": 2170,
    "suburb_name": "Warwick Farm"
  },
  {
    "suburb_id": 2371,
    "state": "nsw",
    "postcode": 2548,
    "suburb_name": "Mirador"
  },
  {
    "suburb_id": 1320,
    "state": "nsw",
    "postcode": 2287,
    "suburb_name": "Elermore Vale"
  },
  {
    "suburb_id": 1411,
    "state": "nsw",
    "postcode": 2776,
    "suburb_name": "Faulconbridge"
  },
  {
    "suburb_id": 3564,
    "state": "nsw",
    "postcode": 2455,
    "suburb_name": "Urunga"
  },
  {
    "suburb_id": 2888,
    "state": "nsw",
    "postcode": 2170,
    "suburb_name": "Prestons"
  },
  {
    "suburb_id": 1314,
    "state": "nsw",
    "postcode": 2795,
    "suburb_name": "Eglinton"
  },
  {
    "suburb_id": 261,
    "state": "nsw",
    "postcode": 2093,
    "suburb_name": "Balgowlah"
  },
  {
    "suburb_id": 692,
    "state": "nsw",
    "postcode": 2423,
    "suburb_name": "Bulahdelah"
  },
  {
    "suburb_id": 611,
    "state": "nsw",
    "postcode": 2335,
    "suburb_name": "Branxton"
  },
  {
    "suburb_id": 3310,
    "state": "nsw",
    "postcode": 2580,
    "suburb_name": "Tarago"
  },
  {
    "suburb_id": 3112,
    "state": "nsw",
    "postcode": 2770,
    "suburb_name": "Shalvey"
  },
  {
    "suburb_id": 2805,
    "state": "nsw",
    "postcode": 2150,
    "suburb_name": "Parramatta"
  },
  {
    "suburb_id": 3409,
    "state": "nsw",
    "postcode": 2478,
    "suburb_name": "Tintenbar"
  },
  {
    "suburb_id": 1695,
    "state": "nsw",
    "postcode": 2292,
    "suburb_name": "Hamilton North"
  },
  {
    "suburb_id": 620,
    "state": "nsw",
    "postcode": 2381,
    "suburb_name": "Breeza"
  },
  {
    "suburb_id": 2733,
    "state": "nsw",
    "postcode": 2787,
    "suburb_name": "Oberon"
  },
  {
    "suburb_id": 2331,
    "state": "nsw",
    "postcode": 2620,
    "suburb_name": "Michelago"
  },
  {
    "suburb_id": 1888,
    "state": "nsw",
    "postcode": 2250,
    "suburb_name": "Kariong"
  },
  {
    "suburb_id": 2376,
    "state": "nsw",
    "postcode": 2449,
    "suburb_name": "Missabotti"
  },
  {
    "suburb_id": 2031,
    "state": "nsw",
    "postcode": 2650,
    "suburb_name": "Lake Albert"
  },
  {
    "suburb_id": 661,
    "state": "nsw",
    "postcode": 2537,
    "suburb_name": "Broulee"
  },
  {
    "suburb_id": 2673,
    "state": "nsw",
    "postcode": 2151,
    "suburb_name": "North Rocks"
  },
  {
    "suburb_id": 3786,
    "state": "nsw",
    "postcode": 2306,
    "suburb_name": "Windale"
  },
  {
    "suburb_id": 1605,
    "state": "nsw",
    "postcode": 2460,
    "suburb_name": "Grafton"
  },
  {
    "suburb_id": 1739,
    "state": "nsw",
    "postcode": 2658,
    "suburb_name": "Henty"
  },
  {
    "suburb_id": 3099,
    "state": "nsw",
    "postcode": 2092,
    "suburb_name": "Seaforth"
  },
  {
    "suburb_id": 1747,
    "state": "nsw",
    "postcode": 2575,
    "suburb_name": "High Range"
  },
  {
    "suburb_id": 1131,
    "state": "nsw",
    "postcode": 2527,
    "suburb_name": "Curramore"
  },
  {
    "suburb_id": 2743,
    "state": "nsw",
    "postcode": 2161,
    "suburb_name": "Old Guildford"
  },
  {
    "suburb_id": 825,
    "state": "nsw",
    "postcode": 2285,
    "suburb_name": "Cardiff Heights"
  },
  {
    "suburb_id": 3129,
    "state": "nsw",
    "postcode": 2330,
    "suburb_name": "Singleton"
  },
  {
    "suburb_id": 136,
    "state": "nsw",
    "postcode": 2320,
    "suburb_name": "Aberglasslyn"
  },
  {
    "suburb_id": 2291,
    "state": "nsw",
    "postcode": 2114,
    "suburb_name": "Meadowbank"
  },
  {
    "suburb_id": 3375,
    "state": "nsw",
    "postcode": 2769,
    "suburb_name": "The Ponds"
  },
  {
    "suburb_id": 1441,
    "state": "nsw",
    "postcode": 2046,
    "suburb_name": "Five Dock"
  },
  {
    "suburb_id": 3080,
    "state": "nsw",
    "postcode": 2219,
    "suburb_name": "Sans Souci"
  },
  {
    "suburb_id": 281,
    "state": "nsw",
    "postcode": 2234,
    "suburb_name": "Bangor"
  },
  {
    "suburb_id": 1781,
    "state": "nsw",
    "postcode": 2530,
    "suburb_name": "Horsley"
  },
  {
    "suburb_id": 315,
    "state": "nsw",
    "postcode": 2799,
    "suburb_name": "Barry"
  },
  {
    "suburb_id": 674,
    "state": "nsw",
    "postcode": 2450,
    "suburb_name": "Bucca"
  },
  {
    "suburb_id": 2392,
    "state": "nsw",
    "postcode": 2539,
    "suburb_name": "Mollymook"
  },
  {
    "suburb_id": 1639,
    "state": "nsw",
    "postcode": 2311,
    "suburb_name": "Gresford"
  },
  {
    "suburb_id": 227,
    "state": "nsw",
    "postcode": 2144,
    "suburb_name": "Auburn"
  },
  {
    "suburb_id": 2435,
    "state": "nsw",
    "postcode": 2264,
    "suburb_name": "Morisset"
  },
  {
    "suburb_id": 370,
    "state": "nsw",
    "postcode": 2280,
    "suburb_name": "Belmont South"
  },
  {
    "suburb_id": 2313,
    "state": "nsw",
    "postcode": 2291,
    "suburb_name": "Merewether"
  },
  {
    "suburb_id": 3254,
    "state": "nsw",
    "postcode": 2536,
    "suburb_name": "Sunshine Bay"
  },
  {
    "suburb_id": 1397,
    "state": "nsw",
    "postcode": 2165,
    "suburb_name": "Fairfield East"
  },
  {
    "suburb_id": 1334,
    "state": "nsw",
    "postcode": 2480,
    "suburb_name": "Eltham"
  },
  {
    "suburb_id": 329,
    "state": "nsw",
    "postcode": 2539,
    "suburb_name": "Bawley Point"
  },
  {
    "suburb_id": 2434,
    "state": "nsw",
    "postcode": 2400,
    "suburb_name": "Moree"
  },
  {
    "suburb_id": 1516,
    "state": "nsw",
    "postcode": 2321,
    "suburb_name": "Gillieston Heights"
  },
  {
    "suburb_id": 1079,
    "state": "nsw",
    "postcode": 2090,
    "suburb_name": "Cremorne Point"
  },
  {
    "suburb_id": 2051,
    "state": "nsw",
    "postcode": 2147,
    "suburb_name": "Lalor Park"
  },
  {
    "suburb_id": 3382,
    "state": "nsw",
    "postcode": 2570,
    "suburb_name": "Theresa Park"
  },
  {
    "suburb_id": 476,
    "state": "nsw",
    "postcode": 2148,
    "suburb_name": "Blacktown"
  },
  {
    "suburb_id": 621,
    "state": "nsw",
    "postcode": 2839,
    "suburb_name": "Brewarrina"
  },
  {
    "suburb_id": 1557,
    "state": "nsw",
    "postcode": 2450,
    "suburb_name": "Glenreagh"
  },
  {
    "suburb_id": 1474,
    "state": "nsw",
    "postcode": 2550,
    "suburb_name": "Frogs Hollow"
  },
  {
    "suburb_id": 471,
    "state": "nsw",
    "postcode": 2770,
    "suburb_name": "Blackett"
  },
  {
    "suburb_id": 573,
    "state": "nsw",
    "postcode": 2586,
    "suburb_name": "Boorowa"
  },
  {
    "suburb_id": 2427,
    "state": "nsw",
    "postcode": 2443,
    "suburb_name": "Moorland"
  },
  {
    "suburb_id": 1775,
    "state": "nsw",
    "postcode": 2171,
    "suburb_name": "Horningsea Park"
  },
  {
    "suburb_id": 2139,
    "state": "nsw",
    "postcode": 2321,
    "suburb_name": "Lochinvar"
  },
  {
    "suburb_id": 3445,
    "state": "nsw",
    "postcode": 2283,
    "suburb_name": "Toronto"
  },
  {
    "suburb_id": 2277,
    "state": "nsw",
    "postcode": 2304,
    "suburb_name": "Mayfield West"
  },
  {
    "suburb_id": 1654,
    "state": "nsw",
    "postcode": 2852,
    "suburb_name": "Gulgong"
  },
  {
    "suburb_id": 3599,
    "state": "nsw",
    "postcode": 2343,
    "suburb_name": "Wallabadah"
  },
  {
    "suburb_id": 3183,
    "state": "nsw",
    "postcode": 2640,
    "suburb_name": "Splitters Creek"
  },
  {
    "suburb_id": 654,
    "state": "nsw",
    "postcode": 2083,
    "suburb_name": "Brooklyn"
  },
  {
    "suburb_id": 3620,
    "state": "nsw",
    "postcode": 2620,
    "suburb_name": "Wamboin"
  },
  {
    "suburb_id": 3122,
    "state": "nsw",
    "postcode": 2315,
    "suburb_name": "Shoal Bay"
  },
  {
    "suburb_id": 727,
    "state": "nsw",
    "postcode": 2630,
    "suburb_name": "Bunyan"
  },
  {
    "suburb_id": 3181,
    "state": "nsw",
    "postcode": 2775,
    "suburb_name": "Spencer"
  },
  {
    "suburb_id": 550,
    "state": "nsw",
    "postcode": 2257,
    "suburb_name": "Booker Bay"
  },
  {
    "suburb_id": 1466,
    "state": "nsw",
    "postcode": 2440,
    "suburb_name": "Frederickton"
  },
  {
    "suburb_id": 140,
    "state": "nsw",
    "postcode": 2763,
    "suburb_name": "Acacia Gardens"
  },
  {
    "suburb_id": 1751,
    "state": "nsw",
    "postcode": 2420,
    "suburb_name": "Hilldale"
  },
  {
    "suburb_id": 1835,
    "state": "nsw",
    "postcode": 4383,
    "suburb_name": "Jennings"
  },
  {
    "suburb_id": 3754,
    "state": "nsw",
    "postcode": 2290,
    "suburb_name": "Whitebridge"
  },
  {
    "suburb_id": 3926,
    "state": "nsw",
    "postcode": 2850,
    "suburb_name": "Yarrawonga"
  },
  {
    "suburb_id": 741,
    "state": "nsw",
    "postcode": 2429,
    "suburb_name": "Burrell Creek"
  },
  {
    "suburb_id": 3609,
    "state": "nsw",
    "postcode": 2259,
    "suburb_name": "Wallarah"
  },
  {
    "suburb_id": 1408,
    "state": "nsw",
    "postcode": 2484,
    "suburb_name": "Farrants Hill"
  },
  {
    "suburb_id": 2826,
    "state": "nsw",
    "postcode": 2145,
    "suburb_name": "Pendle Hill"
  },
  {
    "suburb_id": 1937,
    "state": "nsw",
    "postcode": 2071,
    "suburb_name": "Killara"
  },
  {
    "suburb_id": 1666,
    "state": "nsw",
    "postcode": 2775,
    "suburb_name": "Gunderman"
  },
  {
    "suburb_id": 1650,
    "state": "nsw",
    "postcode": 2161,
    "suburb_name": "Guildford"
  },
  {
    "suburb_id": 2713,
    "state": "nsw",
    "postcode": 2460,
    "suburb_name": "Nymboida"
  },
  {
    "suburb_id": 3102,
    "state": "nsw",
    "postcode": 2423,
    "suburb_name": "Seal Rocks"
  },
  {
    "suburb_id": 3060,
    "state": "nsw",
    "postcode": 2317,
    "suburb_name": "Salamander Bay"
  },
  {
    "suburb_id": 499,
    "state": "nsw",
    "postcode": 2380,
    "suburb_name": "Blue Vale"
  },
  {
    "suburb_id": 1786,
    "state": "nsw",
    "postcode": 2330,
    "suburb_name": "Howes Valley"
  },
  {
    "suburb_id": 468,
    "state": "nsw",
    "postcode": 2787,
    "suburb_name": "Black Springs"
  },
  {
    "suburb_id": 2235,
    "state": "nsw",
    "postcode": 2148,
    "suburb_name": "Marayong"
  },
  {
    "suburb_id": 3330,
    "state": "nsw",
    "postcode": 2324,
    "suburb_name": "Tea Gardens"
  },
  {
    "suburb_id": 2815,
    "state": "nsw",
    "postcode": 2210,
    "suburb_name": "Peakhurst Heights"
  },
  {
    "suburb_id": 2090,
    "state": "nsw",
    "postcode": 2780,
    "suburb_name": "Leura"
  },
  {
    "suburb_id": 1729,
    "state": "nsw",
    "postcode": 2779,
    "suburb_name": "Hazelbrook"
  },
  {
    "suburb_id": 3169,
    "state": "nsw",
    "postcode": 2541,
    "suburb_name": "South Nowra"
  },
  {
    "suburb_id": 984,
    "state": "nsw",
    "postcode": 2226,
    "suburb_name": "Como"
  },
  {
    "suburb_id": 1752,
    "state": "nsw",
    "postcode": 2350,
    "suburb_name": "Hillgrove"
  },
  {
    "suburb_id": 3353,
    "state": "nsw",
    "postcode": 2478,
    "suburb_name": "Teven"
  },
  {
    "suburb_id": 2823,
    "state": "nsw",
    "postcode": 2325,
    "suburb_name": "Pelton"
  },
  {
    "suburb_id": 659,
    "state": "nsw",
    "postcode": 2535,
    "suburb_name": "Broughton Vale"
  },
  {
    "suburb_id": 1443,
    "state": "nsw",
    "postcode": 2529,
    "suburb_name": "Flinders"
  },
  {
    "suburb_id": 1565,
    "state": "nsw",
    "postcode": 2422,
    "suburb_name": "Gloucester"
  },
  {
    "suburb_id": 711,
    "state": "nsw",
    "postcode": 2230,
    "suburb_name": "Bundeena"
  },
  {
    "suburb_id": 2909,
    "state": "nsw",
    "postcode": 2763,
    "suburb_name": "Quakers Hill"
  },
  {
    "suburb_id": 528,
    "state": "nsw",
    "postcode": 2541,
    "suburb_name": "Bomaderry"
  },
  {
    "suburb_id": 1245,
    "state": "nsw",
    "postcode": 2117,
    "suburb_name": "Dundas Valley"
  },
  {
    "suburb_id": 3249,
    "state": "nsw",
    "postcode": 2259,
    "suburb_name": "Summerland Point"
  },
  {
    "suburb_id": 3044,
    "state": "nsw",
    "postcode": 2460,
    "suburb_name": "Rushforth"
  },
  {
    "suburb_id": 2320,
    "state": "nsw",
    "postcode": 2329,
    "suburb_name": "Merriwa"
  },
  {
    "suburb_id": 625,
    "state": "nsw",
    "postcode": 2454,
    "suburb_name": "Brierfield"
  },
  {
    "suburb_id": 1203,
    "state": "nsw",
    "postcode": 2229,
    "suburb_name": "Dolans Bay"
  },
  {
    "suburb_id": 3072,
    "state": "nsw",
    "postcode": 2219,
    "suburb_name": "Sandringham"
  },
  {
    "suburb_id": 966,
    "state": "nsw",
    "postcode": 2581,
    "suburb_name": "Collector"
  },
  {
    "suburb_id": 2372,
    "state": "nsw",
    "postcode": 2228,
    "suburb_name": "Miranda"
  },
  {
    "suburb_id": 3387,
    "state": "nsw",
    "postcode": 2120,
    "suburb_name": "Thornleigh"
  },
  {
    "suburb_id": 3840,
    "state": "nsw",
    "postcode": 2476,
    "suburb_name": "Woodenbong"
  },
  {
    "suburb_id": 2212,
    "state": "nsw",
    "postcode": 2536,
    "suburb_name": "Maloneys Beach"
  },
  {
    "suburb_id": 1693,
    "state": "nsw",
    "postcode": 2303,
    "suburb_name": "Hamilton"
  },
  {
    "suburb_id": 3461,
    "state": "nsw",
    "postcode": 2875,
    "suburb_name": "Trundle"
  },
  {
    "suburb_id": 3162,
    "state": "nsw",
    "postcode": 2221,
    "suburb_name": "South Hurstville"
  },
  {
    "suburb_id": 2449,
    "state": "nsw",
    "postcode": 2088,
    "suburb_name": "Mosman"
  },
  {
    "suburb_id": 1615,
    "state": "nsw",
    "postcode": 2232,
    "suburb_name": "Grays Point"
  },
  {
    "suburb_id": 1194,
    "state": "nsw",
    "postcode": 2770,
    "suburb_name": "Dharruk"
  },
  {
    "suburb_id": 2871,
    "state": "nsw",
    "postcode": 2648,
    "suburb_name": "Pooncarie"
  },
  {
    "suburb_id": 1996,
    "state": "nsw",
    "postcode": 2429,
    "suburb_name": "Krambach"
  },
  {
    "suburb_id": 2595,
    "state": "nsw",
    "postcode": 2479,
    "suburb_name": "Nashua"
  },
  {
    "suburb_id": 1383,
    "state": "nsw",
    "postcode": 2440,
    "suburb_name": "Euroka"
  },
  {
    "suburb_id": 521,
    "state": "nsw",
    "postcode": 2629,
    "suburb_name": "Bolaro"
  },
  {
    "suburb_id": 1977,
    "state": "nsw",
    "postcode": 2479,
    "suburb_name": "Knockrow"
  },
  {
    "suburb_id": 2167,
    "state": "nsw",
    "postcode": 2775,
    "suburb_name": "Lower Macdonald"
  },
  {
    "suburb_id": 3714,
    "state": "nsw",
    "postcode": 2747,
    "suburb_name": "Werrington County"
  },
  {
    "suburb_id": 2262,
    "state": "nsw",
    "postcode": 2293,
    "suburb_name": "Maryville"
  },
  {
    "suburb_id": 2138,
    "state": "nsw",
    "postcode": 2549,
    "suburb_name": "Lochiel"
  },
  {
    "suburb_id": 2841,
    "state": "nsw",
    "postcode": 2251,
    "suburb_name": "Picketts Valley"
  },
  {
    "suburb_id": 1851,
    "state": "nsw",
    "postcode": 2480,
    "suburb_name": "Jiggi"
  },
  {
    "suburb_id": 606,
    "state": "nsw",
    "postcode": 2560,
    "suburb_name": "Bradbury"
  },
  {
    "suburb_id": 3478,
    "state": "nsw",
    "postcode": 2527,
    "suburb_name": "Tullimbar"
  },
  {
    "suburb_id": 2951,
    "state": "nsw",
    "postcode": 2330,
    "suburb_name": "Redbournberry"
  },
  {
    "suburb_id": 2062,
    "state": "nsw",
    "postcode": 2166,
    "suburb_name": "Lansvale"
  },
  {
    "suburb_id": 1777,
    "state": "nsw",
    "postcode": 2077,
    "suburb_name": "Hornsby Heights"
  },
  {
    "suburb_id": 2118,
    "state": "nsw",
    "postcode": 2250,
    "suburb_name": "Lisarow"
  },
  {
    "suburb_id": 2377,
    "state": "nsw",
    "postcode": 2795,
    "suburb_name": "Mitchell"
  },
  {
    "suburb_id": 1453,
    "state": "nsw",
    "postcode": 2651,
    "suburb_name": "Forest Hill"
  },
  {
    "suburb_id": 2176,
    "state": "nsw",
    "postcode": 2800,
    "suburb_name": "Lucknow"
  },
  {
    "suburb_id": 1926,
    "state": "nsw",
    "postcode": 2533,
    "suburb_name": "Kiama Downs"
  },
  {
    "suburb_id": 2747,
    "state": "nsw",
    "postcode": 2146,
    "suburb_name": "Old Toongabbie"
  },
  {
    "suburb_id": 3712,
    "state": "nsw",
    "postcode": 2534,
    "suburb_name": "Werri Beach"
  },
  {
    "suburb_id": 809,
    "state": "nsw",
    "postcode": 2166,
    "suburb_name": "Canley Heights"
  },
  {
    "suburb_id": 1182,
    "state": "nsw",
    "postcode": 2536,
    "suburb_name": "Denhams Beach"
  },
  {
    "suburb_id": 3897,
    "state": "nsw",
    "postcode": 2259,
    "suburb_name": "Wyong Creek"
  },
  {
    "suburb_id": 2096,
    "state": "nsw",
    "postcode": 2138,
    "suburb_name": "Liberty Grove"
  },
  {
    "suburb_id": 1657,
    "state": "nsw",
    "postcode": 2441,
    "suburb_name": "Gum Scrub"
  },
  {
    "suburb_id": 1126,
    "state": "nsw",
    "postcode": 2096,
    "suburb_name": "Curl Curl"
  },
  {
    "suburb_id": 3865,
    "state": "nsw",
    "postcode": 2464,
    "suburb_name": "Wooloweyah"
  },
  {
    "suburb_id": 1350,
    "state": "nsw",
    "postcode": 2121,
    "suburb_name": "Epping"
  },
  {
    "suburb_id": 764,
    "state": "nsw",
    "postcode": 2621,
    "suburb_name": "Bywong"
  },
  {
    "suburb_id": 3095,
    "state": "nsw",
    "postcode": 2105,
    "suburb_name": "Scotland Island"
  },
  {
    "suburb_id": 1925,
    "state": "nsw",
    "postcode": 2533,
    "suburb_name": "Kiama"
  },
  {
    "suburb_id": 197,
    "state": "nsw",
    "postcode": 2283,
    "suburb_name": "Arcadia Vale"
  },
  {
    "suburb_id": 3530,
    "state": "nsw",
    "postcode": 2483,
    "suburb_name": "Upper Burringbar"
  },
  {
    "suburb_id": 2687,
    "state": "nsw",
    "postcode": 2500,
    "suburb_name": "North Wollongong"
  },
  {
    "suburb_id": 1713,
    "state": "nsw",
    "postcode": 2150,
    "suburb_name": "Harris Park"
  },
  {
    "suburb_id": 457,
    "state": "nsw",
    "postcode": 2287,
    "suburb_name": "Birmingham Gardens"
  },
  {
    "suburb_id": 1323,
    "state": "nsw",
    "postcode": 2171,
    "suburb_name": "Elizabeth Hills"
  },
  {
    "suburb_id": 3566,
    "state": "nsw",
    "postcode": 2421,
    "suburb_name": "Vacy"
  },
  {
    "suburb_id": 3350,
    "state": "nsw",
    "postcode": 2084,
    "suburb_name": "Terrey Hills"
  },
  {
    "suburb_id": 230,
    "state": "nsw",
    "postcode": 2179,
    "suburb_name": "Austral"
  },
  {
    "suburb_id": 2807,
    "state": "nsw",
    "postcode": 2421,
    "suburb_name": "Paterson"
  },
  {
    "suburb_id": 2248,
    "state": "nsw",
    "postcode": 2790,
    "suburb_name": "Marrangaroo"
  },
  {
    "suburb_id": 3082,
    "state": "nsw",
    "postcode": 2450,
    "suburb_name": "Sapphire Beach"
  },
  {
    "suburb_id": 1437,
    "state": "nsw",
    "postcode": 2283,
    "suburb_name": "Fishing Point"
  },
  {
    "suburb_id": 940,
    "state": "nsw",
    "postcode": 2283,
    "suburb_name": "Coal Point"
  },
  {
    "suburb_id": 1346,
    "state": "nsw",
    "postcode": 2233,
    "suburb_name": "Engadine"
  },
  {
    "suburb_id": 3211,
    "state": "nsw",
    "postcode": 2044,
    "suburb_name": "St Peters"
  },
  {
    "suburb_id": 2260,
    "state": "nsw",
    "postcode": 2287,
    "suburb_name": "Maryland"
  },
  {
    "suburb_id": 632,
    "state": "nsw",
    "postcode": 2556,
    "suburb_name": "Bringelly"
  },
  {
    "suburb_id": 2531,
    "state": "nsw",
    "postcode": 2647,
    "suburb_name": "Mulwala"
  },
  {
    "suburb_id": 415,
    "state": "nsw",
    "postcode": 2217,
    "suburb_name": "Beverley Park"
  },
  {
    "suburb_id": 2151,
    "state": "nsw",
    "postcode": 2066,
    "suburb_name": "Longueville"
  },
  {
    "suburb_id": 1974,
    "state": "nsw",
    "postcode": 2325,
    "suburb_name": "Kitchener"
  },
  {
    "suburb_id": 2365,
    "state": "nsw",
    "postcode": 2287,
    "suburb_name": "Minmi"
  },
  {
    "suburb_id": 2403,
    "state": "nsw",
    "postcode": 2594,
    "suburb_name": "Monteagle"
  },
  {
    "suburb_id": 2116,
    "state": "nsw",
    "postcode": 2070,
    "suburb_name": "Lindfield"
  },
  {
    "suburb_id": 153,
    "state": "nsw",
    "postcode": 2640,
    "suburb_name": "Albury"
  },
  {
    "suburb_id": 909,
    "state": "nsw",
    "postcode": 2008,
    "suburb_name": "Chippendale"
  },
  {
    "suburb_id": 855,
    "state": "nsw",
    "postcode": 2350,
    "suburb_name": "Castle Doyle"
  },
  {
    "suburb_id": 3199,
    "state": "nsw",
    "postcode": 2566,
    "suburb_name": "St Andrews"
  },
  {
    "suburb_id": 3796,
    "state": "nsw",
    "postcode": 2756,
    "suburb_name": "Windsor Downs"
  },
  {
    "suburb_id": 1181,
    "state": "nsw",
    "postcode": 2565,
    "suburb_name": "Denham Court"
  },
  {
    "suburb_id": 1530,
    "state": "nsw",
    "postcode": 2557,
    "suburb_name": "Gledswood Hills"
  },
  {
    "suburb_id": 1901,
    "state": "nsw",
    "postcode": 2350,
    "suburb_name": "Kellys Plains"
  },
  {
    "suburb_id": 2516,
    "state": "nsw",
    "postcode": 2323,
    "suburb_name": "Mulbring"
  },
  {
    "suburb_id": 196,
    "state": "nsw",
    "postcode": 2159,
    "suburb_name": "Arcadia"
  },
  {
    "suburb_id": 744,
    "state": "nsw",
    "postcode": 2539,
    "suburb_name": "Burrill Lake"
  },
  {
    "suburb_id": 3878,
    "state": "nsw",
    "postcode": 2256,
    "suburb_name": "Woy Woy"
  },
  {
    "suburb_id": 3871,
    "state": "nsw",
    "postcode": 2423,
    "suburb_name": "Wootton"
  },
  {
    "suburb_id": 1602,
    "state": "nsw",
    "postcode": 2330,
    "suburb_name": "Gowrie"
  },
  {
    "suburb_id": 1345,
    "state": "nsw",
    "postcode": 2136,
    "suburb_name": "Enfield"
  },
  {
    "suburb_id": 226,
    "state": "nsw",
    "postcode": 2345,
    "suburb_name": "Attunga"
  },
  {
    "suburb_id": 448,
    "state": "nsw",
    "postcode": 2537,
    "suburb_name": "Bingie"
  },
  {
    "suburb_id": 2251,
    "state": "nsw",
    "postcode": 2765,
    "suburb_name": "Marsden Park"
  },
  {
    "suburb_id": 2914,
    "state": "nsw",
    "postcode": 2620,
    "suburb_name": "Queanbeyan East"
  },
  {
    "suburb_id": 896,
    "state": "nsw",
    "postcode": 2067,
    "suburb_name": "Chatswood"
  },
  {
    "suburb_id": 2740,
    "state": "nsw",
    "postcode": 2469,
    "suburb_name": "Old Bonalbo"
  },
  {
    "suburb_id": 372,
    "state": "nsw",
    "postcode": 2440,
    "suburb_name": "Belmore River"
  },
  {
    "suburb_id": 1731,
    "state": "nsw",
    "postcode": 2233,
    "suburb_name": "Heathcote"
  },
  {
    "suburb_id": 1222,
    "state": "nsw",
    "postcode": 2262,
    "suburb_name": "Doyalson"
  },
  {
    "suburb_id": 1533,
    "state": "nsw",
    "postcode": 2846,
    "suburb_name": "Glen Davis"
  },
  {
    "suburb_id": 1477,
    "state": "nsw",
    "postcode": 2318,
    "suburb_name": "Fullerton Cove"
  },
  {
    "suburb_id": 2592,
    "state": "nsw",
    "postcode": 2821,
    "suburb_name": "Narromine"
  },
  {
    "suburb_id": 3119,
    "state": "nsw",
    "postcode": 2529,
    "suburb_name": "Shellharbour City Centre"
  },
  {
    "suburb_id": 3654,
    "state": "nsw",
    "postcode": 2423,
    "suburb_name": "Warranulla"
  },
  {
    "suburb_id": 2514,
    "state": "nsw",
    "postcode": 2786,
    "suburb_name": "Mount Wilson"
  },
  {
    "suburb_id": 256,
    "state": "nsw",
    "postcode": 2264,
    "suburb_name": "Balcolyn"
  },
  {
    "suburb_id": 718,
    "state": "nsw",
    "postcode": 2766,
    "suburb_name": "Bungarribee"
  },
  {
    "suburb_id": 816,
    "state": "nsw",
    "postcode": 2577,
    "suburb_name": "Canyonleigh"
  },
  {
    "suburb_id": 1407,
    "state": "nsw",
    "postcode": 2526,
    "suburb_name": "Farmborough Heights"
  },
  {
    "suburb_id": 3719,
    "state": "nsw",
    "postcode": 2795,
    "suburb_name": "West Bathurst"
  },
  {
    "suburb_id": 775,
    "state": "nsw",
    "postcode": 2527,
    "suburb_name": "Calderwood"
  },
  {
    "suburb_id": 3092,
    "state": "nsw",
    "postcode": 2762,
    "suburb_name": "Schofields"
  },
  {
    "suburb_id": 1770,
    "state": "nsw",
    "postcode": 2140,
    "suburb_name": "Homebush West"
  },
  {
    "suburb_id": 726,
    "state": "nsw",
    "postcode": 2429,
    "suburb_name": "Bunyah"
  },
  {
    "suburb_id": 2306,
    "state": "nsw",
    "postcode": 2850,
    "suburb_name": "Menah"
  },
  {
    "suburb_id": 2590,
    "state": "nsw",
    "postcode": 2539,
    "suburb_name": "Narrawallee"
  },
  {
    "suburb_id": 1706,
    "state": "nsw",
    "postcode": 2257,
    "suburb_name": "Hardys Bay"
  },
  {
    "suburb_id": 2114,
    "state": "nsw",
    "postcode": 2480,
    "suburb_name": "Lindendale"
  },
  {
    "suburb_id": 3189,
    "state": "nsw",
    "postcode": 2343,
    "suburb_name": "Spring Ridge"
  },
  {
    "suburb_id": 2279,
    "state": "nsw",
    "postcode": 2145,
    "suburb_name": "Mays Hill"
  },
  {
    "suburb_id": 626,
    "state": "nsw",
    "postcode": 2216,
    "suburb_name": "Brighton-le-sands"
  },
  {
    "suburb_id": 2472,
    "state": "nsw",
    "postcode": 2250,
    "suburb_name": "Mount Elliot"
  },
  {
    "suburb_id": 721,
    "state": "nsw",
    "postcode": 2580,
    "suburb_name": "Bungonia"
  },
  {
    "suburb_id": 1868,
    "state": "nsw",
    "postcode": 2550,
    "suburb_name": "Kalaru"
  },
  {
    "suburb_id": 3495,
    "state": "nsw",
    "postcode": 2537,
    "suburb_name": "Turlinjah"
  },
  {
    "suburb_id": 2527,
    "state": "nsw",
    "postcode": 2800,
    "suburb_name": "Mullion Creek"
  },
  {
    "suburb_id": 1167,
    "state": "nsw",
    "postcode": 2340,
    "suburb_name": "Daruka"
  },
  {
    "suburb_id": 2119,
    "state": "nsw",
    "postcode": 2480,
    "suburb_name": "Lismore"
  },
  {
    "suburb_id": 754,
    "state": "nsw",
    "postcode": 2283,
    "suburb_name": "Buttaba"
  },
  {
    "suburb_id": 2952,
    "state": "nsw",
    "postcode": 2370,
    "suburb_name": "Reddestone"
  },
  {
    "suburb_id": 1099,
    "state": "nsw",
    "postcode": 2133,
    "suburb_name": "Croydon Park"
  },
  {
    "suburb_id": 3443,
    "state": "nsw",
    "postcode": 2261,
    "suburb_name": "Toowoon Bay"
  },
  {
    "suburb_id": 2132,
    "state": "nsw",
    "postcode": 2170,
    "suburb_name": "Liverpool"
  },
  {
    "suburb_id": 298,
    "state": "nsw",
    "postcode": 2574,
    "suburb_name": "Bargo"
  },
  {
    "suburb_id": 3674,
    "state": "nsw",
    "postcode": 2535,
    "suburb_name": "Wattamolla"
  },
  {
    "suburb_id": 964,
    "state": "nsw",
    "postcode": 2097,
    "suburb_name": "Collaroy"
  },
  {
    "suburb_id": 262,
    "state": "nsw",
    "postcode": 2093,
    "suburb_name": "Balgowlah Heights"
  },
  {
    "suburb_id": 2069,
    "state": "nsw",
    "postcode": 2443,
    "suburb_name": "Laurieton"
  },
  {
    "suburb_id": 1683,
    "state": "nsw",
    "postcode": 2227,
    "suburb_name": "Gymea"
  },
  {
    "suburb_id": 1019,
    "state": "nsw",
    "postcode": 2428,
    "suburb_name": "Coomba Bay"
  },
  {
    "suburb_id": 797,
    "state": "nsw",
    "postcode": 2062,
    "suburb_name": "Cammeray"
  },
  {
    "suburb_id": 2959,
    "state": "nsw",
    "postcode": 2143,
    "suburb_name": "Regents Park"
  },
  {
    "suburb_id": 2450,
    "state": "nsw",
    "postcode": 2577,
    "suburb_name": "Moss Vale"
  },
  {
    "suburb_id": 3156,
    "state": "nsw",
    "postcode": 2483,
    "suburb_name": "South Golden Beach"
  },
  {
    "suburb_id": 1622,
    "state": "nsw",
    "postcode": 2190,
    "suburb_name": "Greenacre"
  },
  {
    "suburb_id": 1554,
    "state": "nsw",
    "postcode": 2261,
    "suburb_name": "Glenning Valley"
  },
  {
    "suburb_id": 2275,
    "state": "nsw",
    "postcode": 2304,
    "suburb_name": "Mayfield East"
  },
  {
    "suburb_id": 790,
    "state": "nsw",
    "postcode": 2570,
    "suburb_name": "Camden"
  },
  {
    "suburb_id": 3449,
    "state": "nsw",
    "postcode": 2263,
    "suburb_name": "Toukley"
  },
  {
    "suburb_id": 2359,
    "state": "nsw",
    "postcode": 2061,
    "suburb_name": "Milsons Point"
  },
  {
    "suburb_id": 2339,
    "state": "nsw",
    "postcode": 2171,
    "suburb_name": "Middleton Grange"
  },
  {
    "suburb_id": 2921,
    "state": "nsw",
    "postcode": 2343,
    "suburb_name": "Quirindi"
  },
  {
    "suburb_id": 2721,
    "state": "nsw",
    "postcode": 2320,
    "suburb_name": "Oakhampton"
  },
  {
    "suburb_id": 810,
    "state": "nsw",
    "postcode": 2166,
    "suburb_name": "Canley Vale"
  },
  {
    "suburb_id": 3355,
    "state": "nsw",
    "postcode": 2350,
    "suburb_name": "Thalgarrah"
  },
  {
    "suburb_id": 1027,
    "state": "nsw",
    "postcode": 2441,
    "suburb_name": "Cooperabung"
  },
  {
    "suburb_id": 549,
    "state": "nsw",
    "postcode": 2480,
    "suburb_name": "Booerie Creek"
  },
  {
    "suburb_id": 3575,
    "state": "nsw",
    "postcode": 2440,
    "suburb_name": "Verges Creek"
  },
  {
    "suburb_id": 541,
    "state": "nsw",
    "postcode": 2022,
    "suburb_name": "Bondi Junction"
  },
  {
    "suburb_id": 3423,
    "state": "nsw",
    "postcode": 2540,
    "suburb_name": "Tomerong"
  },
  {
    "suburb_id": 2636,
    "state": "nsw",
    "postcode": 2480,
    "suburb_name": "Nimbin"
  },
  {
    "suburb_id": 2680,
    "state": "nsw",
    "postcode": 2060,
    "suburb_name": "North Sydney"
  },
  {
    "suburb_id": 2932,
    "state": "nsw",
    "postcode": 2031,
    "suburb_name": "Randwick"
  },
  {
    "suburb_id": 3713,
    "state": "nsw",
    "postcode": 2747,
    "suburb_name": "Werrington"
  },
  {
    "suburb_id": 1854,
    "state": "nsw",
    "postcode": 2642,
    "suburb_name": "Jindera"
  },
  {
    "suburb_id": 2007,
    "state": "nsw",
    "postcode": 2460,
    "suburb_name": "Kungala"
  },
  {
    "suburb_id": 853,
    "state": "nsw",
    "postcode": 2329,
    "suburb_name": "Cassilis"
  },
  {
    "suburb_id": 327,
    "state": "nsw",
    "postcode": 2153,
    "suburb_name": "Baulkham Hills"
  },
  {
    "suburb_id": 2651,
    "state": "nsw",
    "postcode": 2093,
    "suburb_name": "North Balgowlah"
  },
  {
    "suburb_id": 2136,
    "state": "nsw",
    "postcode": 2650,
    "suburb_name": "Lloyd"
  },
  {
    "suburb_id": 873,
    "state": "nsw",
    "postcode": 2259,
    "suburb_name": "Cedar Brush Creek"
  },
  {
    "suburb_id": 1507,
    "state": "nsw",
    "postcode": 2328,
    "suburb_name": "Giants Creek"
  },
  {
    "suburb_id": 1502,
    "state": "nsw",
    "postcode": 2534,
    "suburb_name": "Gerringong"
  },
  {
    "suburb_id": 3707,
    "state": "nsw",
    "postcode": 2127,
    "suburb_name": "Wentworth Point"
  },
  {
    "suburb_id": 904,
    "state": "nsw",
    "postcode": 2036,
    "suburb_name": "Chifley"
  },
  {
    "suburb_id": 3340,
    "state": "nsw",
    "postcode": 2754,
    "suburb_name": "Tennyson"
  },
  {
    "suburb_id": 2779,
    "state": "nsw",
    "postcode": 2211,
    "suburb_name": "Padstow Heights"
  },
  {
    "suburb_id": 2714,
    "state": "nsw",
    "postcode": 2825,
    "suburb_name": "Nyngan"
  },
  {
    "suburb_id": 2676,
    "state": "nsw",
    "postcode": 2444,
    "suburb_name": "North Shore"
  },
  {
    "suburb_id": 2141,
    "state": "nsw",
    "postcode": 2232,
    "suburb_name": "Loftus"
  },
  {
    "suburb_id": 3040,
    "state": "nsw",
    "postcode": 2850,
    "suburb_name": "Running Stream"
  },
  {
    "suburb_id": 3899,
    "state": "nsw",
    "postcode": 2480,
    "suburb_name": "Wyrallah"
  },
  {
    "suburb_id": 3691,
    "state": "nsw",
    "postcode": 2560,
    "suburb_name": "Wedderburn"
  },
  {
    "suburb_id": 2708,
    "state": "nsw",
    "postcode": 2484,
    "suburb_name": "Nunderi"
  },
  {
    "suburb_id": 2249,
    "state": "nsw",
    "postcode": 2652,
    "suburb_name": "Marrar"
  },
  {
    "suburb_id": 789,
    "state": "nsw",
    "postcode": 2747,
    "suburb_name": "Cambridge Park"
  },
  {
    "suburb_id": 3468,
    "state": "nsw",
    "postcode": 2477,
    "suburb_name": "Tuckombil"
  },
  {
    "suburb_id": 1869,
    "state": "nsw",
    "postcode": 2627,
    "suburb_name": "Kalkite"
  },
  {
    "suburb_id": 3216,
    "state": "nsw",
    "postcode": 2768,
    "suburb_name": "Stanhope Gardens"
  },
  {
    "suburb_id": 1015,
    "state": "nsw",
    "postcode": 2478,
    "suburb_name": "Coolgardie"
  },
  {
    "suburb_id": 1230,
    "state": "nsw",
    "postcode": 2830,
    "suburb_name": "Dubbo"
  },
  {
    "suburb_id": 1750,
    "state": "nsw",
    "postcode": 2575,
    "suburb_name": "Hill Top"
  },
  {
    "suburb_id": 163,
    "state": "nsw",
    "postcode": 2218,
    "suburb_name": "Allawah"
  },
  {
    "suburb_id": 2443,
    "state": "nsw",
    "postcode": 2446,
    "suburb_name": "Mortons Creek"
  },
  {
    "suburb_id": 856,
    "state": "nsw",
    "postcode": 2154,
    "suburb_name": "Castle Hill"
  },
  {
    "suburb_id": 2441,
    "state": "nsw",
    "postcode": 2137,
    "suburb_name": "Mortlake"
  },
  {
    "suburb_id": 901,
    "state": "nsw",
    "postcode": 2126,
    "suburb_name": "Cherrybrook"
  },
  {
    "suburb_id": 1052,
    "state": "nsw",
    "postcode": 2480,
    "suburb_name": "Corndale"
  },
  {
    "suburb_id": 3851,
    "state": "nsw",
    "postcode": 2793,
    "suburb_name": "Woodstock"
  },
  {
    "suburb_id": 1434,
    "state": "nsw",
    "postcode": 2539,
    "suburb_name": "Fishermans Paradise"
  },
  {
    "suburb_id": 3454,
    "state": "nsw",
    "postcode": 2823,
    "suburb_name": "Trangie"
  },
  {
    "suburb_id": 1429,
    "state": "nsw",
    "postcode": 2315,
    "suburb_name": "Fingal Bay"
  },
  {
    "suburb_id": 3837,
    "state": "nsw",
    "postcode": 2560,
    "suburb_name": "Woodbine"
  },
  {
    "suburb_id": 2812,
    "state": "nsw",
    "postcode": 2869,
    "suburb_name": "Peak Hill"
  },
  {
    "suburb_id": 1085,
    "state": "nsw",
    "postcode": 2230,
    "suburb_name": "Cronulla"
  },
  {
    "suburb_id": 272,
    "state": "nsw",
    "postcode": 2041,
    "suburb_name": "Balmain East"
  },
  {
    "suburb_id": 2723,
    "state": "nsw",
    "postcode": 2761,
    "suburb_name": "Oakhurst"
  },
  {
    "suburb_id": 2458,
    "state": "nsw",
    "postcode": 2460,
    "suburb_name": "Mountain View"
  },
  {
    "suburb_id": 1324,
    "state": "nsw",
    "postcode": 2325,
    "suburb_name": "Ellalong"
  },
  {
    "suburb_id": 3398,
    "state": "nsw",
    "postcode": 2297,
    "suburb_name": "Tighes Hill"
  },
  {
    "suburb_id": 2781,
    "state": "nsw",
    "postcode": 2035,
    "suburb_name": "Pagewood"
  },
  {
    "suburb_id": 325,
    "state": "nsw",
    "postcode": 2795,
    "suburb_name": "Bathurst"
  },
  {
    "suburb_id": 1723,
    "state": "nsw",
    "postcode": 2324,
    "suburb_name": "Hawks Nest"
  },
  {
    "suburb_id": 185,
    "state": "nsw",
    "postcode": 2038,
    "suburb_name": "Annandale"
  },
  {
    "suburb_id": 1696,
    "state": "nsw",
    "postcode": 2303,
    "suburb_name": "Hamilton South"
  },
  {
    "suburb_id": 2962,
    "state": "nsw",
    "postcode": 2622,
    "suburb_name": "Reidsdale"
  },
  {
    "suburb_id": 1764,
    "state": "nsw",
    "postcode": 2250,
    "suburb_name": "Holgate"
  },
  {
    "suburb_id": 160,
    "state": "nsw",
    "postcode": 2259,
    "suburb_name": "Alison"
  },
  {
    "suburb_id": 3149,
    "state": "nsw",
    "postcode": 2640,
    "suburb_name": "South Albury"
  },
  {
    "suburb_id": 143,
    "state": "nsw",
    "postcode": 2289,
    "suburb_name": "Adamstown Heights"
  },
  {
    "suburb_id": 3560,
    "state": "nsw",
    "postcode": 2475,
    "suburb_name": "Urbenville"
  },
  {
    "suburb_id": 1768,
    "state": "nsw",
    "postcode": 2173,
    "suburb_name": "Holsworthy"
  },
  {
    "suburb_id": 3148,
    "state": "nsw",
    "postcode": 2340,
    "suburb_name": "Somerton"
  },
  {
    "suburb_id": 1211,
    "state": "nsw",
    "postcode": 2767,
    "suburb_name": "Doonside"
  },
  {
    "suburb_id": 2471,
    "state": "nsw",
    "postcode": 2770,
    "suburb_name": "Mount Druitt"
  },
  {
    "suburb_id": 1435,
    "state": "nsw",
    "postcode": 2441,
    "suburb_name": "Fishermans Reach"
  },
  {
    "suburb_id": 1051,
    "state": "nsw",
    "postcode": 2315,
    "suburb_name": "Corlette"
  },
  {
    "suburb_id": 371,
    "state": "nsw",
    "postcode": 2192,
    "suburb_name": "Belmore"
  },
  {
    "suburb_id": 3273,
    "state": "nsw",
    "postcode": 2127,
    "suburb_name": "Sydney Olympic Park"
  },
  {
    "suburb_id": 1168,
    "state": "nsw",
    "postcode": 2085,
    "suburb_name": "Davidson"
  },
  {
    "suburb_id": 795,
    "state": "nsw",
    "postcode": 2285,
    "suburb_name": "Cameron Park"
  },
  {
    "suburb_id": 2659,
    "state": "nsw",
    "postcode": 2121,
    "suburb_name": "North Epping"
  },
  {
    "suburb_id": 2667,
    "state": "nsw",
    "postcode": 2100,
    "suburb_name": "North Manly"
  },
  {
    "suburb_id": 2515,
    "state": "nsw",
    "postcode": 2850,
    "suburb_name": "Mudgee"
  },
  {
    "suburb_id": 2351,
    "state": "nsw",
    "postcode": 2325,
    "suburb_name": "Millfield"
  },
  {
    "suburb_id": 1690,
    "state": "nsw",
    "postcode": 2346,
    "suburb_name": "Halls Creek"
  },
  {
    "suburb_id": 3862,
    "state": "nsw",
    "postcode": 2340,
    "suburb_name": "Woolomin"
  },
  {
    "suburb_id": 2465,
    "state": "nsw",
    "postcode": 2650,
    "suburb_name": "Mount Austin"
  },
  {
    "suburb_id": 1325,
    "state": "nsw",
    "postcode": 2460,
    "suburb_name": "Elland"
  },
  {
    "suburb_id": 200,
    "state": "nsw",
    "postcode": 2665,
    "suburb_name": "Ardlethan"
  },
  {
    "suburb_id": 205,
    "state": "nsw",
    "postcode": 2665,
    "suburb_name": "Ariah Park"
  },
  {
    "suburb_id": 459,
    "state": "nsw",
    "postcode": 2143,
    "suburb_name": "Birrong"
  },
  {
    "suburb_id": 3208,
    "state": "nsw",
    "postcode": 2176,
    "suburb_name": "St Johns Park"
  },
  {
    "suburb_id": 3481,
    "state": "nsw",
    "postcode": 2653,
    "suburb_name": "Tumbarumba"
  },
  {
    "suburb_id": 1326,
    "state": "nsw",
    "postcode": 2470,
    "suburb_name": "Ellangowan"
  },
  {
    "suburb_id": 490,
    "state": "nsw",
    "postcode": 2756,
    "suburb_name": "Bligh Park"
  },
  {
    "suburb_id": 3818,
    "state": "nsw",
    "postcode": 2325,
    "suburb_name": "Wollombi"
  },
  {
    "suburb_id": 2944,
    "state": "nsw",
    "postcode": 2324,
    "suburb_name": "Raymond Terrace"
  },
  {
    "suburb_id": 2690,
    "state": "nsw",
    "postcode": 2868,
    "suburb_name": "North Yeoval"
  },
  {
    "suburb_id": 1036,
    "state": "nsw",
    "postcode": 2251,
    "suburb_name": "Copacabana"
  },
  {
    "suburb_id": 2317,
    "state": "nsw",
    "postcode": 2540,
    "suburb_name": "Meroo Meadow"
  },
  {
    "suburb_id": 2126,
    "state": "nsw",
    "postcode": 2790,
    "suburb_name": "Little Hartley"
  },
  {
    "suburb_id": 2720,
    "state": "nsw",
    "postcode": 2790,
    "suburb_name": "Oakey Park"
  },
  {
    "suburb_id": 872,
    "state": "nsw",
    "postcode": 2178,
    "suburb_name": "Cecil Park"
  },
  {
    "suburb_id": 584,
    "state": "nsw",
    "postcode": 2019,
    "suburb_name": "Botany"
  },
  {
    "suburb_id": 1906,
    "state": "nsw",
    "postcode": 2526,
    "suburb_name": "Kembla Grange"
  },
  {
    "suburb_id": 1742,
    "state": "nsw",
    "postcode": 2790,
    "suburb_name": "Hermitage Flat"
  },
  {
    "suburb_id": 1236,
    "state": "nsw",
    "postcode": 2203,
    "suburb_name": "Dulwich Hill"
  },
  {
    "suburb_id": 2541,
    "state": "nsw",
    "postcode": 2406,
    "suburb_name": "Mungindi"
  },
  {
    "suburb_id": 1524,
    "state": "nsw",
    "postcode": 2145,
    "suburb_name": "Girraween"
  },
  {
    "suburb_id": 3246,
    "state": "nsw",
    "postcode": 2481,
    "suburb_name": "Suffolk Park"
  },
  {
    "suburb_id": 1853,
    "state": "nsw",
    "postcode": 2627,
    "suburb_name": "Jindabyne"
  },
  {
    "suburb_id": 3231,
    "state": "nsw",
    "postcode": 2484,
    "suburb_name": "Stokers Siding"
  },
  {
    "suburb_id": 3158,
    "state": "nsw",
    "postcode": 2142,
    "suburb_name": "South Granville"
  },
  {
    "suburb_id": 1681,
    "state": "nsw",
    "postcode": 2259,
    "suburb_name": "Gwandalan"
  },
  {
    "suburb_id": 2765,
    "state": "nsw",
    "postcode": 2650,
    "suburb_name": "Oura"
  },
  {
    "suburb_id": 3792,
    "state": "nsw",
    "postcode": 2264,
    "suburb_name": "Windermere Park"
  },
  {
    "suburb_id": 2907,
    "state": "nsw",
    "postcode": 2009,
    "suburb_name": "Pyrmont"
  },
  {
    "suburb_id": 2452,
    "state": "nsw",
    "postcode": 2537,
    "suburb_name": "Mossy Point"
  },
  {
    "suburb_id": 1093,
    "state": "nsw",
    "postcode": 2446,
    "suburb_name": "Crosslands"
  },
  {
    "suburb_id": 854,
    "state": "nsw",
    "postcode": 2069,
    "suburb_name": "Castle Cove"
  },
  {
    "suburb_id": 3774,
    "state": "nsw",
    "postcode": 2318,
    "suburb_name": "Williamtown"
  },
  {
    "suburb_id": 3896,
    "state": "nsw",
    "postcode": 2259,
    "suburb_name": "Wyong"
  },
  {
    "suburb_id": 470,
    "state": "nsw",
    "postcode": 2529,
    "suburb_name": "Blackbutt"
  },
  {
    "suburb_id": 1687,
    "state": "nsw",
    "postcode": 2460,
    "suburb_name": "Halfway Creek"
  },
  {
    "suburb_id": 1171,
    "state": "nsw",
    "postcode": 2000,
    "suburb_name": "Dawes Point"
  },
  {
    "suburb_id": 612,
    "state": "nsw",
    "postcode": 2460,
    "suburb_name": "Braunstone"
  },
  {
    "suburb_id": 1305,
    "state": "nsw",
    "postcode": 2176,
    "suburb_name": "Edensor Park"
  },
  {
    "suburb_id": 3869,
    "state": "nsw",
    "postcode": 2259,
    "suburb_name": "Woongarrah"
  },
  {
    "suburb_id": 3227,
    "state": "nsw",
    "postcode": 2443,
    "suburb_name": "Stewarts River"
  },
  {
    "suburb_id": 3301,
    "state": "nsw",
    "postcode": 2488,
    "suburb_name": "Tanglewood"
  },
  {
    "suburb_id": 1006,
    "state": "nsw",
    "postcode": 2300,
    "suburb_name": "Cooks Hill"
  },
  {
    "suburb_id": 1643,
    "state": "nsw",
    "postcode": 2145,
    "suburb_name": "Greystanes"
  },
  {
    "suburb_id": 831,
    "state": "nsw",
    "postcode": 2229,
    "suburb_name": "Caringbah South"
  },
  {
    "suburb_id": 1484,
    "state": "nsw",
    "postcode": 2159,
    "suburb_name": "Galston"
  },
  {
    "suburb_id": 1110,
    "state": "nsw",
    "postcode": 2790,
    "suburb_name": "Cullen Bullen"
  },
  {
    "suburb_id": 3268,
    "state": "nsw",
    "postcode": 2281,
    "suburb_name": "Swansea"
  },
  {
    "suburb_id": 2215,
    "state": "nsw",
    "postcode": 2264,
    "suburb_name": "Mandalong"
  },
  {
    "suburb_id": 1708,
    "state": "nsw",
    "postcode": 2850,
    "suburb_name": "Hargraves"
  },
  {
    "suburb_id": 3171,
    "state": "nsw",
    "postcode": 2750,
    "suburb_name": "South Penrith"
  },
  {
    "suburb_id": 1448,
    "state": "nsw",
    "postcode": 2422,
    "suburb_name": "Forbesdale"
  },
  {
    "suburb_id": 1332,
    "state": "nsw",
    "postcode": 2325,
    "suburb_name": "Elrington"
  },
  {
    "suburb_id": 3073,
    "state": "nsw",
    "postcode": 2456,
    "suburb_name": "Sandy Beach"
  },
  {
    "suburb_id": 1873,
    "state": "nsw",
    "postcode": 2848,
    "suburb_name": "Kandos"
  },
  {
    "suburb_id": 1069,
    "state": "nsw",
    "postcode": 2794,
    "suburb_name": "Cowra"
  },
  {
    "suburb_id": 2224,
    "state": "nsw",
    "postcode": 2346,
    "suburb_name": "Manilla"
  },
  {
    "suburb_id": 2683,
    "state": "nsw",
    "postcode": 2074,
    "suburb_name": "North Turramurra"
  },
  {
    "suburb_id": 1458,
    "state": "nsw",
    "postcode": 2428,
    "suburb_name": "Forster"
  },
  {
    "suburb_id": 1955,
    "state": "nsw",
    "postcode": 2148,
    "suburb_name": "Kings Park"
  },
  {
    "suburb_id": 2225,
    "state": "nsw",
    "postcode": 2095,
    "suburb_name": "Manly"
  },
  {
    "suburb_id": 1121,
    "state": "nsw",
    "postcode": 2430,
    "suburb_name": "Cundletown"
  },
  {
    "suburb_id": 478,
    "state": "nsw",
    "postcode": 2256,
    "suburb_name": "Blackwall"
  },
  {
    "suburb_id": 2369,
    "state": "nsw",
    "postcode": 2566,
    "suburb_name": "Minto"
  },
  {
    "suburb_id": 170,
    "state": "nsw",
    "postcode": 2477,
    "suburb_name": "Alstonvale"
  },
  {
    "suburb_id": 451,
    "state": "nsw",
    "postcode": 2630,
    "suburb_name": "Binjura"
  },
  {
    "suburb_id": 208,
    "state": "nsw",
    "postcode": 2205,
    "suburb_name": "Arncliffe"
  },
  {
    "suburb_id": 2006,
    "state": "nsw",
    "postcode": 2430,
    "suburb_name": "Kundle Kundle"
  },
  {
    "suburb_id": 3331,
    "state": "nsw",
    "postcode": 2320,
    "suburb_name": "Telarah"
  },
  {
    "suburb_id": 1736,
    "state": "nsw",
    "postcode": 2321,
    "suburb_name": "Heddon Greta"
  },
  {
    "suburb_id": 1703,
    "state": "nsw",
    "postcode": 2443,
    "suburb_name": "Hannam Vale"
  },
  {
    "suburb_id": 1967,
    "state": "nsw",
    "postcode": 2539,
    "suburb_name": "Kioloa"
  },
  {
    "suburb_id": 1281,
    "state": "nsw",
    "postcode": 2627,
    "suburb_name": "East Jindabyne"
  },
  {
    "suburb_id": 2187,
    "state": "nsw",
    "postcode": 2463,
    "suburb_name": "Maclean"
  },
  {
    "suburb_id": 447,
    "state": "nsw",
    "postcode": 2404,
    "suburb_name": "Bingara"
  },
  {
    "suburb_id": 3146,
    "state": "nsw",
    "postcode": 2317,
    "suburb_name": "Soldiers Point"
  },
  {
    "suburb_id": 398,
    "state": "nsw",
    "postcode": 2082,
    "suburb_name": "Berowra Heights"
  },
  {
    "suburb_id": 2929,
    "state": "nsw",
    "postcode": 2217,
    "suburb_name": "Ramsgate"
  },
  {
    "suburb_id": 1000,
    "state": "nsw",
    "postcode": 2221,
    "suburb_name": "Connells Point"
  },
  {
    "suburb_id": 1915,
    "state": "nsw",
    "postcode": 2560,
    "suburb_name": "Kentlyn"
  },
  {
    "suburb_id": 3322,
    "state": "nsw",
    "postcode": 2322,
    "suburb_name": "Tarro"
  },
  {
    "suburb_id": 3240,
    "state": "nsw",
    "postcode": 2136,
    "suburb_name": "Strathfield South"
  },
  {
    "suburb_id": 2105,
    "state": "nsw",
    "postcode": 2040,
    "suburb_name": "Lilyfield"
  },
  {
    "suburb_id": 2593,
    "state": "nsw",
    "postcode": 2209,
    "suburb_name": "Narwee"
  },
  {
    "suburb_id": 2264,
    "state": "nsw",
    "postcode": 2250,
    "suburb_name": "Matcham"
  },
  {
    "suburb_id": 1848,
    "state": "nsw",
    "postcode": 2299,
    "suburb_name": "Jesmond"
  },
  {
    "suburb_id": 2425,
    "state": "nsw",
    "postcode": 2170,
    "suburb_name": "Moorebank"
  },
  {
    "suburb_id": 1033,
    "state": "nsw",
    "postcode": 2590,
    "suburb_name": "Cootamundra"
  },
  {
    "suburb_id": 3262,
    "state": "nsw",
    "postcode": 2324,
    "suburb_name": "Swan Bay"
  },
  {
    "suburb_id": 2332,
    "state": "nsw",
    "postcode": 2580,
    "suburb_name": "Middle Arm"
  },
  {
    "suburb_id": 3637,
    "state": "nsw",
    "postcode": 2298,
    "suburb_name": "Waratah West"
  },
  {
    "suburb_id": 919,
    "state": "nsw",
    "postcode": 2747,
    "suburb_name": "Claremont Meadows"
  },
  {
    "suburb_id": 1373,
    "state": "nsw",
    "postcode": 2806,
    "suburb_name": "Eugowra"
  },
  {
    "suburb_id": 362,
    "state": "nsw",
    "postcode": 2440,
    "suburb_name": "Bellbrook"
  },
  {
    "suburb_id": 368,
    "state": "nsw",
    "postcode": 2280,
    "suburb_name": "Belmont"
  },
  {
    "suburb_id": 946,
    "state": "nsw",
    "postcode": 2835,
    "suburb_name": "Cobar"
  },
  {
    "suburb_id": 2868,
    "state": "nsw",
    "postcode": 2320,
    "suburb_name": "Pokolbin"
  },
  {
    "suburb_id": 1160,
    "state": "nsw",
    "postcode": 2027,
    "suburb_name": "Darling Point"
  },
  {
    "suburb_id": 3203,
    "state": "nsw",
    "postcode": 2540,
    "suburb_name": "St Georges Basin"
  },
  {
    "suburb_id": 3739,
    "state": "nsw",
    "postcode": 2145,
    "suburb_name": "Westmead"
  },
  {
    "suburb_id": 3002,
    "state": "nsw",
    "postcode": 2766,
    "suburb_name": "Rooty Hill"
  },
  {
    "suburb_id": 482,
    "state": "nsw",
    "postcode": 2221,
    "suburb_name": "Blakehurst"
  },
  {
    "suburb_id": 3259,
    "state": "nsw",
    "postcode": 2232,
    "suburb_name": "Sutherland"
  },
  {
    "suburb_id": 3165,
    "state": "nsw",
    "postcode": 2790,
    "suburb_name": "South Littleton"
  },
  {
    "suburb_id": 1233,
    "state": "nsw",
    "postcode": 2290,
    "suburb_name": "Dudley"
  },
  {
    "suburb_id": 1512,
    "state": "nsw",
    "postcode": 2360,
    "suburb_name": "Gilgai"
  },
  {
    "suburb_id": 1644,
    "state": "nsw",
    "postcode": 2680,
    "suburb_name": "Griffith"
  },
  {
    "suburb_id": 224,
    "state": "nsw",
    "postcode": 2323,
    "suburb_name": "Ashtonfield"
  },
  {
    "suburb_id": 724,
    "state": "nsw",
    "postcode": 2731,
    "suburb_name": "Bunnaloo"
  },
  {
    "suburb_id": 2499,
    "state": "nsw",
    "postcode": 2774,
    "suburb_name": "Mount Riverview"
  },
  {
    "suburb_id": 1338,
    "state": "nsw",
    "postcode": 2770,
    "suburb_name": "Emerton"
  },
  {
    "suburb_id": 215,
    "state": "nsw",
    "postcode": 2193,
    "suburb_name": "Ashbury"
  },
  {
    "suburb_id": 1253,
    "state": "nsw",
    "postcode": 2340,
    "suburb_name": "Dungowan"
  },
  {
    "suburb_id": 3676,
    "state": "nsw",
    "postcode": 2795,
    "suburb_name": "Wattle Flat"
  },
  {
    "suburb_id": 1133,
    "state": "nsw",
    "postcode": 2540,
    "suburb_name": "Currarong"
  },
  {
    "suburb_id": 331,
    "state": "nsw",
    "postcode": 2100,
    "suburb_name": "Beacon Hill"
  },
  {
    "suburb_id": 440,
    "state": "nsw",
    "postcode": 2758,
    "suburb_name": "Bilpin"
  },
  {
    "suburb_id": 2729,
    "state": "nsw",
    "postcode": 2117,
    "suburb_name": "Oatlands"
  },
  {
    "suburb_id": 2930,
    "state": "nsw",
    "postcode": 2217,
    "suburb_name": "Ramsgate Beach"
  },
  {
    "suburb_id": 2627,
    "state": "nsw",
    "postcode": 2447,
    "suburb_name": "Newee Creek"
  },
  {
    "suburb_id": 1183,
    "state": "nsw",
    "postcode": 2710,
    "suburb_name": "Deniliquin"
  },
  {
    "suburb_id": 3130,
    "state": "nsw",
    "postcode": 2330,
    "suburb_name": "Singleton Heights"
  },
  {
    "suburb_id": 3657,
    "state": "nsw",
    "postcode": 2502,
    "suburb_name": "Warrawong"
  },
  {
    "suburb_id": 3247,
    "state": "nsw",
    "postcode": 2130,
    "suburb_name": "Summer Hill"
  },
  {
    "suburb_id": 1347,
    "state": "nsw",
    "postcode": 2560,
    "suburb_name": "Englorie Park"
  },
  {
    "suburb_id": 3314,
    "state": "nsw",
    "postcode": 2652,
    "suburb_name": "Tarcutta"
  },
  {
    "suburb_id": 546,
    "state": "nsw",
    "postcode": 2177,
    "suburb_name": "Bonnyrigg Heights"
  },
  {
    "suburb_id": 501,
    "state": "nsw",
    "postcode": 2450,
    "suburb_name": "Boambee"
  },
  {
    "suburb_id": 3825,
    "state": "nsw",
    "postcode": 2550,
    "suburb_name": "Wolumla"
  },
  {
    "suburb_id": 911,
    "state": "nsw",
    "postcode": 2322,
    "suburb_name": "Chisholm"
  },
  {
    "suburb_id": 731,
    "state": "nsw",
    "postcode": 2739,
    "suburb_name": "Buronga"
  },
  {
    "suburb_id": 566,
    "state": "nsw",
    "postcode": 2284,
    "suburb_name": "Booragul"
  },
  {
    "suburb_id": 2299,
    "state": "nsw",
    "postcode": 2453,
    "suburb_name": "Megan"
  },
  {
    "suburb_id": 2990,
    "state": "nsw",
    "postcode": 2216,
    "suburb_name": "Rockdale"
  },
  {
    "suburb_id": 644,
    "state": "nsw",
    "postcode": 2550,
    "suburb_name": "Brogo"
  },
  {
    "suburb_id": 2467,
    "state": "nsw",
    "postcode": 2079,
    "suburb_name": "Mount Colah"
  },
  {
    "suburb_id": 2380,
    "state": "nsw",
    "postcode": 2575,
    "suburb_name": "Mittagong"
  },
  {
    "suburb_id": 3502,
    "state": "nsw",
    "postcode": 2650,
    "suburb_name": "Turvey Park"
  },
  {
    "suburb_id": 472,
    "state": "nsw",
    "postcode": 2785,
    "suburb_name": "Blackheath"
  },
  {
    "suburb_id": 2548,
    "state": "nsw",
    "postcode": 2586,
    "suburb_name": "Murringo"
  },
  {
    "suburb_id": 3959,
    "state": "nsw",
    "postcode": 2484,
    "suburb_name": "Zara"
  },
  {
    "suburb_id": 3634,
    "state": "nsw",
    "postcode": 2550,
    "suburb_name": "Wapengo"
  },
  {
    "suburb_id": 2878,
    "state": "nsw",
    "postcode": 2847,
    "suburb_name": "Portland"
  },
  {
    "suburb_id": 1107,
    "state": "nsw",
    "postcode": 2540,
    "suburb_name": "Cudmirrah"
  },
  {
    "suburb_id": 1057,
    "state": "nsw",
    "postcode": 2518,
    "suburb_name": "Corrimal"
  },
  {
    "suburb_id": 3953,
    "state": "nsw",
    "postcode": 2470,
    "suburb_name": "Yorklea"
  },
  {
    "suburb_id": 2981,
    "state": "nsw",
    "postcode": 2765,
    "suburb_name": "Riverstone"
  },
  {
    "suburb_id": 2630,
    "state": "nsw",
    "postcode": 2479,
    "suburb_name": "Newrybar"
  },
  {
    "suburb_id": 1665,
    "state": "nsw",
    "postcode": 2580,
    "suburb_name": "Gundary"
  },
  {
    "suburb_id": 658,
    "state": "nsw",
    "postcode": 2535,
    "suburb_name": "Broughton"
  },
  {
    "suburb_id": 1903,
    "state": "nsw",
    "postcode": 2155,
    "suburb_name": "Kellyville Ridge"
  },
  {
    "suburb_id": 212,
    "state": "nsw",
    "postcode": 2064,
    "suburb_name": "Artarmon"
  },
  {
    "suburb_id": 3311,
    "state": "nsw",
    "postcode": 2580,
    "suburb_name": "Taralga"
  },
  {
    "suburb_id": 3406,
    "state": "nsw",
    "postcode": 2369,
    "suburb_name": "Tingha"
  },
  {
    "suburb_id": 1493,
    "state": "nsw",
    "postcode": 2290,
    "suburb_name": "Gateshead"
  },
  {
    "suburb_id": 467,
    "state": "nsw",
    "postcode": 2550,
    "suburb_name": "Black Range"
  },
  {
    "suburb_id": 3679,
    "state": "nsw",
    "postcode": 2795,
    "suburb_name": "Watton"
  },
  {
    "suburb_id": 1274,
    "state": "nsw",
    "postcode": 2478,
    "suburb_name": "East Ballina"
  },
  {
    "suburb_id": 571,
    "state": "nsw",
    "postcode": 2650,
    "suburb_name": "Boorooma"
  },
  {
    "suburb_id": 3842,
    "state": "nsw",
    "postcode": 2463,
    "suburb_name": "Woodford Island"
  },
  {
    "suburb_id": 2356,
    "state": "nsw",
    "postcode": 2214,
    "suburb_name": "Milperra"
  },
  {
    "suburb_id": 1421,
    "state": "nsw",
    "postcode": 2519,
    "suburb_name": "Fernhill"
  },
  {
    "suburb_id": 2027,
    "state": "nsw",
    "postcode": 2795,
    "suburb_name": "Laffing Waters"
  },
  {
    "suburb_id": 1311,
    "state": "nsw",
    "postcode": 2174,
    "suburb_name": "Edmondson Park"
  },
  {
    "suburb_id": 1367,
    "state": "nsw",
    "postcode": 2474,
    "suburb_name": "Ettrick"
  },
  {
    "suburb_id": 3677,
    "state": "nsw",
    "postcode": 2173,
    "suburb_name": "Wattle Grove"
  },
  {
    "suburb_id": 3513,
    "state": "nsw",
    "postcode": 2460,
    "suburb_name": "Tyndale"
  },
  {
    "suburb_id": 2692,
    "state": "nsw",
    "postcode": 2152,
    "suburb_name": "Northmead"
  },
  {
    "suburb_id": 993,
    "state": "nsw",
    "postcode": 2447,
    "suburb_name": "Congarinni"
  },
  {
    "suburb_id": 2724,
    "state": "nsw",
    "postcode": 2646,
    "suburb_name": "Oaklands"
  },
  {
    "suburb_id": 2055,
    "state": "nsw",
    "postcode": 2066,
    "suburb_name": "Lane Cove"
  },
  {
    "suburb_id": 1287,
    "state": "nsw",
    "postcode": 2480,
    "suburb_name": "East Lismore"
  },
  {
    "suburb_id": 2677,
    "state": "nsw",
    "postcode": 2760,
    "suburb_name": "North St Marys"
  },
  {
    "suburb_id": 1947,
    "state": "nsw",
    "postcode": 2440,
    "suburb_name": "Kinchela"
  },
  {
    "suburb_id": 3280,
    "state": "nsw",
    "postcode": 2469,
    "suburb_name": "Tabulam"
  },
  {
    "suburb_id": 2585,
    "state": "nsw",
    "postcode": 2390,
    "suburb_name": "Narrabri"
  },
  {
    "suburb_id": 2154,
    "state": "nsw",
    "postcode": 2320,
    "suburb_name": "Lorn"
  },
  {
    "suburb_id": 1432,
    "state": "nsw",
    "postcode": 2429,
    "suburb_name": "Firefly"
  },
  {
    "suburb_id": 282,
    "state": "nsw",
    "postcode": 2216,
    "suburb_name": "Banksia"
  },
  {
    "suburb_id": 1890,
    "state": "nsw",
    "postcode": 2324,
    "suburb_name": "Karuah"
  },
  {
    "suburb_id": 2234,
    "state": "nsw",
    "postcode": 2765,
    "suburb_name": "Maraylya"
  },
  {
    "suburb_id": 1307,
    "state": "nsw",
    "postcode": 2027,
    "suburb_name": "Edgecliff"
  },
  {
    "suburb_id": 2512,
    "state": "nsw",
    "postcode": 2528,
    "suburb_name": "Mount Warrigal"
  },
  {
    "suburb_id": 3762,
    "state": "nsw",
    "postcode": 2293,
    "suburb_name": "Wickham"
  },
  {
    "suburb_id": 600,
    "state": "nsw",
    "postcode": 2576,
    "suburb_name": "Bowral"
  },
  {
    "suburb_id": 3093,
    "state": "nsw",
    "postcode": 2337,
    "suburb_name": "Scone"
  },
  {
    "suburb_id": 1356,
    "state": "nsw",
    "postcode": 2115,
    "suburb_name": "Ermington"
  },
  {
    "suburb_id": 2984,
    "state": "nsw",
    "postcode": 2360,
    "suburb_name": "Rob Roy"
  },
  {
    "suburb_id": 1573,
    "state": "nsw",
    "postcode": 2739,
    "suburb_name": "Gol Gol"
  },
  {
    "suburb_id": 3920,
    "state": "nsw",
    "postcode": 2753,
    "suburb_name": "Yarramundi"
  },
  {
    "suburb_id": 321,
    "state": "nsw",
    "postcode": 2261,
    "suburb_name": "Bateau Bay"
  },
  {
    "suburb_id": 1783,
    "state": "nsw",
    "postcode": 2621,
    "suburb_name": "Hoskinstown"
  },
  {
    "suburb_id": 3742,
    "state": "nsw",
    "postcode": 2164,
    "suburb_name": "Wetherill Park"
  },
  {
    "suburb_id": 2848,
    "state": "nsw",
    "postcode": 2478,
    "suburb_name": "Pimlico"
  },
  {
    "suburb_id": 1318,
    "state": "nsw",
    "postcode": 2570,
    "suburb_name": "Elderslie"
  },
  {
    "suburb_id": 3180,
    "state": "nsw",
    "postcode": 2284,
    "suburb_name": "Speers Point"
  },
  {
    "suburb_id": 3139,
    "state": "nsw",
    "postcode": 2164,
    "suburb_name": "Smithfield"
  },
  {
    "suburb_id": 3083,
    "state": "nsw",
    "postcode": 2251,
    "suburb_name": "Saratoga"
  },
  {
    "suburb_id": 3013,
    "state": "nsw",
    "postcode": 2196,
    "suburb_name": "Roselands"
  },
  {
    "suburb_id": 1550,
    "state": "nsw",
    "postcode": 2454,
    "suburb_name": "Gleniffer"
  },
  {
    "suburb_id": 3416,
    "state": "nsw",
    "postcode": 2714,
    "suburb_name": "Tocumwal"
  },
  {
    "suburb_id": 1152,
    "state": "nsw",
    "postcode": 2530,
    "suburb_name": "Dapto"
  },
  {
    "suburb_id": 955,
    "state": "nsw",
    "postcode": 2450,
    "suburb_name": "Coffs Harbour"
  },
  {
    "suburb_id": 3187,
    "state": "nsw",
    "postcode": 2470,
    "suburb_name": "Spring Grove"
  },
  {
    "suburb_id": 1529,
    "state": "nsw",
    "postcode": 2037,
    "suburb_name": "Glebe"
  },
  {
    "suburb_id": 2033,
    "state": "nsw",
    "postcode": 2672,
    "suburb_name": "Lake Cargelligo"
  },
  {
    "suburb_id": 2801,
    "state": "nsw",
    "postcode": 2580,
    "suburb_name": "Parkesbourne"
  },
  {
    "suburb_id": 988,
    "state": "nsw",
    "postcode": 2138,
    "suburb_name": "Concord West"
  },
  {
    "suburb_id": 1942,
    "state": "nsw",
    "postcode": 2257,
    "suburb_name": "Killcare Heights"
  },
  {
    "suburb_id": 1671,
    "state": "nsw",
    "postcode": 2581,
    "suburb_name": "Gunning"
  },
  {
    "suburb_id": 2626,
    "state": "nsw",
    "postcode": 2302,
    "suburb_name": "Newcastle West"
  },
  {
    "suburb_id": 646,
    "state": "nsw",
    "postcode": 2481,
    "suburb_name": "Broken Head"
  },
  {
    "suburb_id": 1056,
    "state": "nsw",
    "postcode": 2646,
    "suburb_name": "Corowa"
  },
  {
    "suburb_id": 3174,
    "state": "nsw",
    "postcode": 2145,
    "suburb_name": "South Wentworthville"
  },
  {
    "suburb_id": 1457,
    "state": "nsw",
    "postcode": 2260,
    "suburb_name": "Forresters Beach"
  },
  {
    "suburb_id": 2191,
    "state": "nsw",
    "postcode": 2565,
    "suburb_name": "Macquarie Links"
  },
  {
    "suburb_id": 2170,
    "state": "nsw",
    "postcode": 2756,
    "suburb_name": "Lower Portland"
  },
  {
    "suburb_id": 1082,
    "state": "nsw",
    "postcode": 2502,
    "suburb_name": "Cringila"
  },
  {
    "suburb_id": 3288,
    "state": "nsw",
    "postcode": 2579,
    "suburb_name": "Tallong"
  },
  {
    "suburb_id": 1885,
    "state": "nsw",
    "postcode": 2620,
    "suburb_name": "Karabar"
  },
  {
    "suburb_id": 3933,
    "state": "nsw",
    "postcode": 2582,
    "suburb_name": "Yass"
  },
  {
    "suburb_id": 2507,
    "state": "nsw",
    "postcode": 2178,
    "suburb_name": "Mount Vernon"
  },
  {
    "suburb_id": 3117,
    "state": "nsw",
    "postcode": 2529,
    "suburb_name": "Shell Cove"
  },
  {
    "suburb_id": 824,
    "state": "nsw",
    "postcode": 2285,
    "suburb_name": "Cardiff"
  },
  {
    "suburb_id": 3870,
    "state": "nsw",
    "postcode": 2517,
    "suburb_name": "Woonona"
  },
  {
    "suburb_id": 1792,
    "state": "nsw",
    "postcode": 2330,
    "suburb_name": "Hunterview"
  },
  {
    "suburb_id": 3257,
    "state": "nsw",
    "postcode": 2010,
    "suburb_name": "Surry Hills"
  },
  {
    "suburb_id": 1908,
    "state": "nsw",
    "postcode": 2178,
    "suburb_name": "Kemps Creek"
  },
  {
    "suburb_id": 2816,
    "state": "nsw",
    "postcode": 2477,
    "suburb_name": "Pearces Creek"
  },
  {
    "suburb_id": 3708,
    "state": "nsw",
    "postcode": 2145,
    "suburb_name": "Wentworthville"
  },
  {
    "suburb_id": 287,
    "state": "nsw",
    "postcode": 2580,
    "suburb_name": "Bannister"
  },
  {
    "suburb_id": 2362,
    "state": "nsw",
    "postcode": 2770,
    "suburb_name": "Minchinbury"
  },
  {
    "suburb_id": 1732,
    "state": "nsw",
    "postcode": 2324,
    "suburb_name": "Heatherbrae"
  },
  {
    "suburb_id": 1941,
    "state": "nsw",
    "postcode": 2257,
    "suburb_name": "Killcare"
  },
  {
    "suburb_id": 3116,
    "state": "nsw",
    "postcode": 2790,
    "suburb_name": "Sheedys Gully"
  },
  {
    "suburb_id": 131,
    "state": "nsw",
    "postcode": 2046,
    "suburb_name": "Abbotsford"
  },
  {
    "suburb_id": 534,
    "state": "nsw",
    "postcode": 2720,
    "suburb_name": "Bombowlee"
  },
  {
    "suburb_id": 3326,
    "state": "nsw",
    "postcode": 2650,
    "suburb_name": "Tatton"
  },
  {
    "suburb_id": 2983,
    "state": "nsw",
    "postcode": 2210,
    "suburb_name": "Riverwood"
  },
  {
    "suburb_id": 3217,
    "state": "nsw",
    "postcode": 2048,
    "suburb_name": "Stanmore"
  },
  {
    "suburb_id": 2384,
    "state": "nsw",
    "postcode": 2537,
    "suburb_name": "Mogendoura"
  },
  {
    "suburb_id": 645,
    "state": "nsw",
    "postcode": 2330,
    "suburb_name": "Broke"
  },
  {
    "suburb_id": 2670,
    "state": "nsw",
    "postcode": 2541,
    "suburb_name": "North Nowra"
  },
  {
    "suburb_id": 2980,
    "state": "nsw",
    "postcode": 2444,
    "suburb_name": "Riverside"
  },
  {
    "suburb_id": 3680,
    "state": "nsw",
    "postcode": 2446,
    "suburb_name": "Wauchope"
  },
  {
    "suburb_id": 1960,
    "state": "nsw",
    "postcode": 2032,
    "suburb_name": "Kingsford"
  },
  {
    "suburb_id": 1115,
    "state": "nsw",
    "postcode": 2478,
    "suburb_name": "Cumbalum"
  },
  {
    "suburb_id": 3141,
    "state": "nsw",
    "postcode": 2428,
    "suburb_name": "Smiths Lake"
  },
  {
    "suburb_id": 2323,
    "state": "nsw",
    "postcode": 2160,
    "suburb_name": "Merrylands"
  },
  {
    "suburb_id": 433,
    "state": "nsw",
    "postcode": 2486,
    "suburb_name": "Bilambil Heights"
  },
  {
    "suburb_id": 1757,
    "state": "nsw",
    "postcode": 2340,
    "suburb_name": "Hillvue"
  },
  {
    "suburb_id": 2825,
    "state": "nsw",
    "postcode": 2145,
    "suburb_name": "Pemulwuy"
  },
  {
    "suburb_id": 2252,
    "state": "nsw",
    "postcode": 2122,
    "suburb_name": "Marsfield"
  },
  {
    "suburb_id": 2237,
    "state": "nsw",
    "postcode": 2582,
    "suburb_name": "Marchmont"
  },
  {
    "suburb_id": 1159,
    "state": "nsw",
    "postcode": 2454,
    "suburb_name": "Darkwood"
  },
  {
    "suburb_id": 1503,
    "state": "nsw",
    "postcode": 2534,
    "suburb_name": "Gerroa"
  },
  {
    "suburb_id": 171,
    "state": "nsw",
    "postcode": 2477,
    "suburb_name": "Alstonville"
  },
  {
    "suburb_id": 3067,
    "state": "nsw",
    "postcode": 2540,
    "suburb_name": "Sanctuary Point"
  },
  {
    "suburb_id": 2228,
    "state": "nsw",
    "postcode": 2430,
    "suburb_name": "Manning Point"
  },
  {
    "suburb_id": 2120,
    "state": "nsw",
    "postcode": 2480,
    "suburb_name": "Lismore Heights"
  },
  {
    "suburb_id": 1180,
    "state": "nsw",
    "postcode": 2403,
    "suburb_name": "Delungra"
  },
  {
    "suburb_id": 548,
    "state": "nsw",
    "postcode": 2450,
    "suburb_name": "Bonville"
  },
  {
    "suburb_id": 3738,
    "state": "nsw",
    "postcode": 2120,
    "suburb_name": "Westleigh"
  },
  {
    "suburb_id": 2892,
    "state": "nsw",
    "postcode": 2148,
    "suburb_name": "Prospect"
  },
  {
    "suburb_id": 2040,
    "state": "nsw",
    "postcode": 3691,
    "suburb_name": "Lake Hume Village"
  },
  {
    "suburb_id": 653,
    "state": "nsw",
    "postcode": 2479,
    "suburb_name": "Brooklet"
  },
  {
    "suburb_id": 769,
    "state": "nsw",
    "postcode": 2166,
    "suburb_name": "Cabramatta West"
  },
  {
    "suburb_id": 1208,
    "state": "nsw",
    "postcode": 2440,
    "suburb_name": "Dondingalong"
  },
  {
    "suburb_id": 187,
    "state": "nsw",
    "postcode": 2560,
    "suburb_name": "Appin"
  },
  {
    "suburb_id": 799,
    "state": "nsw",
    "postcode": 2050,
    "suburb_name": "Camperdown"
  },
  {
    "suburb_id": 622,
    "state": "nsw",
    "postcode": 2795,
    "suburb_name": "Brewongle"
  },
  {
    "suburb_id": 438,
    "state": "nsw",
    "postcode": 2483,
    "suburb_name": "Billinudgel"
  },
  {
    "suburb_id": 1882,
    "state": "nsw",
    "postcode": 2259,
    "suburb_name": "Kanwal"
  },
  {
    "suburb_id": 3636,
    "state": "nsw",
    "postcode": 2298,
    "suburb_name": "Waratah"
  },
  {
    "suburb_id": 1078,
    "state": "nsw",
    "postcode": 2090,
    "suburb_name": "Cremorne"
  },
  {
    "suburb_id": 2199,
    "state": "nsw",
    "postcode": 2482,
    "suburb_name": "Main Arm"
  },
  {
    "suburb_id": 2915,
    "state": "nsw",
    "postcode": 2620,
    "suburb_name": "Queanbeyan West"
  },
  {
    "suburb_id": 1089,
    "state": "nsw",
    "postcode": 2583,
    "suburb_name": "Crookwell"
  },
  {
    "suburb_id": 3063,
    "state": "nsw",
    "postcode": 2318,
    "suburb_name": "Salt Ash"
  },
  {
    "suburb_id": 1454,
    "state": "nsw",
    "postcode": 2037,
    "suburb_name": "Forest Lodge"
  },
  {
    "suburb_id": 2581,
    "state": "nsw",
    "postcode": 2065,
    "suburb_name": "Naremburn"
  },
  {
    "suburb_id": 2310,
    "state": "nsw",
    "postcode": 2842,
    "suburb_name": "Mendooran"
  },
  {
    "suburb_id": 1526,
    "state": "nsw",
    "postcode": 2111,
    "suburb_name": "Gladesville"
  },
  {
    "suburb_id": 1891,
    "state": "nsw",
    "postcode": 2780,
    "suburb_name": "Katoomba"
  },
  {
    "suburb_id": 288,
    "state": "nsw",
    "postcode": 2486,
    "suburb_name": "Banora Point"
  },
  {
    "suburb_id": 3175,
    "state": "nsw",
    "postcode": 2431,
    "suburb_name": "South West Rocks"
  },
  {
    "suburb_id": 2160,
    "state": "nsw",
    "postcode": 2325,
    "suburb_name": "Lovedale"
  },
  {
    "suburb_id": 516,
    "state": "nsw",
    "postcode": 2849,
    "suburb_name": "Bogee"
  },
  {
    "suburb_id": 3318,
    "state": "nsw",
    "postcode": 2580,
    "suburb_name": "Tarlo"
  },
  {
    "suburb_id": 2064,
    "state": "nsw",
    "postcode": 2320,
    "suburb_name": "Largs"
  },
  {
    "suburb_id": 3683,
    "state": "nsw",
    "postcode": 2024,
    "suburb_name": "Waverley"
  },
  {
    "suburb_id": 948,
    "state": "nsw",
    "postcode": 2550,
    "suburb_name": "Cobargo"
  },
  {
    "suburb_id": 3787,
    "state": "nsw",
    "postcode": 2528,
    "suburb_name": "Windang"
  },
  {
    "suburb_id": 914,
    "state": "nsw",
    "postcode": 2261,
    "suburb_name": "Chittaway Point"
  },
  {
    "suburb_id": 2179,
    "state": "nsw",
    "postcode": 2210,
    "suburb_name": "Lugarno"
  },
  {
    "suburb_id": 1360,
    "state": "nsw",
    "postcode": 2043,
    "suburb_name": "Erskineville"
  },
  {
    "suburb_id": 750,
    "state": "nsw",
    "postcode": 2134,
    "suburb_name": "Burwood"
  },
  {
    "suburb_id": 3200,
    "state": "nsw",
    "postcode": 2759,
    "suburb_name": "St Clair"
  },
  {
    "suburb_id": 2637,
    "state": "nsw",
    "postcode": 2631,
    "suburb_name": "Nimmitabel"
  },
  {
    "suburb_id": 3833,
    "state": "nsw",
    "postcode": 2530,
    "suburb_name": "Wongawilli"
  },
  {
    "suburb_id": 758,
    "state": "nsw",
    "postcode": 2446,
    "suburb_name": "Byabarra"
  },
  {
    "suburb_id": 1471,
    "state": "nsw",
    "postcode": 2096,
    "suburb_name": "Freshwater"
  },
  {
    "suburb_id": 1423,
    "state": "nsw",
    "postcode": 2454,
    "suburb_name": "Fernmount"
  },
  {
    "suburb_id": 808,
    "state": "nsw",
    "postcode": 2480,
    "suburb_name": "Caniaba"
  },
  {
    "suburb_id": 2244,
    "state": "nsw",
    "postcode": 2284,
    "suburb_name": "Marmong Point"
  },
  {
    "suburb_id": 1040,
    "state": "nsw",
    "postcode": 2471,
    "suburb_name": "Coraki"
  },
  {
    "suburb_id": 2473,
    "state": "nsw",
    "postcode": 2580,
    "suburb_name": "Mount Fairy"
  },
  {
    "suburb_id": 686,
    "state": "nsw",
    "postcode": 2262,
    "suburb_name": "Budgewoi"
  },
  {
    "suburb_id": 1596,
    "state": "nsw",
    "postcode": 2072,
    "suburb_name": "Gordon"
  },
  {
    "suburb_id": 3209,
    "state": "nsw",
    "postcode": 2065,
    "suburb_name": "St Leonards"
  },
  {
    "suburb_id": 1694,
    "state": "nsw",
    "postcode": 2303,
    "suburb_name": "Hamilton East"
  },
  {
    "suburb_id": 341,
    "state": "nsw",
    "postcode": 2446,
    "suburb_name": "Beechwood"
  },
  {
    "suburb_id": 388,
    "state": "nsw",
    "postcode": 2141,
    "suburb_name": "Berala"
  },
  {
    "suburb_id": 2285,
    "state": "nsw",
    "postcode": 2790,
    "suburb_name": "Mckellars Park"
  },
  {
    "suburb_id": 1988,
    "state": "nsw",
    "postcode": 2650,
    "suburb_name": "Kooringal"
  },
  {
    "suburb_id": 587,
    "state": "nsw",
    "postcode": 2840,
    "suburb_name": "Bourke"
  },
  {
    "suburb_id": 839,
    "state": "nsw",
    "postcode": 2163,
    "suburb_name": "Carramar"
  },
  {
    "suburb_id": 1361,
    "state": "nsw",
    "postcode": 2850,
    "suburb_name": "Erudgere"
  },
  {
    "suburb_id": 2205,
    "state": "nsw",
    "postcode": 2622,
    "suburb_name": "Majors Creek"
  },
  {
    "suburb_id": 3210,
    "state": "nsw",
    "postcode": 2760,
    "suburb_name": "St Marys"
  },
  {
    "suburb_id": 2884,
    "state": "nsw",
    "postcode": 2011,
    "suburb_name": "Potts Point"
  },
  {
    "suburb_id": 2793,
    "state": "nsw",
    "postcode": 2430,
    "suburb_name": "Pampoolah"
  },
  {
    "suburb_id": 2754,
    "state": "nsw",
    "postcode": 2800,
    "suburb_name": "Ophir"
  },
  {
    "suburb_id": 1753,
    "state": "nsw",
    "postcode": 2290,
    "suburb_name": "Hillsborough"
  },
  {
    "suburb_id": 2859,
    "state": "nsw",
    "postcode": 2756,
    "suburb_name": "Pitt Town"
  },
  {
    "suburb_id": 328,
    "state": "nsw",
    "postcode": 2580,
    "suburb_name": "Baw Baw"
  },
  {
    "suburb_id": 500,
    "state": "nsw",
    "postcode": 2428,
    "suburb_name": "Blueys Beach"
  },
  {
    "suburb_id": 2108,
    "state": "nsw",
    "postcode": 2324,
    "suburb_name": "Limeburners Creek"
  },
  {
    "suburb_id": 1863,
    "state": "nsw",
    "postcode": 2663,
    "suburb_name": "Junee"
  },
  {
    "suburb_id": 893,
    "state": "nsw",
    "postcode": 2263,
    "suburb_name": "Charmhaven"
  },
  {
    "suburb_id": 1316,
    "state": "nsw",
    "postcode": 2101,
    "suburb_name": "Elanora Heights"
  },
  {
    "suburb_id": 403,
    "state": "nsw",
    "postcode": 2628,
    "suburb_name": "Berridale"
  },
  {
    "suburb_id": 3715,
    "state": "nsw",
    "postcode": 2747,
    "suburb_name": "Werrington Downs"
  },
  {
    "suburb_id": 2180,
    "state": "nsw",
    "postcode": 2170,
    "suburb_name": "Lurnea"
  },
  {
    "suburb_id": 2034,
    "state": "nsw",
    "postcode": 2445,
    "suburb_name": "Lake Cathie"
  },
  {
    "suburb_id": 3123,
    "state": "nsw",
    "postcode": 2535,
    "suburb_name": "Shoalhaven Heads"
  },
  {
    "suburb_id": 677,
    "state": "nsw",
    "postcode": 2550,
    "suburb_name": "Buckajo"
  },
  {
    "suburb_id": 1632,
    "state": "nsw",
    "postcode": 2540,
    "suburb_name": "Greenwell Point"
  },
  {
    "suburb_id": 3798,
    "state": "nsw",
    "postcode": 2579,
    "suburb_name": "Wingello"
  },
  {
    "suburb_id": 1756,
    "state": "nsw",
    "postcode": 2430,
    "suburb_name": "Hillville"
  },
  {
    "suburb_id": 1813,
    "state": "nsw",
    "postcode": 2565,
    "suburb_name": "Ingleburn"
  },
  {
    "suburb_id": 3360,
    "state": "nsw",
    "postcode": 2480,
    "suburb_name": "The Channon"
  },
  {
    "suburb_id": 1348,
    "state": "nsw",
    "postcode": 2042,
    "suburb_name": "Enmore"
  },
  {
    "suburb_id": 2783,
    "state": "nsw",
    "postcode": 2399,
    "suburb_name": "Pallamallawa"
  },
  {
    "suburb_id": 456,
    "state": "nsw",
    "postcode": 2446,
    "suburb_name": "Birdwood"
  },
  {
    "suburb_id": 1023,
    "state": "nsw",
    "postcode": 2357,
    "suburb_name": "Coonabarabran"
  },
  {
    "suburb_id": 2786,
    "state": "nsw",
    "postcode": 2258,
    "suburb_name": "Palmdale"
  },
  {
    "suburb_id": 2945,
    "state": "nsw",
    "postcode": 2571,
    "suburb_name": "Razorback"
  },
  {
    "suburb_id": 2923,
    "state": "nsw",
    "postcode": 2566,
    "suburb_name": "Raby"
  },
  {
    "suburb_id": 1893,
    "state": "nsw",
    "postcode": 2558,
    "suburb_name": "Kearns"
  },
  {
    "suburb_id": 2146,
    "state": "nsw",
    "postcode": 2536,
    "suburb_name": "Long Beach"
  },
  {
    "suburb_id": 2087,
    "state": "nsw",
    "postcode": 2179,
    "suburb_name": "Leppington"
  },
  {
    "suburb_id": 2584,
    "state": "nsw",
    "postcode": 2101,
    "suburb_name": "Narrabeen"
  },
  {
    "suburb_id": 1284,
    "state": "nsw",
    "postcode": 2071,
    "suburb_name": "East Killara"
  },
  {
    "suburb_id": 1442,
    "state": "nsw",
    "postcode": 2287,
    "suburb_name": "Fletcher"
  },
  {
    "suburb_id": 515,
    "state": "nsw",
    "postcode": 2488,
    "suburb_name": "Bogangar"
  },
  {
    "suburb_id": 3812,
    "state": "nsw",
    "postcode": 2775,
    "suburb_name": "Wisemans Ferry"
  },
  {
    "suburb_id": 151,
    "state": "nsw",
    "postcode": 2527,
    "suburb_name": "Albion Park"
  },
  {
    "suburb_id": 2691,
    "state": "nsw",
    "postcode": 2063,
    "suburb_name": "Northbridge"
  },
  {
    "suburb_id": 3604,
    "state": "nsw",
    "postcode": 2320,
    "suburb_name": "Wallalong"
  },
  {
    "suburb_id": 390,
    "state": "nsw",
    "postcode": 2322,
    "suburb_name": "Beresfield"
  },
  {
    "suburb_id": 350,
    "state": "nsw",
    "postcode": 2335,
    "suburb_name": "Belford"
  },
  {
    "suburb_id": 3592,
    "state": "nsw",
    "postcode": 2710,
    "suburb_name": "Wakool"
  },
  {
    "suburb_id": 1800,
    "state": "nsw",
    "postcode": 2220,
    "suburb_name": "Hurstville Grove"
  },
  {
    "suburb_id": 1234,
    "state": "nsw",
    "postcode": 2084,
    "suburb_name": "Duffys Forest"
  },
  {
    "suburb_id": 1081,
    "state": "nsw",
    "postcode": 2620,
    "suburb_name": "Crestwood"
  },
  {
    "suburb_id": 2325,
    "state": "nsw",
    "postcode": 2705,
    "suburb_name": "Merungle Hill"
  },
  {
    "suburb_id": 3861,
    "state": "nsw",
    "postcode": 2011,
    "suburb_name": "Woolloomooloo"
  },
  {
    "suburb_id": 3876,
    "state": "nsw",
    "postcode": 2540,
    "suburb_name": "Worrigee"
  },
  {
    "suburb_id": 1791,
    "state": "nsw",
    "postcode": 2110,
    "suburb_name": "Hunters Hill"
  },
  {
    "suburb_id": 2795,
    "state": "nsw",
    "postcode": 2213,
    "suburb_name": "Panania"
  },
  {
    "suburb_id": 1992,
    "state": "nsw",
    "postcode": 2450,
    "suburb_name": "Korora"
  },
  {
    "suburb_id": 354,
    "state": "nsw",
    "postcode": 2786,
    "suburb_name": "Bell"
  },
  {
    "suburb_id": 2011,
    "state": "nsw",
    "postcode": 2231,
    "suburb_name": "Kurnell"
  },
  {
    "suburb_id": 995,
    "state": "nsw",
    "postcode": 2325,
    "suburb_name": "Congewai"
  },
  {
    "suburb_id": 2814,
    "state": "nsw",
    "postcode": 2210,
    "suburb_name": "Peakhurst"
  },
  {
    "suburb_id": 3731,
    "state": "nsw",
    "postcode": 2286,
    "suburb_name": "West Wallsend"
  },
  {
    "suburb_id": 3261,
    "state": "nsw",
    "postcode": 2577,
    "suburb_name": "Sutton Forest"
  },
  {
    "suburb_id": 3125,
    "state": "nsw",
    "postcode": 2307,
    "suburb_name": "Shortland"
  },
  {
    "suburb_id": 2140,
    "state": "nsw",
    "postcode": 2656,
    "suburb_name": "Lockhart"
  },
  {
    "suburb_id": 2553,
    "state": "nsw",
    "postcode": 2338,
    "suburb_name": "Murrurundi"
  },
  {
    "suburb_id": 1718,
    "state": "nsw",
    "postcode": 2761,
    "suburb_name": "Hassall Grove"
  },
  {
    "suburb_id": 2042,
    "state": "nsw",
    "postcode": 2446,
    "suburb_name": "Lake Innes"
  },
  {
    "suburb_id": 3744,
    "state": "nsw",
    "postcode": 2770,
    "suburb_name": "Whalan"
  },
  {
    "suburb_id": 2039,
    "state": "nsw",
    "postcode": 2502,
    "suburb_name": "Lake Heights"
  },
  {
    "suburb_id": 2035,
    "state": "nsw",
    "postcode": 2539,
    "suburb_name": "Lake Conjola"
  },
  {
    "suburb_id": 2649,
    "state": "nsw",
    "postcode": 2324,
    "suburb_name": "North Arm Cove"
  },
  {
    "suburb_id": 1011,
    "state": "nsw",
    "postcode": 2843,
    "suburb_name": "Coolah"
  },
  {
    "suburb_id": 2290,
    "state": "nsw",
    "postcode": 2795,
    "suburb_name": "Meadow Flat"
  },
  {
    "suburb_id": 798,
    "state": "nsw",
    "postcode": 2560,
    "suburb_name": "Campbelltown"
  },
  {
    "suburb_id": 1857,
    "state": "nsw",
    "postcode": 2443,
    "suburb_name": "Johns River"
  },
  {
    "suburb_id": 1001,
    "state": "nsw",
    "postcode": 2145,
    "suburb_name": "Constitution Hill"
  },
  {
    "suburb_id": 2650,
    "state": "nsw",
    "postcode": 2260,
    "suburb_name": "North Avoca"
  },
  {
    "suburb_id": 3407,
    "state": "nsw",
    "postcode": 2290,
    "suburb_name": "Tingira Heights"
  },
  {
    "suburb_id": 3734,
    "state": "nsw",
    "postcode": 2671,
    "suburb_name": "West Wyalong"
  },
  {
    "suburb_id": 1972,
    "state": "nsw",
    "postcode": 2232,
    "suburb_name": "Kirrawee"
  },
  {
    "suburb_id": 3783,
    "state": "nsw",
    "postcode": 2571,
    "suburb_name": "Wilton"
  },
  {
    "suburb_id": 2674,
    "state": "nsw",
    "postcode": 2335,
    "suburb_name": "North Rothbury"
  },
  {
    "suburb_id": 3567,
    "state": "nsw",
    "postcode": 2790,
    "suburb_name": "Vale Of Clwydd"
  },
  {
    "suburb_id": 1828,
    "state": "nsw",
    "postcode": 2750,
    "suburb_name": "Jamisontown"
  },
  {
    "suburb_id": 1685,
    "state": "nsw",
    "postcode": 2045,
    "suburb_name": "Haberfield"
  },
  {
    "suburb_id": 2155,
    "state": "nsw",
    "postcode": 2439,
    "suburb_name": "Lorne"
  },
  {
    "suburb_id": 234,
    "state": "nsw",
    "postcode": 2251,
    "suburb_name": "Avoca Beach"
  },
  {
    "suburb_id": 2274,
    "state": "nsw",
    "postcode": 2304,
    "suburb_name": "Mayfield"
  },
  {
    "suburb_id": 1880,
    "state": "nsw",
    "postcode": 2790,
    "suburb_name": "Kanimbla"
  },
  {
    "suburb_id": 588,
    "state": "nsw",
    "postcode": 2650,
    "suburb_name": "Bourkelands"
  },
  {
    "suburb_id": 419,
    "state": "nsw",
    "postcode": 2207,
    "suburb_name": "Bexley"
  },
  {
    "suburb_id": 395,
    "state": "nsw",
    "postcode": 2546,
    "suburb_name": "Bermagui"
  },
  {
    "suburb_id": 2203,
    "state": "nsw",
    "postcode": 2320,
    "suburb_name": "Maitland"
  },
  {
    "suburb_id": 978,
    "state": "nsw",
    "postcode": 2760,
    "suburb_name": "Colyton"
  },
  {
    "suburb_id": 3230,
    "state": "nsw",
    "postcode": 2295,
    "suburb_name": "Stockton"
  },
  {
    "suburb_id": 908,
    "state": "nsw",
    "postcode": 2487,
    "suburb_name": "Chinderah"
  },
  {
    "suburb_id": 902,
    "state": "nsw",
    "postcode": 2162,
    "suburb_name": "Chester Hill"
  },
  {
    "suburb_id": 1958,
    "state": "nsw",
    "postcode": 2487,
    "suburb_name": "Kingscliff"
  },
  {
    "suburb_id": 2942,
    "state": "nsw",
    "postcode": 2321,
    "suburb_name": "Raworth"
  },
  {
    "suburb_id": 1990,
    "state": "nsw",
    "postcode": 2735,
    "suburb_name": "Koraleigh"
  },
  {
    "suburb_id": 306,
    "state": "nsw",
    "postcode": 2528,
    "suburb_name": "Barrack Point"
  },
  {
    "suburb_id": 2822,
    "state": "nsw",
    "postcode": 2281,
    "suburb_name": "Pelican"
  },
  {
    "suburb_id": 858,
    "state": "nsw",
    "postcode": 2749,
    "suburb_name": "Castlereagh"
  },
  {
    "suburb_id": 2901,
    "state": "nsw",
    "postcode": 2850,
    "suburb_name": "Putta Bucca"
  },
  {
    "suburb_id": 3384,
    "state": "nsw",
    "postcode": 2572,
    "suburb_name": "Thirlmere"
  },
  {
    "suburb_id": 2924,
    "state": "nsw",
    "postcode": 2795,
    "suburb_name": "Raglan"
  },
  {
    "suburb_id": 2682,
    "state": "nsw",
    "postcode": 2490,
    "suburb_name": "North Tumbulgum"
  },
  {
    "suburb_id": 3635,
    "state": "nsw",
    "postcode": 2304,
    "suburb_name": "Warabrook"
  },
  {
    "suburb_id": 1016,
    "state": "nsw",
    "postcode": 2423,
    "suburb_name": "Coolongolook"
  },
  {
    "suburb_id": 2127,
    "state": "nsw",
    "postcode": 2259,
    "suburb_name": "Little Jilliby"
  },
  {
    "suburb_id": 830,
    "state": "nsw",
    "postcode": 2229,
    "suburb_name": "Caringbah"
  },
  {
    "suburb_id": 152,
    "state": "nsw",
    "postcode": 2527,
    "suburb_name": "Albion Park Rail"
  },
  {
    "suburb_id": 3159,
    "state": "nsw",
    "postcode": 2722,
    "suburb_name": "South Gundagai"
  },
  {
    "suburb_id": 301,
    "state": "nsw",
    "postcode": 2668,
    "suburb_name": "Barmedman"
  },
  {
    "suburb_id": 1767,
    "state": "nsw",
    "postcode": 2142,
    "suburb_name": "Holroyd"
  },
  {
    "suburb_id": 2073,
    "state": "nsw",
    "postcode": 2783,
    "suburb_name": "Lawson"
  },
  {
    "suburb_id": 2900,
    "state": "nsw",
    "postcode": 2112,
    "suburb_name": "Putney"
  },
  {
    "suburb_id": 817,
    "state": "nsw",
    "postcode": 2429,
    "suburb_name": "Caparra"
  },
  {
    "suburb_id": 1621,
    "state": "nsw",
    "postcode": 2168,
    "suburb_name": "Green Valley"
  },
  {
    "suburb_id": 1610,
    "state": "nsw",
    "postcode": 2142,
    "suburb_name": "Granville"
  },
  {
    "suburb_id": 1965,
    "state": "nsw",
    "postcode": 2747,
    "suburb_name": "Kingswood"
  },
  {
    "suburb_id": 2001,
    "state": "nsw",
    "postcode": 2250,
    "suburb_name": "Kulnura"
  },
  {
    "suburb_id": 1162,
    "state": "nsw",
    "postcode": 2008,
    "suburb_name": "Darlington"
  },
  {
    "suburb_id": 1879,
    "state": "nsw",
    "postcode": 2258,
    "suburb_name": "Kangy Angy"
  },
  {
    "suburb_id": 2628,
    "state": "nsw",
    "postcode": 2127,
    "suburb_name": "Newington"
  },
  {
    "suburb_id": 2354,
    "state": "nsw",
    "postcode": 2798,
    "suburb_name": "Millthorpe"
  },
  {
    "suburb_id": 1414,
    "state": "nsw",
    "postcode": 2480,
    "suburb_name": "Federal"
  },
  {
    "suburb_id": 2579,
    "state": "nsw",
    "postcode": 2567,
    "suburb_name": "Narellan"
  },
  {
    "suburb_id": 524,
    "state": "nsw",
    "postcode": 2283,
    "suburb_name": "Bolton Point"
  },
  {
    "suburb_id": 2263,
    "state": "nsw",
    "postcode": 2020,
    "suburb_name": "Mascot"
  },
  {
    "suburb_id": 3291,
    "state": "nsw",
    "postcode": 2430,
    "suburb_name": "Tallwoods Village"
  },
  {
    "suburb_id": 3385,
    "state": "nsw",
    "postcode": 2515,
    "suburb_name": "Thirroul"
  },
  {
    "suburb_id": 912,
    "state": "nsw",
    "postcode": 2046,
    "suburb_name": "Chiswick"
  },
  {
    "suburb_id": 2540,
    "state": "nsw",
    "postcode": 2440,
    "suburb_name": "Mungay Creek"
  },
  {
    "suburb_id": 2059,
    "state": "nsw",
    "postcode": 2460,
    "suburb_name": "Lanitza"
  },
  {
    "suburb_id": 1319,
    "state": "nsw",
    "postcode": 2282,
    "suburb_name": "Eleebana"
  },
  {
    "suburb_id": 3803,
    "state": "nsw",
    "postcode": 2153,
    "suburb_name": "Winston Hills"
  },
  {
    "suburb_id": 305,
    "state": "nsw",
    "postcode": 2528,
    "suburb_name": "Barrack Heights"
  },
  {
    "suburb_id": 2646,
    "state": "nsw",
    "postcode": 2076,
    "suburb_name": "Normanhurst"
  },
  {
    "suburb_id": 1098,
    "state": "nsw",
    "postcode": 2132,
    "suburb_name": "Croydon"
  },
  {
    "suburb_id": 1803,
    "state": "nsw",
    "postcode": 2448,
    "suburb_name": "Hyland Park"
  },
  {
    "suburb_id": 2849,
    "state": "nsw",
    "postcode": 2324,
    "suburb_name": "Pindimar"
  },
  {
    "suburb_id": 932,
    "state": "nsw",
    "postcode": 2093,
    "suburb_name": "Clontarf"
  },
  {
    "suburb_id": 3120,
    "state": "nsw",
    "postcode": 2261,
    "suburb_name": "Shelly Beach"
  },
  {
    "suburb_id": 1766,
    "state": "nsw",
    "postcode": 2286,
    "suburb_name": "Holmesville"
  },
  {
    "suburb_id": 3163,
    "state": "nsw",
    "postcode": 2440,
    "suburb_name": "South Kempsey"
  },
  {
    "suburb_id": 3951,
    "state": "nsw",
    "postcode": 2446,
    "suburb_name": "Yippin Creek"
  },
  {
    "suburb_id": 303,
    "state": "nsw",
    "postcode": 3644,
    "suburb_name": "Barooga"
  },
  {
    "suburb_id": 833,
    "state": "nsw",
    "postcode": 2218,
    "suburb_name": "Carlton"
  },
  {
    "suburb_id": 3722,
    "state": "nsw",
    "postcode": 2250,
    "suburb_name": "West Gosford"
  },
  {
    "suburb_id": 3955,
    "state": "nsw",
    "postcode": 2228,
    "suburb_name": "Yowie Bay"
  },
  {
    "suburb_id": 3244,
    "state": "nsw",
    "postcode": 2441,
    "suburb_name": "Stuarts Point"
  },
  {
    "suburb_id": 2493,
    "state": "nsw",
    "postcode": 2519,
    "suburb_name": "Mount Ousley"
  },
  {
    "suburb_id": 323,
    "state": "nsw",
    "postcode": 2536,
    "suburb_name": "Batemans Bay"
  },
  {
    "suburb_id": 1760,
    "state": "nsw",
    "postcode": 2753,
    "suburb_name": "Hobartville"
  },
  {
    "suburb_id": 1905,
    "state": "nsw",
    "postcode": 2380,
    "suburb_name": "Kelvin"
  },
  {
    "suburb_id": 696,
    "state": "nsw",
    "postcode": 2784,
    "suburb_name": "Bullaburra"
  },
  {
    "suburb_id": 3898,
    "state": "nsw",
    "postcode": 2259,
    "suburb_name": "Wyongah"
  },
  {
    "suburb_id": 3767,
    "state": "nsw",
    "postcode": 2577,
    "suburb_name": "Wildes Meadow"
  },
  {
    "suburb_id": 2134,
    "state": "nsw",
    "postcode": 2747,
    "suburb_name": "Llandilo"
  },
  {
    "suburb_id": 2186,
    "state": "nsw",
    "postcode": 2447,
    "suburb_name": "Macksville"
  },
  {
    "suburb_id": 1663,
    "state": "nsw",
    "postcode": 2722,
    "suburb_name": "Gundagai"
  },
  {
    "suburb_id": 986,
    "state": "nsw",
    "postcode": 2710,
    "suburb_name": "Conargo"
  },
  {
    "suburb_id": 3519,
    "state": "nsw",
    "postcode": 2539,
    "suburb_name": "Ulladulla"
  },
  {
    "suburb_id": 2053,
    "state": "nsw",
    "postcode": 2299,
    "suburb_name": "Lambton"
  },
  {
    "suburb_id": 788,
    "state": "nsw",
    "postcode": 2747,
    "suburb_name": "Cambridge Gardens"
  },
  {
    "suburb_id": 1163,
    "state": "nsw",
    "postcode": 2706,
    "suburb_name": "Darlington Point"
  },
  {
    "suburb_id": 1141,
    "state": "nsw",
    "postcode": 2630,
    "suburb_name": "Dairymans Plains"
  },
  {
    "suburb_id": 752,
    "state": "nsw",
    "postcode": 2168,
    "suburb_name": "Busby"
  },
  {
    "suburb_id": 2396,
    "state": "nsw",
    "postcode": 2738,
    "suburb_name": "Monak"
  },
  {
    "suburb_id": 1388,
    "state": "nsw",
    "postcode": 2473,
    "suburb_name": "Evans Head"
  },
  {
    "suburb_id": 974,
    "state": "nsw",
    "postcode": 2756,
    "suburb_name": "Colo"
  },
  {
    "suburb_id": 3135,
    "state": "nsw",
    "postcode": 2481,
    "suburb_name": "Skinners Shoot"
  },
  {
    "suburb_id": 2686,
    "state": "nsw",
    "postcode": 2068,
    "suburb_name": "North Willoughby"
  },
  {
    "suburb_id": 1130,
    "state": "nsw",
    "postcode": 2342,
    "suburb_name": "Currabubula"
  },
  {
    "suburb_id": 1401,
    "state": "nsw",
    "postcode": 2094,
    "suburb_name": "Fairlight"
  },
  {
    "suburb_id": 1840,
    "state": "nsw",
    "postcode": 2716,
    "suburb_name": "Jerilderie"
  },
  {
    "suburb_id": 2446,
    "state": "nsw",
    "postcode": 2537,
    "suburb_name": "Moruya"
  },
  {
    "suburb_id": 3370,
    "state": "nsw",
    "postcode": 2795,
    "suburb_name": "The Lagoon"
  },
  {
    "suburb_id": 2864,
    "state": "nsw",
    "postcode": 2250,
    "suburb_name": "Point Clare"
  },
  {
    "suburb_id": 1787,
    "state": "nsw",
    "postcode": 2643,
    "suburb_name": "Howlong"
  },
  {
    "suburb_id": 1686,
    "state": "nsw",
    "postcode": 2262,
    "suburb_name": "Halekulani"
  },
  {
    "suburb_id": 530,
    "state": "nsw",
    "postcode": 2632,
    "suburb_name": "Bombala"
  },
  {
    "suburb_id": 523,
    "state": "nsw",
    "postcode": 2540,
    "suburb_name": "Bolong"
  },
  {
    "suburb_id": 3133,
    "state": "nsw",
    "postcode": 2478,
    "suburb_name": "Skennars Head"
  },
  {
    "suburb_id": 1109,
    "state": "nsw",
    "postcode": 2660,
    "suburb_name": "Culcairn"
  },
  {
    "suburb_id": 1953,
    "state": "nsw",
    "postcode": 2487,
    "suburb_name": "Kings Forest"
  },
  {
    "suburb_id": 963,
    "state": "nsw",
    "postcode": 2833,
    "suburb_name": "Collarenebri"
  },
  {
    "suburb_id": 965,
    "state": "nsw",
    "postcode": 2097,
    "suburb_name": "Collaroy Plateau"
  },
  {
    "suburb_id": 356,
    "state": "nsw",
    "postcode": 2518,
    "suburb_name": "Bellambi"
  },
  {
    "suburb_id": 1979,
    "state": "nsw",
    "postcode": 2217,
    "suburb_name": "Kogarah"
  },
  {
    "suburb_id": 3486,
    "state": "nsw",
    "postcode": 2720,
    "suburb_name": "Tumut"
  },
  {
    "suburb_id": 3172,
    "state": "nsw",
    "postcode": 2340,
    "suburb_name": "South Tamworth"
  },
  {
    "suburb_id": 3577,
    "state": "nsw",
    "postcode": 2163,
    "suburb_name": "Villawood"
  },
  {
    "suburb_id": 416,
    "state": "nsw",
    "postcode": 2209,
    "suburb_name": "Beverly Hills"
  },
  {
    "suburb_id": 537,
    "state": "nsw",
    "postcode": 2469,
    "suburb_name": "Bonalbo"
  },
  {
    "suburb_id": 2657,
    "state": "nsw",
    "postcode": 2099,
    "suburb_name": "North Curl Curl"
  },
  {
    "suburb_id": 1989,
    "state": "nsw",
    "postcode": 2352,
    "suburb_name": "Kootingal"
  },
  {
    "suburb_id": 1620,
    "state": "nsw",
    "postcode": 2251,
    "suburb_name": "Green Point"
  },
  {
    "suburb_id": 929,
    "state": "nsw",
    "postcode": 2321,
    "suburb_name": "Cliftleigh"
  },
  {
    "suburb_id": 3302,
    "state": "nsw",
    "postcode": 2319,
    "suburb_name": "Tanilba Bay"
  },
  {
    "suburb_id": 506,
    "state": "nsw",
    "postcode": 2429,
    "suburb_name": "Bobin"
  },
  {
    "suburb_id": 3658,
    "state": "nsw",
    "postcode": 2447,
    "suburb_name": "Warrell Creek"
  },
  {
    "suburb_id": 2257,
    "state": "nsw",
    "postcode": 2420,
    "suburb_name": "Martins Creek"
  },
  {
    "suburb_id": 479,
    "state": "nsw",
    "postcode": 2560,
    "suburb_name": "Blair Athol"
  },
  {
    "suburb_id": 3839,
    "state": "nsw",
    "postcode": 2767,
    "suburb_name": "Woodcroft"
  },
  {
    "suburb_id": 1652,
    "state": "nsw",
    "postcode": 2828,
    "suburb_name": "Gulargambone"
  },
  {
    "suburb_id": 3472,
    "state": "nsw",
    "postcode": 2259,
    "suburb_name": "Tuggerawong"
  },
  {
    "suburb_id": 2756,
    "state": "nsw",
    "postcode": 2800,
    "suburb_name": "Orange"
  },
  {
    "suburb_id": 1559,
    "state": "nsw",
    "postcode": 2640,
    "suburb_name": "Glenroy"
  },
  {
    "suburb_id": 3006,
    "state": "nsw",
    "postcode": 2480,
    "suburb_name": "Rosebank"
  },
  {
    "suburb_id": 3058,
    "state": "nsw",
    "postcode": 2168,
    "suburb_name": "Sadleir"
  },
  {
    "suburb_id": 1546,
    "state": "nsw",
    "postcode": 2167,
    "suburb_name": "Glenfield"
  },
  {
    "suburb_id": 2707,
    "state": "nsw",
    "postcode": 2480,
    "suburb_name": "Numulgi"
  },
  {
    "suburb_id": 2619,
    "state": "nsw",
    "postcode": 2472,
    "suburb_name": "New Italy"
  },
  {
    "suburb_id": 576,
    "state": "nsw",
    "postcode": 2471,
    "suburb_name": "Bora Ridge"
  },
  {
    "suburb_id": 2259,
    "state": "nsw",
    "postcode": 2579,
    "suburb_name": "Marulan"
  },
  {
    "suburb_id": 826,
    "state": "nsw",
    "postcode": 2285,
    "suburb_name": "Cardiff South"
  },
  {
    "suburb_id": 1065,
    "state": "nsw",
    "postcode": 2460,
    "suburb_name": "Coutts Crossing"
  }
]
